{
  "type" : "FeatureCollection",
  "features" : [{"type":"Feature","id":0,"geometry":{"type":"Point","coordinates":[110.0820470000001,34.481051999999977]},"properties":{"FID":0,"osm_id":"989111766","code":4111,"fclass":"peak","name":"华山东峰"}},{"type":"Feature","id":1,"geometry":{"type":"Point","coordinates":[110.08130870000014,34.493432300000109]},"properties":{"FID":1,"osm_id":"991111430","code":4111,"fclass":"peak","name":"华山北峰"}},{"type":"Feature","id":2,"geometry":{"type":"Point","coordinates":[110.07807290000011,34.477761700000087]},"properties":{"FID":2,"osm_id":"2260053296","code":4111,"fclass":"peak","name":"华山南峰"}},{"type":"Feature","id":3,"geometry":{"type":"Point","coordinates":[110.07677640000014,34.481634800000108]},"properties":{"FID":3,"osm_id":"2260053392","code":4111,"fclass":"peak","name":"华山西峰"}},{"type":"Feature","id":4,"geometry":{"type":"Point","coordinates":[110.08075620000005,34.480573800000059]},"properties":{"FID":4,"osm_id":"2282557101","code":4111,"fclass":"peak","name":"华山中峰"}}]
}