{
"type": "FeatureCollection",
"name": "Wutaishan_Taihangshan",
"crs": { "type": "name", "properties": { "name": "urn:ogc:def:crs:OGC:1.3:CRS84" } },
"features": [
{ "type": "Feature", "properties": { "osm_id": "3317985382", "code": 4111, "fclass": "peak", "name": "五台山（五台）" }, "geometry": { "type": "Point", "coordinates": [ 116.165147900000079, 40.007657 ] } },
{ "type": "Feature", "properties": { "osm_id": "9013733046", "code": 4111, "fclass": "peak", "name": "五台山（四台）" }, "geometry": { "type": "Point", "coordinates": [ 116.161927600000013, 40.010539700000152 ] } },
{ "type": "Feature", "properties": { "osm_id": "9724239125", "code": 4111, "fclass": "peak", "name": "五台山（大台）" }, "geometry": { "type": "Point", "coordinates": [ 116.1541621, 40.017579899999987 ] } },
{ "type": "Feature", "properties": { "osm_id": "9724239126", "code": 4111, "fclass": "peak", "name": "五台山（二台）" }, "geometry": { "type": "Point", "coordinates": [ 116.157533700000158, 40.015607100000011 ] } },
{ "type": "Feature", "properties": { "osm_id": "9724239127", "code": 4111, "fclass": "peak", "name": "五台山（三台）" }, "geometry": { "type": "Point", "coordinates": [ 116.159283, 40.012454500000104 ] } }
]
}
