{
  "type" : "FeatureCollection",
  "features" : [{"type":"Feature","id":0,"geometry":{"type":"LineString","coordinates":[[90.566070556000057,34.26804351800007],[90.865876208000032,34.294710780000059],[91.077514140000062,34.313941631000034],[91.130414424000037,34.318368804000045],[91.165665981000075,34.320697974000041],[91.183282576000067,34.32148998100007],[91.200889696000047,34.321897998000054],[91.218483805000062,34.321779113000048],[91.236222592000047,34.321008157000051],[91.25394824600005,34.319702868000036],[91.289374060000057,34.316040789000056],[91.324781370000039,34.311582699000041],[91.519530023000073,34.284425458000044],[91.661339588000033,34.264984257000037],[91.696738249000077,34.259891166000045],[91.731982877000064,34.254305435000049],[91.749490910000077,34.251168007000047],[91.766874267000048,34.247666921000075],[91.784079946000077,34.243658155000048],[91.801036956000075,34.238951229000065],[91.817651534000049,34.233297597000046],[91.833693769000035,34.226573349000034],[91.849398156000063,34.218953381000063],[91.864855048000038,34.210721855000031],[91.910337859000037,34.184673071000077],[91.925327697000057,34.176270343000056],[91.940267996000046,34.16842448400007],[91.955169156000068,34.161463542000035],[91.970036230000062,34.155804427000078],[91.984869920000051,34.151984345000074],[91.999667287000079,34.150696564000043],[92.013494294000054,34.152297685000065],[92.027298833000032,34.156149653000057],[92.041094718000068,34.161654058000067],[92.054896102000043,34.168332646000067],[92.068718822000051,34.175798875000055],[92.11053176300004,34.19990619400005],[92.124689700000033,34.207631355000046],[92.139035578000062,34.214751082000078],[92.15363756000005,34.220946697000045],[92.168583369000032,34.225838231000068],[92.184826228000077,34.229269651000038],[92.201448041000049,34.231223432000036],[92.218348423000066,34.232086770000024],[92.235451013000045,34.232157388000076],[92.252698530000032,34.231661265000071],[92.287470179000081,34.229602345000046],[92.339969622000069,34.225265049000029],[92.44508896800005,34.215554265000037],[92.479814359000045,34.211887502000025],[92.513991903000033,34.207392656000025],[92.530713140000046,34.204566068000076],[92.547055209000064,34.201131266000061],[92.562875496000061,34.196852424000042],[92.57798723500008,34.19142084300006],[92.592149254000049,34.184437790000061],[92.603842486000076,34.176647652000042],[92.614888925000059,34.167761319000078],[92.636303225000063,34.14860524900007],[92.64727375800004,34.139227211000048],[92.658834243000058,34.130583659000024],[92.672941068000057,34.122104811000042],[92.687955640000041,34.114839404000065],[92.703648439000062,34.108513519000041],[92.719842347000053,34.102931817000069],[92.736402866000049,34.097969714000044],[92.75322949200006,34.093568233000042],[92.770248397000046,34.089732071000071],[92.787406392000037,34.086531239000067],[92.804665989000057,34.084106399000063],[92.82200140100008,34.082677948000025],[92.838730398000052,34.082434026000044],[92.855469838000033,34.083165376000068],[92.872177284000031,34.084719059000065],[92.888807924000048,34.087018206000039],[92.905310976000067,34.090057985000044],[92.921625910000046,34.093904676000079],[92.937678457000061,34.098697800000025],[92.953412845000059,34.104556205000051],[92.968879332000085,34.111276489000034],[92.984146119000059,34.118625164000036],[92.999266232000082,34.126423559000045],[93.029221368000037,34.142855569000062],[93.103579741000033,34.185031404000028],[93.133521454000061,34.200853066000036],[93.148636237000062,34.208131683000033],[93.163901974000055,34.214758316000029],[93.179375555000036,34.220492356000079],[93.195130561000042,34.225021408000032],[93.212066305000064,34.228218003000052],[93.229309042000068,34.230102320000071],[93.246775215000071,34.231031587000075],[93.26440160900006,34.231276069000046],[93.299959002000037,34.230463367000027],[93.353667291000079,34.227656307000075],[93.497367676000067,34.218331735000049],[93.551271777000068,34.215159449000055],[93.587151755000036,34.213681179000048],[93.605044943000053,34.213350794000064],[93.622881869000082,34.213461120000034],[93.640633777000062,34.214196328000071],[93.65826080800008,34.215802917000076],[93.675116959000036,34.218381646000068],[93.69181906600005,34.22183446300005],[93.708362994000083,34.225996519000034],[93.724726027000031,34.230771017000052],[93.740864130000034,34.236125111000035],[93.75670798200008,34.242088911000053],[93.772157597000046,34.248757799000032],[93.787075462000075,34.256298087000062],[93.801278135000075,34.264955892000046],[93.814693777000059,34.274996041000065],[93.827390900000069,34.286126046000049],[93.83956039900005,34.298051867000027],[93.851347617000044,34.310550746000047],[93.874183909000067,34.336645048000037],[93.896474456000078,34.363537949000033],[93.962607675000072,34.445144483000036],[93.984968981000065,34.471715208000035],[93.996353482000075,34.484619676000079],[94.007957145000034,34.497116255000037],[94.019870882000077,34.509036765000076],[94.032216805000076,34.520155440000053],[94.045156925000072,34.530172999000058],[94.058903377000036,34.538697973000069],[94.073259311000072,34.54527452800005],[94.088382129000081,34.550436796000042],[94.104065903000048,34.554570909000063],[94.120149001000073,34.55798330500005],[94.13650401700005,34.560920198000076],[94.186259567000036,34.568795411000053],[94.202820891000044,34.571672969000076],[94.21925051900007,34.574971063000078],[94.235468443000059,34.578902781000068],[94.251381152000079,34.583725599000047],[94.267149207000045,34.589741442000047],[94.282590836000054,34.596698357000037],[94.297788049000076,34.604358729000069],[94.312804356000072,34.612539348000041],[94.327688394000063,34.621100383000055],[94.35719838600005,34.63896457900006],[94.430403349000073,34.685122835000072],[94.459739080000077,34.703127609000035],[94.474478352000062,34.711740386000031],[94.489297323000073,34.719921260000035],[94.50423001200005,34.727484497000034],[94.519321554000044,34.734182007000072],[94.53463140100007,34.739685761000032],[94.550237066000079,34.743567189000032],[94.566289850000032,34.745487216000072],[94.582641915000067,34.745772594000073],[94.59921530400004,34.744860909000067],[94.615950498000075,34.743086756000025],[94.632802588000061,34.740702548000058],[94.666731735000042,34.734804849000056],[94.71789444500007,34.724665581000068],[94.786065763000067,34.710369265000054],[94.819822654000063,34.702745976000074],[94.836502787000086,34.698639373000049],[94.852972153000053,34.69420487800005],[94.869145909000054,34.689299284000072],[94.88491121800007,34.683731815000044],[94.900119845000063,34.677251790000071],[94.914579591000063,34.669534191000025],[94.927116688000069,34.661096883000027],[94.939051300000074,34.651644777000058],[94.95059057900005,34.641506344000049],[94.984602889000087,34.609690758000056],[94.996297543000082,34.599445784000068],[95.008470660000057,34.589807701000041],[95.022383138000066,34.580265845000042],[95.036912910000069,34.571530931000041],[95.051904707000062,34.563402030000077],[95.067238008000061,34.555723829000044],[95.098580996000067,34.541279763000034],[95.146455518000039,34.520945954000069],[95.19456013100006,34.50173460700006],[95.226399338000078,34.489830917000063],[95.242142886000067,34.484336653000071],[95.257697128000075,34.479286882000054],[95.272986744000036,34.47482601400003],[95.287913106000076,34.471137222000038],[95.30234819900005,34.468448115000058],[95.32331997700004,34.465743917000054],[95.333489968000038,34.463664317000053],[95.346271404000049,34.459131161000073],[95.358955225000045,34.452750303000073],[95.371581491000086,34.444986262000043],[95.384181599000044,34.436211391000029],[95.39678090700005,34.426724171000046],[95.447572642000068,34.385945274000051],[95.460461776000045,34.375892574000034],[95.473465140000087,34.366214003000039],[95.486601842000084,34.357086124000034],[95.512610450000068,34.340589314000056],[95.524965092000059,34.332404512000039],[95.536361233000036,34.323704311000029],[95.546331028000054,34.314035797000031],[95.554299505000074,34.303472961000068],[95.561094079000043,34.292054993000079],[95.573573359000079,34.268548729000031],[95.580417852000039,34.257383483000069],[95.588469996000072,34.247256324000034],[95.598463869000057,34.238311991000046],[95.609878216000084,34.230479474000049],[95.62223311200006,34.223263446000033],[95.64811032700004,34.208836442000063],[95.660872396000059,34.200694812000052],[95.674088486000073,34.190587948000029],[95.686743104000072,34.17933742200006],[95.698971426000071,34.167238214000065],[95.710879885000054,34.154517412000075],[95.734047325000063,34.127856555000051],[95.767906251000056,34.086290503000043],[95.845887161000064,33.987710331000073],[95.86850847900007,33.959973653000077],[95.880036613000073,33.946370819000037],[95.891800528000033,33.933054899000069],[95.903899133000039,33.920146421000027],[95.916464758000075,33.907807386000059],[95.929672076000031,33.896252486000037],[95.943532533000052,33.88574863100007],[95.958024803000058,33.876017495000042],[95.972978173000058,33.866850855000052],[95.988262576000068,33.858093121000024],[96.003779801000064,33.849631604000024],[96.035235232000048,33.833316422000053],[96.066938195000034,33.817616607000048],[96.098616647000085,33.802636333000066],[96.130006557000058,33.788897416000054],[96.145483844000069,33.782802802000049],[96.160732244000087,33.777479018000065],[96.175664560000087,33.773188812000058],[96.19740405400006,33.768382263000035],[96.207828885000083,33.765621631000045],[96.219819197000049,33.761207910000053],[96.243140708000055,33.750735839000072],[96.254876390000049,33.746064411000077],[96.266929670000081,33.742733534000024],[96.280377860000044,33.741236866000065],[96.294185746000039,33.74134949200004],[96.321932657000048,33.743363415000033],[96.335388590000036,33.743810207000024],[96.348209533000045,33.742865250000079],[96.360079787000075,33.739657364000038],[96.37089050700007,33.733468461000029],[96.380927857000074,33.724984605000031],[96.400795970000047,33.704609576000053],[96.411683824000079,33.694246596000028],[96.42372664700008,33.684642911000026],[96.436825788000078,33.675707182000053],[96.450720112000056,33.667294379000055],[96.465205156000081,33.659285314000044],[96.495348042000046,33.644107853000037],[96.573274390000051,33.608069562000026],[96.604075565000073,33.593215078000071],[96.619087038000032,33.58538449200006],[96.633729957000071,33.577102681000042],[96.647815746000049,33.568288953000035],[96.661161986000081,33.558802740000033],[96.673523174000081,33.548445681000032],[96.684576244000084,33.536950083000079],[96.693558078000081,33.524885875000052],[96.701413978000062,33.511845785000048],[96.708478163000052,33.498113446000048],[96.715032964000045,33.483926986000029],[96.734036253000056,33.440641811000035],[96.740917987000046,33.426606274000051],[96.748497088000079,33.413116296000055],[96.757085460000042,33.400429723000059],[96.76685221300005,33.388851127000066],[96.777690318000055,33.378193271000043],[96.789376324000045,33.368342514000062],[96.801744413000051,33.359244954000076],[96.814678369000035,33.350905277000038],[96.828104867000036,33.343387516000064],[96.841988138000033,33.336817824000036],[96.856325807000076,33.331389104000039],[96.871232951000081,33.327212168000074],[96.886437869000076,33.324049505000062],[96.901764405000051,33.321546298000044],[96.932088318000069,33.317285635000076],[96.946706364000079,33.314944629000024],[96.96066045200007,33.31205544200003],[96.973666042000048,33.30826690400005],[96.985372086000041,33.303165110000066],[96.995342986000082,33.296249932000023],[97.003202377000036,33.28723818800006],[97.009538612000085,33.276483752000047],[97.014972352000086,33.264516585000024],[97.025365432000058,33.238683695000077],[97.031407949000084,33.225566443000048],[97.039307454000038,33.211592255000028],[97.04840418100008,33.197936430000027],[97.058403831000078,33.184538543000031],[97.069076038000048,33.171346711000069],[97.091769696000085,33.145415791000062],[97.127615284000058,33.107217718000072],[97.164315602000045,33.069441715000039],[97.262770412000066,32.96928719400006],[97.299076938000042,32.931519475000073],[97.322444270000062,32.90598188000007],[97.333640163000041,32.893002796000076],[97.34433832600007,32.879809525000042],[97.354356719000066,32.866324383000062],[97.363458506000086,32.852446605000068],[97.371339947000081,32.838047285000073],[97.377546298000084,32.823764788000062],[97.388299390000043,32.79440212600008],[97.394131332000086,32.779823836000048],[97.400925850000078,32.765726717000064],[97.40866679800007,32.751999556000044],[97.417194499000061,32.738634610000076],[97.426404043000048,32.725653651000073],[97.43624290200006,32.713111544000071],[97.446709917000078,32.701101041000072],[97.457855986000084,32.689758995000034],[97.46978654600008,32.67927405000006],[97.48356251000007,32.669135132000065],[97.498139798000068,32.659937878000051],[97.513294677000033,32.651424809000048],[97.528858810000031,32.643400908000046],[97.56074861500008,32.628276137000057],[97.609461080000074,32.606684446000031],[97.740004995000049,32.550069711000049],[97.919132824000087,32.471805658000051],[98.066135186000054,32.408147116000066],[98.098346259000039,32.393717167000034],[98.114153198000054,32.386296439000034],[98.129625341000065,32.378640731000075],[98.144612101000064,32.370640748000028],[98.158909249000033,32.362147482000069],[98.172243408000043,32.352960475000032],[98.184253457000068,32.34281363100007],[98.194468996000069,32.331358590000036],[98.201919257000043,32.319523584000024],[98.208018920000086,32.306646387000058],[98.213332882000032,32.293081882000024],[98.223636592000048,32.265088601000059],[98.22961478600007,32.251197601000058],[98.237325813000041,32.236569952000025],[98.246155649000059,32.222328968000056],[98.255832610000084,32.208388475000049],[98.266143925000051,32.19467871300003],[98.288048804000084,32.167740362000075],[98.310956945000044,32.141194360000043],[98.369181465000054,32.075326181000037],[98.391507931000035,32.048766022000052],[98.402044064000052,32.035331836000069],[98.411910573000057,32.02173549400004],[98.42083892800008,32.007915720000028],[98.428474464000033,31.99379358300007],[98.434354083000073,31.979268507000029],[98.43802816200008,31.964634318000037],[98.43993669300005,31.94977635500004],[98.440437202000055,31.934964029000071],[98.439786570000081,31.920469788000048],[98.438162403000035,31.906584290000069],[98.434805837000056,31.885823328000072],[98.434278152000047,31.875633563000065],[98.436062188000051,31.862079354000059],[98.440243546000033,31.84821213400005],[98.44620967600008,31.834105153000053],[98.453485891000071,31.819816737000053],[98.461709764000034,31.805392512000026],[98.470608411000057,31.790867687000059],[98.479979224000033,31.776269193000076],[98.499586571000066,31.746928887000024],[98.550570222000033,31.673348031000046],[98.581930706000037,31.629636536000078],[98.603627802000062,31.60119936500007],[98.614940297000032,31.587390416000062],[98.62672505200004,31.573996347000048],[98.638897247000045,31.561300587000062],[98.651538247000076,31.549007772000039],[98.677786130000072,31.525216428000078],[98.704823961000045,31.502019116000042],[98.773249091000082,31.444681659000025],[98.799580819000084,31.421583730000066],[98.812005826000075,31.409932954000055],[98.823602097000048,31.398187123000071],[98.834001359000069,31.386321089000035],[98.842706661000079,31.374304859000063],[98.849055756000041,31.362103047000062],[98.852177709000046,31.349674804000074],[98.851338775000045,31.336896245000048],[98.847190660000081,31.324042529000053],[98.840592072000049,31.311328388000049],[98.832179753000048,31.298999351000077],[98.822410244000082,31.287352747000057],[98.81159400100006,31.276762378000058],[98.799922052000056,31.267707483000038],[98.787485938000032,31.260806454000033],[98.774291902000073,31.25685530100003],[98.760674422000079,31.256437251000079],[98.746541023000077,31.258702410000069],[98.732122692000075,31.262735683000074],[98.689255678000052,31.277875479000045],[98.675864654000065,31.281558570000072],[98.663417135000032,31.283254767000074],[98.652327447000062,31.281994320000024],[98.644002557000078,31.277779655000074],[98.637080381000033,31.271099786000036],[98.631588217000058,31.262567840000031],[98.627653462000069,31.252685057000065],[98.625511483000082,31.241863115000058],[98.625516374000085,31.230444324000075],[98.628420649000077,31.217161308000072],[98.633817561000058,31.20362934700006],[98.641036313000086,31.189947412000038],[98.649564544000043,31.176182823000033],[98.659014494000076,31.162379869000063],[98.669094292000068,31.148566121000044],[98.679583932000071,31.13475698600007],[98.722724431000074,31.079598204000035],[98.743429247000051,31.051926636000076],[98.753135535000069,31.037994205000075],[98.762177152000049,31.023950830000047],[98.770316789000049,31.009749587000044],[98.777249692000055,30.995331393000072],[98.782587178000085,30.980622649000054],[98.785784953000075,30.967208722000066],[98.787962537000055,30.953645128000062],[98.791610493000064,30.926667037000072],[98.794237688000067,30.913565495000057],[98.798215481000057,30.900955857000042],[98.805039286000067,30.887239604000058],[98.813872378000042,30.874213258000054],[98.824164606000068,30.861693460000026],[98.83547225600006,30.849536765000039],[98.847429447000081,30.837630352000076],[98.884138113000063,30.802571596000064],[98.895648750000078,30.790869464000025],[98.906207662000043,30.779039448000049],[98.915348081000047,30.766993805000027],[98.922481417000085,30.754623687000048],[98.926859850000085,30.741790525000056],[98.927969466000036,30.729563334000034],[98.927017173000081,30.716867347000061],[98.922436835000042,30.690161083000078],[98.920413729000074,30.676114927000071],[98.919405450000056,30.660197341000071],[98.919539155000052,30.643806460000064],[98.920546160000072,30.62707505700007],[98.922212547000072,30.610102898000036],[98.924370768000074,30.592963934000068],[98.926891436000062,30.575712237000062],[98.93264982900007,30.541015145000074],[98.945532395000043,30.47136950600003],[98.982582106000052,30.280121196000039],[99.026733036000053,30.05447805600005],[99.032866392000074,30.019787486000041],[99.035577372000034,30.002452348000077],[99.037906444000043,29.985128134000036],[99.039696650000053,29.967819381000027],[99.04073909300007,29.950532159000034],[99.040759492000063,29.933274466000057],[99.039532331000032,29.916012812000076],[99.037280513000042,29.898780801000044],[99.03428252100008,29.881570390000036],[99.030753196000035,29.864375492000079],[99.022730270000068,29.830015343000071],[99.005895808000048,29.761350801000049],[99.002107187000036,29.74419087900003],[98.998743070000046,29.727033470000038],[98.995992706000038,29.709879283000078],[98.994102607000059,29.69272944100004],[98.993393549000075,29.675585535000039],[98.994116386000087,29.658547001000045],[98.996010531000081,29.641514396000048],[98.998762695000039,29.624486181000066],[99.002134305000084,29.607461216000047],[99.005946159000075,29.590438680000034],[99.010065447000045,29.573417995000057],[99.018865073000086,29.539380736000055],[99.06056194100006,29.386237712000025],[99.073985028000038,29.335132017000035],[99.082290889000035,29.30097168900005],[99.086075209000057,29.283837978000065],[99.089484957000082,29.266649224000048],[99.092384139000046,29.249385075000077],[99.094685417000051,29.231831813000042],[99.09646727900008,29.214201651000053],[99.097870858000078,29.196515500000032],[99.09994387100005,29.161034553000036],[99.102749282000048,29.089873788000034],[99.111013250000042,28.840533065000045],[99.113678692000065,28.787227156000029],[99.116543509000053,28.751868669000032],[99.118595826000046,28.734294721000026],[99.121270077000077,28.716828261000046],[99.12458644700007,28.700001761000067],[99.128472682000051,28.683276582000076],[99.132751459000076,28.666624426000055],[99.151114465000035,28.600394656000049],[99.155432776000055,28.583884768000075],[99.159391995000078,28.567388493000067],[99.162833782000064,28.550909717000025],[99.165565954000044,28.53445681200003],[99.167353007000031,28.518043692000049],[99.168024261000085,28.50382465000007],[99.168259188000036,28.475663348000069],[99.168643547000045,28.46181047500005],[99.169776770000055,28.448186711000062],[99.17213501100008,28.434867207000025],[99.177023440000085,28.419449800000052],[99.183788326000069,28.404450258000054],[99.191934145000062,28.389755199000035],[99.201082204000045,28.37527891700006],[99.210947225000041,28.360957549000034],[99.232036407000066,28.332604590000074],[99.254102516000046,28.304455694000069],[99.321521499000085,28.220157959000062],[99.343457636000039,28.191786078000064],[99.354093926000075,28.177444467000043],[99.364375829000039,28.162935853000079],[99.374157576000073,28.148190993000071],[99.383243241000059,28.13311694500004],[99.391373089000069,28.117590719000077],[99.398112626000056,28.102077109000049],[99.403951611000082,28.086138040000037],[99.40912579500008,28.069886020000069],[99.413813272000084,28.053407057000072],[99.41814523000005,28.036766062000027],[99.426083672000061,28.00317887500006],[99.433338886000058,27.969377121000036],[99.439926939000031,27.935495633000073],[99.442880398000057,27.918550026000048],[99.445510717000047,27.901611106000075],[99.447709991000067,27.884686102000046],[99.449335702000042,27.867783275000079],[99.450204760000076,27.850912964000031],[99.450245516000052,27.835853513000075],[99.449089812000068,27.791024943000025],[99.44941132200006,27.776264033000075],[99.450703141000076,27.761641829000041],[99.453785097000036,27.744888324000044],[99.458281244000034,27.728312238000058],[99.463816406000035,27.71186446300004],[99.470103397000059,27.695507736000025],[99.476925437000034,27.679214139000067],[99.491571369000042,27.646739101000037],[99.514704619000042,27.598135855000066],[99.592918863000079,27.43609252400006],[99.608857244000035,27.403935494000052],[99.625456108000037,27.372257562000073],[99.634213935000048,27.356746422000072],[99.643450512000072,27.341576101000044],[99.653348761000075,27.326876045000063],[99.663736042000039,27.313154204000057],[99.674754943000039,27.299879500000031],[99.686238440000068,27.286931939000056],[99.698059386000068,27.274219808000055],[99.710122284000079,27.261673789000042],[99.73470943600006,27.236885659000052],[99.809743568000044,27.163094622000074],[99.846978118000038,27.125731969000071],[99.871125517000053,27.100273479000066],[99.88278538600008,27.087262231000068],[99.894012332000045,27.073983501000043],[99.904637768000043,27.060357173000057],[99.914439035000044,27.046282783000038],[99.923126009000043,27.031636310000067],[99.930668352000055,27.015905425000028],[99.937110718000042,26.999752112000067],[99.953458039000054,26.95227148500004],[99.958920375000048,26.93819449700004],[99.964873539000052,26.925963458000069],[99.971643481000058,26.916414493000048],[99.979610369000056,26.910632400000054],[99.988205472000061,26.909445355000059],[99.997692237000081,26.911629981000033],[100.00761725500007,26.916453605000072],[100.01754639700005,26.923388551000073],[100.02703919500004,26.932084295000038],[100.03562241200007,26.942345757000055],[100.04276283100006,26.954117699000051],[100.04811395900003,26.967590330000064],[100.05185890500007,26.982246352000061],[100.05441943000005,26.997738342000048],[100.05613606000009,27.013800470000035],[100.05728786200007,27.030228431000069],[100.05960478700007,27.080248323000035],[100.06068659000005,27.09678318400006],[100.06229509400004,27.113069136000036],[100.06470588700006,27.12898453300005],[100.06825539300007,27.144384882000054],[100.07336130600004,27.159092918000056],[100.08070017300008,27.173563474000048],[100.08972542700008,27.187286871000026],[100.09998041600005,27.200458573000049],[100.11110447900006,27.213232000000062],[100.12280868700009,27.225728193000066],[100.17095292500005,27.274694009000029],[100.18224870500006,27.287054983000075],[100.19272527800007,27.299626595000063],[100.20201187800006,27.312516817000073],[100.20963384900006,27.325861535000058],[100.21498185300004,27.339833758000054],[100.21750665700006,27.353851492000047],[100.21796649500004,27.368450542000062],[100.21692455900006,27.383483937000051],[100.21483603300004,27.398837386000025],[100.21207544600009,27.414422844000057],[100.20281370500004,27.461972888000048],[100.20034377300004,27.477952297000058],[100.19869241100008,27.493949237000038],[100.19823260200008,27.509942095000042],[100.19935932800007,27.526851210000075],[100.20186213100004,27.543744672000059],[100.20538105000008,27.560633055000039],[100.20964009700003,27.577525562000062],[100.21960076400006,27.611349773000029],[100.23066898200005,27.645239314000037],[100.24837410500004,27.696017899000026],[100.26092457400006,27.729390542000033],[100.26757323900006,27.74567821200003],[100.27460747700007,27.761492928000052],[100.28218062800005,27.776600310000049],[100.29049870500006,27.790678264000064],[100.29983303200004,27.803290580000066],[100.31053494700006,27.813854737000042],[100.32290797200005,27.821866659000079],[100.33646584600007,27.827471776000039],[100.35064052500007,27.830881800000043],[100.36490345700008,27.832093034000025],[100.37872718200003,27.830882436000024],[100.39154620500005,27.826794366000058],[100.40278194700005,27.819458066000038],[100.41232996600007,27.809354044000031],[100.42000582900005,27.797029111000029],[100.42552885600008,27.783287719000043],[100.42949654800003,27.768270575000031],[100.43231902500008,27.752354998000044],[100.43431310000005,27.735822032000044],[100.43572254700007,27.718879270000059],[100.43673569600008,27.701679438000042],[100.44032509900006,27.615009382000039],[100.44150846500008,27.597993538000026],[100.44314569000005,27.581238605000067],[100.44542412800007,27.56483822000007],[100.44858393800007,27.548913004000042],[100.45293358100008,27.533619030000068],[100.45886702200005,27.51915709900004],[100.46680665200006,27.505460990000074],[100.47618695900007,27.492518332000031],[100.50703784600006,27.455144545000053],[100.51636038900006,27.442223674000047],[100.52418982400008,27.428567888000032],[100.52984348600006,27.414474383000027],[100.53389859300006,27.399618587000077],[100.53672216000007,27.384210144000065],[100.53858688500009,27.368424176000076],[100.53968373400005,27.352411798000048],[100.54013169000007,27.336310500000025],[100.53998430900003,27.320254517000023],[100.53923295700008,27.304385429000035],[100.53780670400005,27.288863345000038],[100.53556891800008,27.273878990000071],[100.53231071400006,27.259667032000038],[100.52774152400008,27.246520851000071],[100.52147734700009,27.234808724000061],[100.51391472800003,27.225462622000066],[100.50520367100006,27.217284173000053],[100.48703771800007,27.202859143000069],[100.47891524900007,27.195915869000032],[100.47237962900005,27.188708891000033],[100.46823792600009,27.180893710000078],[100.46706004300006,27.172643702000073],[100.46796674400008,27.163590853000073],[100.47535811200004,27.131835926000065],[100.47738665100007,27.116955781000058],[100.47838061100003,27.10111915300007],[100.47858075000005,27.084591334000038],[100.47817854200008,27.067572797000025],[100.47732240900007,27.050213823000036],[100.47466363500007,27.014896684000064],[100.46912838200006,26.961452898000061],[100.46449436500006,26.926121303000059],[100.46177616900007,26.90871861100004],[100.45867261800004,26.891600931000028],[100.45504949700006,26.874881824000056],[100.45072641100006,26.858710088000066],[100.44546703400005,26.843279575000054],[100.43896841000009,26.828839997000046],[100.43126664300007,26.815785088000041],[100.41517071200008,26.790916637000066],[100.40876672800005,26.777894562000029],[100.40452346400008,26.763472571000023],[100.40227582700004,26.748075707000055],[100.40150331300003,26.731951989000038],[100.40180566100008,26.715293292000069],[100.40287942700007,26.698245768000049],[100.40449751400007,26.680919139000025],[100.40873968300008,26.645731536000028],[100.42387510500004,26.538543316000073],[100.42865448000003,26.502710191000062],[100.43281519900006,26.466987483000025],[100.43450668700007,26.449224912000034],[100.43581313700008,26.431579294000073],[100.43660271500005,26.414108767000073],[100.43670445200007,26.396893768000041],[100.43589980000007,26.380043865000061],[100.43391416800006,26.363706007000076],[100.42552289100007,26.324482164000074],[100.42403234900007,26.311715448000029],[100.42438120400004,26.298422850000065],[100.42653266700006,26.285260681000068],[100.43023375400008,26.272429679000027],[100.43533785800008,26.26016869800003],[100.44180129900008,26.248768458000029],[100.44968266000006,26.238587565000046],[100.45914515400005,26.230070732000058],[100.47159535100008,26.222988517000033],[100.48571019300005,26.217918376000057],[100.50102686000008,26.21431877200007],[100.51719670800009,26.211776624000038],[100.53396064600008,26.209980959000063],[100.55112878200003,26.208700617000034],[100.56856397200005,26.207765933000076],[100.60387520000006,26.206477060000054],[100.79885684300007,26.200750661000029],[100.83382362000003,26.20018510500006],[100.85113721700009,26.200283476000038],[100.86827529500005,26.200808606000066],[100.88516883500006,26.20194845900005],[100.90172477500005,26.203954537000072],[100.91781957200004,26.207159346000026],[100.93329166800004,26.211996903000056],[100.94833899500009,26.218982598000025],[100.96276890200005,26.227616160000025],[100.97678576000004,26.237383065000074],[100.99056030900005,26.247865501000035],[101.01797304100006,26.269608880000078],[101.03189658500008,26.280254340000056],[101.04617229300004,26.290332442000079],[101.06098655600005,26.299488535000023],[101.07652853800005,26.307462423000061],[101.09264572600006,26.314425941000025],[101.10918886400003,26.320640968000077],[101.12604445100004,26.326308028000028],[101.16037464500005,26.336565331000031],[101.21269466700005,26.350551751000069],[101.30032121900007,26.372934633000057],[101.33479190000008,26.382272276000037],[101.35163600000004,26.387224334000052],[101.36804286400007,26.392493063000074],[101.38381642300004,26.398220308000077],[101.39869002100005,26.404599178000069],[101.41230565500007,26.411889423000048],[101.42418906100005,26.420435925000049],[101.43372085400006,26.430690257000037],[101.44016545400007,26.442319940000061],[101.44472173100007,26.455403682000053],[101.45495425500008,26.498576596000078],[101.45967549400007,26.512882164000075],[101.46581786500008,26.525919182000052],[101.47343876500008,26.53821980400005],[101.48231869700004,26.549666009000077],[101.49232242900007,26.560074021000048],[101.50339492300009,26.569180460000041],[101.51555902800004,26.576626244000067],[101.52999074200005,26.582490201000041],[101.54542221100007,26.586401903000024],[101.56153677900005,26.588758258000041],[101.57808216900008,26.589817802000027],[101.59485192400007,26.58971832800006],[101.61166919500005,26.588490206000074],[101.62635259200005,26.586530673000027],[101.65554193300005,26.581774261000078],[101.67009098000005,26.579882527000052],[101.68463709900004,26.578925954000056],[101.70116075500005,26.579363254000043],[101.71765478600008,26.58100534700003],[101.75030150600008,26.585577877000048],[101.76628139600007,26.587351887000068],[101.78186918000006,26.587936796000065],[101.79689065600007,26.586572937000028],[101.80916223900005,26.58330409000007],[101.82069244800005,26.578113715000029],[101.83127900700003,26.571077342000024],[101.84210263600005,26.560797638000054],[101.85174257500006,26.548685247000037],[101.86051211100005,26.535243828000034],[101.86864491700004,26.520854105000069],[101.87630858400007,26.505800081000075],[101.88361510200008,26.490290735000031],[101.89736733800004,26.458468561000075],[101.90380893600008,26.442338988000074],[101.90988378400004,26.426139833000036],[101.91547153800008,26.409904074000053],[101.92039152900009,26.393651378000072],[101.92438989100003,26.377391502000023],[101.92712287100005,26.361126679000051],[101.92813638400008,26.344853230000069],[101.92704461100004,26.328407574000039],[101.92421125800007,26.311946886000044],[101.92011100500008,26.295470016000024],[101.91510982000005,26.278972702000033],[101.90948974400004,26.262447920000056],[101.90347051600008,26.245886044000031],[101.88465861800006,26.195843135000075],[101.87860500200009,26.178985393000062],[101.87280981800006,26.161841498000058],[101.86217452600005,26.127377435000028],[101.85736021400004,26.110172962000036],[101.85296950800006,26.093087755000056],[101.84913628600003,26.076228239000045],[101.84606548800008,26.059738839000033],[101.84405235300005,26.043816504000063],[101.84350703000007,26.028728823000051],[101.84498514400008,26.014836432000038],[101.84922455800006,26.002620206000074],[101.85510757700007,25.994357452000031],[101.86294624500005,25.987562873000059],[101.87238975600008,25.982293263000031],[101.88527698000007,25.978056865000042],[101.89952616000005,25.975584936000075],[101.91472603300008,25.974440385000037],[101.93055437600003,25.974308356000051],[101.94675337300004,25.974977971000044],[101.96310816100004,25.97632906900003],[101.97942780500006,25.978324000000043],[101.99552798000008,25.981004386000052],[102.01121459800004,25.984492772000067],[102.02626771500007,25.988999007000075],[102.04042525000006,25.994831176000048],[102.05336618600006,26.002410724000072],[102.06486037700006,26.012074126000073],[102.07522018400005,26.023396072000025],[102.08485535100004,26.03585356800005],[102.11289473600004,26.076037105000069],[102.12296949800003,26.089320767000061],[102.13353722800008,26.102352091000057],[102.15574906700004,26.127777640000033],[102.17897107500005,26.152459241000031],[102.20299319500003,26.176343813000074],[102.21532685700004,26.187896609000063],[102.22793007400008,26.199096201000032],[102.24087416900005,26.209835456000064],[102.25425920200007,26.219969951000053],[102.26857936800008,26.229649143000074],[102.28335277400004,26.238708755000062],[102.29845990000007,26.247320841000032],[102.32933571600006,26.263695130000031],[102.37652514600006,26.287238676000072],[102.43995636200003,26.317747256000075],[102.47155099700007,26.332139753000035],[102.48721808300007,26.338797799000076],[102.50272958900007,26.344858611000063],[102.51800817900005,26.350058606000061],[102.53294713300005,26.35404236100004],[102.54740081900007,26.356337157000041],[102.56117284800007,26.356322603000024],[102.57341244400004,26.353654465000034],[102.58451633700008,26.34863604700007],[102.59411983300004,26.341572823000035],[102.60175810600003,26.33262441200003],[102.60731127700006,26.321502659000032],[102.61126391600004,26.309161945000028],[102.61467205900004,26.29630071400004],[102.61855765800004,26.283576409000034],[102.62397191000008,26.271653228000048],[102.63163982200007,26.261231308000049],[102.64132548000003,26.252317657000049],[102.65256483700006,26.245047809000027],[102.66500379700005,26.239685433000034],[102.67838094500007,26.236641861000066],[102.69294589900005,26.236274857000069],[102.70808853200003,26.238191292000067],[102.72364168900003,26.241773033000072],[102.73948237600007,26.246549948000052],[102.75552091000009,26.25216961600006],[102.77169211600005,26.258372057000031],[102.80425250700006,26.271829569000033],[102.85315652700007,26.293281156000035],[102.88539818800007,26.308141755000065],[102.90124505400007,26.315834602000052],[102.91678514400007,26.323814886000036],[102.93188120000008,26.332215223000048],[102.94634678500006,26.341217907000043],[102.95993183200005,26.351067293000028],[102.97230542100004,26.362084907000053],[102.98286567600007,26.374111178000078],[102.99225633700007,26.387246524000034],[103.00075322000004,26.401199619000067],[103.00855140500005,26.415747078000038],[103.01577481600003,26.430719956000075],[103.02248249100006,26.445992309000076],[103.02867128400004,26.461471757000027],[103.03427481900007,26.477091897000037],[103.03915861700006,26.492806294000047],[103.04311127100004,26.508583851000026],[103.04583167600003,26.524405284000068],[103.04691244800006,26.540260533000037],[103.04592524400005,26.557004217000042],[103.04316359800004,26.573766014000057],[103.03911877500008,26.590534884000078],[103.03416112900004,26.607303738000041],[103.02856582300006,26.624068267000041],[103.02253432800006,26.640826095000023],[103.00970142100005,26.674318175000053],[102.94253953400005,26.841428113000063],[102.91643013900006,26.908190795000053],[102.90441173800008,26.941557404000037],[102.89899093100007,26.958234523000044],[102.89419195000005,26.974905677000038],[102.89026360200006,26.991568921000066],[102.88753643500007,27.008221784000057],[102.88644313800006,27.024861230000056],[102.88727436000005,27.041256888000078],[102.88949880100006,27.057663284000057],[102.89564442100004,27.090625200000034],[102.89844037700004,27.107248469000069],[102.90030421400007,27.124021789000039],[102.90081111200004,27.140754256000037],[102.90022977300004,27.157631418000051],[102.89891648000008,27.174608122000052],[102.89367216500005,27.225706979000051],[102.89250802200007,27.242630983000026],[102.89221953300006,27.259388535000028],[102.89325340600004,27.275881081000023],[102.89585487600004,27.291446484000062],[102.89981282800005,27.306597998000029],[102.90484107900005,27.321246388000077],[102.91074213400009,27.335249099000066],[102.91739795400008,27.348398480000071],[102.92476386300007,27.360406742000066],[102.93286583300005,27.370887357000072],[102.94180115300009,27.379332832000046],[102.95174234000007,27.385089218000076],[102.96195218200006,27.387622419000024],[102.97304798400006,27.388288768000052],[102.99743526700007,27.388073259000066],[103.01200546900009,27.38908641200004],[103.02708879800008,27.391226118000077],[103.04244559300008,27.394334299000036],[103.05786034000005,27.398316109000064],[103.07312447100009,27.403142738000042],[103.08801943100008,27.408855499000026],[103.10229954900007,27.41557212500004],[103.11567433800008,27.423495789000071],[103.12779001400008,27.432926986000041],[103.13764935500006,27.443221063000067],[103.14646741500007,27.454720297000051],[103.15459844800006,27.467059433000031],[103.17789558900006,27.506225567000058],[103.18624682300003,27.51917561700003],[103.19646708200008,27.533258475000025],[103.20744774400004,27.546904551000068],[103.21899786700004,27.560213771000065],[103.24325017400008,27.586124755000071],[103.28120422900008,27.62397248700006],[103.31996920200004,27.661272970000027],[103.41125342900006,27.748018355000056],[103.43706007400004,27.773138127000038],[103.44973560700004,27.78587142400005],[103.46214453000005,27.798784252000075],[103.47415727700007,27.811944418000053],[103.48559597400003,27.825440661000073],[103.49622005400005,27.839387500000043],[103.50564162000006,27.853598176000048],[103.51412138600006,27.868164148000062],[103.52172080800005,27.882886642000074],[103.52840856700004,27.89757417900006],[103.53405448900008,27.912028674000055],[103.53841826200005,27.926030856000068],[103.54113252300004,27.939324858000077],[103.54168022100004,27.951601935000042],[103.53936669200004,27.962483557000041],[103.53464928300008,27.970585763000031],[103.52805282700007,27.978023327000074],[103.51247789800004,27.993682689000025],[103.50396753800004,28.004413378000038],[103.49606001200004,28.016526794000072],[103.48880755900007,28.02964608700006],[103.48230947600007,28.043456855000045],[103.47672862800005,28.057690210000032],[103.47230996100006,28.072106043000076],[103.46940221200003,28.086476639000068],[103.46848361800005,28.100570546000029],[103.47019200300008,28.114136519000056],[103.47503711300004,28.126968438000063],[103.48247085100007,28.139168826000059],[103.49181827900009,28.150873460000071],[103.50256105300008,28.162175256000069],[103.51430623100003,28.173127153000053],[103.52675978000008,28.183743194000044],[103.53970465000003,28.193997479000075],[103.55298302100005,28.203820656000062],[103.56648217600008,28.213093718000039],[103.58012341000006,28.221638808000023],[103.59385346500005,28.22920679200007],[103.60763797500005,28.235461450000059],[103.62145652700008,28.239960306000057],[103.63529896500006,28.242132513000058],[103.64815270300005,28.241711230000078],[103.66102931600005,28.239596521000067],[103.68688432400006,28.233590991000028],[103.69988420500005,28.231278050000071],[103.71294841400004,28.23051233700005],[103.72670588700004,28.232060453000031],[103.74049173300006,28.235689855000032],[103.75424351600009,28.24091732200003],[103.76788564100008,28.247370058000058],[103.78132198100008,28.254769310000029],[103.79442685500004,28.262916462000078],[103.80703392700008,28.271682093000038],[103.81892259200004,28.280998112000077],[103.82980133700005,28.290852995000023],[103.83928764500007,28.301289991000033],[103.84688414400006,28.312408124000058],[103.85195095200004,28.324365752000062],[103.85400777700005,28.337933956000029],[103.85333516900005,28.35236683100004],[103.85067185500009,28.367432582000049],[103.84659440300004,28.382956252000042],[103.84155546500006,28.398807235000049],[103.81831402800009,28.463873561000071],[103.81312666400004,28.480294385000036],[103.80879661900008,28.496692359000065],[103.80572651000006,28.513018035000073],[103.80442074500007,28.529207178000036],[103.80519504000006,28.544320814000059],[103.80765090600005,28.559141566000051],[103.81143892800009,28.573541040000066],[103.81631371500004,28.587343954000062],[103.82212284600007,28.600314171000036],[103.82879929200004,28.612137558000029],[103.83635751800006,28.622401315000047],[103.84489325500004,28.630569492000063],[103.85458677600008,28.635954820000052],[103.86604381800004,28.638056357000039],[103.87866231400005,28.637346609000076],[103.89215776300006,28.634762023000064],[103.93619536000006,28.623268880000069],[103.95178638700008,28.620414246000053],[103.96850316900009,28.618955033000077],[103.98555644800007,28.618842949000054],[104.00283851400008,28.619746408000026],[104.02027092000009,28.621403416000078],[104.03779714600006,28.623608276000027],[104.07298037600003,28.629046362000054],[104.12573933500005,28.638108052000064],[104.16070553000009,28.643630032000033],[104.17806825700006,28.645893414000057],[104.19531198300007,28.647611179000023],[104.21239577100005,28.64856663200004],[104.22926568100007,28.648481595000078],[104.24585149900008,28.647001163000027],[104.26184465200004,28.643980201000034],[104.29349163600006,28.63596973500006],[104.30949873900005,28.632584134000069],[104.32542540300005,28.630552622000039],[104.34158909700005,28.629695429000037],[104.35788989900004,28.629815402000077],[104.37423262300007,28.630792294000059],[104.39052065300007,28.632580609000058],[104.40664921000007,28.635210037000036],[104.42249800400003,28.638789011000028],[104.43792319500005,28.643511638000064],[104.45274862600007,28.649667949000047],[104.46651558600007,28.657291843000053],[104.47970042900005,28.666214446000026],[104.49246270000003,28.676078142000051],[104.50493220600003,28.686596862000044],[104.51721697500005,28.697537630000056],[104.55387069500006,28.731014191000043],[104.56631555600006,28.741810807000036],[104.57904055800009,28.752108689000067],[104.59217266100006,28.761670160000051],[104.60586765200009,28.770204464000074],[104.62057948400007,28.777629441000045],[104.63588683600005,28.783951136000042],[104.65163655100008,28.789435554000079],[104.66770932700007,28.794278926000061],[104.68401248200007,28.79861779600003],[104.70047356300006,28.802536665000048],[104.71703473000008,28.806073032000029],[104.73364778700005,28.809219764000034],[104.75026971300008,28.811924807000025],[104.76685846600009,28.814088241000036],[104.78336888700005,28.815556779000076],[104.79974850800005,28.816115844000024],[104.81593309500005,28.815479559000039],[104.83097320000007,28.813602867000043],[104.84579100500008,28.810857707000025],[104.87476202600004,28.804627353000058],[104.88886713200009,28.802033757000061],[104.90264920100009,28.800403265000057],[104.91602313000004,28.800248459000045],[104.93017317900006,28.802137282000047],[104.95682361500008,28.808776861000069],[104.96932061600006,28.811316926000075],[104.98117139600004,28.811788428000057],[104.98925213900009,28.810217358000045],[104.99671502200005,28.807041118000029],[105.00333281500008,28.802374455000063],[105.01024926200006,28.794699209000044],[105.02248539700008,28.775996400000054],[105.02951599200009,28.76646972900005],[105.03862044100003,28.757221754000057],[105.04920894100007,28.748980277000044],[105.06085413300008,28.741860813000073],[105.07319383000004,28.736061509000024],[105.08591225200007,28.731880956000055],[105.09872152400004,28.729738277000024],[105.11071169700006,28.729940573000079],[105.12217499200005,28.732140310000034],[105.13273051400006,28.73610730300004],[105.14149096800008,28.741109259000041],[105.15797138800008,28.751937359000067],[105.16685630100005,28.756109507000076],[105.17855741700004,28.758810820000065],[105.19151491300005,28.759701216000053],[105.23477233000006,28.758987475000026],[105.24984902100005,28.760031973000025],[105.26349201900007,28.762477855000043],[105.27702115000005,28.766255840000042],[105.29031914900008,28.771176021000031],[105.30325509000005,28.777120710000077],[105.31567673000006,28.784040139000069],[105.32740264700004,28.79194954500008],[105.33821421500005,28.800927632000025],[105.34825202100006,28.811284427000032],[105.36700346700007,28.833574510000062],[105.37687113900006,28.844453904000034],[105.38867091000009,28.855367278000074],[105.40150440600007,28.865321243000039],[105.41515118700005,28.874334548000036],[105.42944415800008,28.882356439000034],[105.44425982500007,28.889260691000061],[105.45829773700007,28.894567371000051],[105.47245945900005,28.899127508000049],[105.50017590400006,28.907313822000049],[105.51319914300007,28.911524649000057],[105.52525275800008,28.916186765000077],[105.53595932100006,28.921585719000063],[105.54377168500008,28.926820662000068],[105.55757037000006,28.937145970000074],[105.56451174600005,28.941010023000047],[105.57135756500008,28.943120446000023],[105.57849978800004,28.943688329000054],[105.58568662200008,28.942597701000068],[105.59428146800008,28.938976808000064],[105.60277426100004,28.93352991200004],[105.62029073000008,28.920380210000076],[105.62976935200004,28.914178227000036],[105.64007680700007,28.909224631000029],[105.65343856000004,28.905716641000026],[105.66790463000007,28.904169901000046],[105.68309156400005,28.903850629000033],[105.71433249100005,28.904299464000076],[105.72978638600006,28.903814529000044],[105.74471358900007,28.901965312000073],[105.75875475500004,28.89797618800003],[105.77028436200004,28.892131040000038],[105.78102083800007,28.884638100000075],[105.79116292400005,28.87619638700005],[105.81024659000008,28.859090739000067],[105.81939006900006,28.851767341000027],[105.82835048300007,28.846256088000075],[105.83715303200006,28.843438369000069],[105.84557907400006,28.843967745000043],[105.85353062300004,28.847279552000032],[105.86064227500003,28.852728557000034],[105.86648254500005,28.859807990000036],[105.87053301500003,28.86812608300005],[105.87216542100003,28.877385572000037],[105.87077644700008,28.887969245000079],[105.86694757500004,28.899147499000037],[105.85026600000003,28.934958425000048],[105.84589364800007,28.947429559000057],[105.84365444000008,28.96012899200008],[105.84438576400004,28.973444732000075],[105.84784410200007,28.986784601000068],[105.85351456800004,28.99991966400006],[105.86105366500004,29.012602108000067],[105.87027319300006,29.024547125000026],[105.88112882400009,29.035413646000052],[105.89414033100007,29.045287059000032],[105.90851023500005,29.05391264800005],[105.92384800100007,29.061565021000035],[105.93986028500007,29.068432869000048],[105.95632673600005,29.074630111000033],[105.97307949800006,29.080204005000041],[105.98998569700007,29.085140218000049],[106.00693203700007,29.089365119000036],[106.02381055100005,29.092745837000052],[106.03937186600007,29.095072517000062],[106.06916247500004,29.098694544000068],[106.08286667800007,29.100795204000065],[106.09532490500004,29.103655977000074],[106.10609175600007,29.107765125000071],[106.11461000800006,29.113695317000065],[106.12089480000009,29.122579032000033],[106.12529107100005,29.133475864000047],[106.12918997200006,29.145642222000049],[106.13394116600006,29.158439386000055],[106.14018396200004,29.170653979000065],[106.14799051800009,29.182842786000037],[106.15701227000005,29.194939515000044],[106.16698073600008,29.206877317000078],[106.17769711000005,29.218579959000067],[106.18902317800007,29.229953078000051],[106.20087408800003,29.240874913000027],[106.21321323900008,29.251186041000039],[106.22604930700004,29.260677745000066],[106.23943530400004,29.269078806000039],[106.25346943100004,29.276040773000034],[106.26798738100007,29.281245820000038],[106.28301666400006,29.285224518000064],[106.32901169900003,29.294838168000069],[106.34396914900009,29.298843176000048],[106.35837566100008,29.304085791000034],[106.37231633800008,29.311115093000069],[106.38561852600009,29.319534048000037],[106.39844380900007,29.328916178000043],[106.41091432000007,29.338902678000068],[106.44691865100003,29.36950906900006],[106.47955868400004,29.395798374000037],[106.48839113200006,29.404413517000023],[106.49524332100003,29.41392628400007],[106.49937630500006,29.423841457000037],[106.50199843400009,29.434723747000078],[106.50566029500004,29.458358831000055],[106.50811047200006,29.470673101000045],[106.51233062600005,29.484711667000056],[106.51793758400004,29.498720665000064],[106.52464011600006,29.512575939000044],[106.53222178900006,29.526134959000046],[106.54053378700007,29.539223045000028],[106.54948928500005,29.551617835000059],[106.55905995800003,29.563031378000062],[106.56927493200004,29.573089295000045],[106.58022227600009,29.58130667100005],[106.59205290300008,29.587060718000032],[106.60556190100004,29.589969848000067],[106.61994030300008,29.59046672900007],[106.63491294900007,29.589553906000049],[106.66580617600005,29.586982755000065],[106.68139736900008,29.586978987000066],[106.69559251600003,29.588478065000061],[106.70975042900005,29.591002610000032],[106.73812306300005,29.596733692000043],[106.75243178700003,29.598772386000064],[106.76573988000007,29.59963140800005],[106.80556633400005,29.600262894000025],[106.81850107600008,29.601486756000043],[106.83108729000008,29.604124404000061],[106.84540059400007,29.60962098300007],[106.85921305300008,29.617271962000075],[106.87265695300005,29.626519171000041],[106.88583341000003,29.636933545000034],[106.89881847700008,29.648188338000068],[106.92442346800004,29.67228516800003],[106.98745240200009,29.73490903000004],[106.99993452000007,29.746799529000043],[107.01235213200005,29.758054377000065],[107.02468017800004,29.768373614000041],[107.03688370600008,29.777354741000067],[107.04891567500005,29.784460197000044],[107.06071421900003,29.788978589000067],[107.07219948400007,29.78997957100006],[107.08323689000008,29.786772682000048],[107.09400793100008,29.78022754400007],[107.10463936400004,29.771409270000049],[107.13692290800009,29.739623309000024],[107.14827837400009,29.729660781000064],[107.16022939600003,29.721239390000051],[107.17302074000008,29.715222547000053],[107.18600609300006,29.71237585800003],[107.19976522600007,29.711798753000039],[107.21410713400007,29.712866880000036],[107.22888260500008,29.715069669000059],[107.29033331600004,29.727560776000075],[107.30593634000007,29.730013692000057],[107.32059395600004,29.731643312000074],[107.34941774400005,29.734274587000073],[107.36332416400006,29.736144933000048],[107.37667912800003,29.739018367000028],[107.38927733400004,29.743444270000055],[107.40203149700005,29.750572730000044],[107.41377384600008,29.759675514000037],[107.42463153200003,29.770221524000078],[107.43465891800008,29.781784963000064],[107.44384053900006,29.794018163000032],[107.45209176900005,29.806626047000066],[107.45925743500004,29.819341917000031],[107.46510904900003,29.831903820000036],[107.47418582300008,29.855811589000041],[107.47986174100004,29.865536230000032],[107.48550092400006,29.871113204000039],[107.49237631900007,29.875276791000033],[107.50028441200004,29.877877656000067],[107.51190777800008,29.878811444000064],[107.52465263900007,29.877561791000062],[107.53823484300005,29.874840237000058],[107.58210248500006,29.86363695600005],[107.59735789700005,29.860646251000048],[107.61280556200006,29.858946660000072],[107.62748562900003,29.858953649000057],[107.64220994700008,29.860379282000054],[107.65689386700006,29.863004604000025],[107.67145040500009,29.866690800000072],[107.68578412900007,29.871375224000076],[107.69978486700006,29.87706948500005],[107.71332112700009,29.883859742000027],[107.72722585700006,29.892449107000061],[107.74057317300009,29.902122630000065],[107.75348470400007,29.912600554000051],[107.76604552800006,29.923676820000026],[107.77830796500007,29.935205914000051],[107.79029397900007,29.947092596000061],[107.80199606800005,29.959284375000038],[107.81337657300008,29.971766537000065],[107.82436534700008,29.98455950400006],[107.83485584800007,29.997718280000072],[107.84469971400006,30.011333733000072],[107.85373495000005,30.025409952000075],[107.86215039900009,30.03991112500006],[107.87011688500007,30.054715173000034],[107.88522144300003,30.084865363000063],[107.91474906200006,30.145490943000027],[107.92248788200004,30.160364100000038],[107.93057599400004,30.174976368000046],[107.93915649500008,30.18922419200004],[107.94840919100005,30.202976758000034],[107.95901600500008,30.216795211000033],[107.97035408600004,30.230073971000024],[107.98221751700004,30.242961603000026],[108.00691414000005,30.267991810000069],[108.07841439900005,30.337300151000079],[108.09575121000006,30.353415766000069],[108.10873067000006,30.363988636000045],[108.12225947800005,30.373975300000041],[108.13615235600008,30.383576018000042],[108.17843549200006,30.411765174000038],[108.19222037900005,30.421507103000067],[108.20556376000008,30.431730246000029],[108.21825002900005,30.44266648200005],[108.23034150600006,30.454749049000043],[108.24171910300004,30.467606596000053],[108.25257188100005,30.481036179000057],[108.26304419900003,30.494882522000069],[108.27324425600005,30.509028590000071],[108.29312097400003,30.537896106000062],[108.31258004200004,30.567195919000028],[108.34116661900003,30.611536484000055],[108.35955688900003,30.641291651000074],[108.36837482300007,30.656243769000071],[108.37680323100005,30.671263354000075],[108.38469357300005,30.686369281000054],[108.39185044400006,30.701584963000073],[108.39802068600005,30.716938331000051],[108.40288133200005,30.732461473000058],[108.40591374000007,30.746299036000039],[108.41026154200006,30.773800923000067],[108.41267038700005,30.787110856000027],[108.41598741900003,30.799852580000049],[108.42083618800007,30.811776290000068],[108.42853750500007,30.823779922000028],[108.43830908400008,30.834758897000029],[108.44962668900007,30.844977285000027],[108.46208453300005,30.85463479200007],[108.47537330200004,30.863877599000034],[108.48926114800008,30.872807030000047],[108.50357787400009,30.881485930000053],[108.53305190000003,30.89817316500006],[108.54807637300007,30.906139738000036],[108.56325154700005,30.913768735000076],[108.57857663600004,30.920944877000068],[108.59407262100007,30.92750342100004],[108.60978222600005,30.933219681000026],[108.62577116700004,30.937796049000042],[108.64222184100004,30.941011918000072],[108.65894730700006,30.94307513900003],[108.67587009500005,30.944292868000048],[108.69293184000009,30.944899586000076],[108.71008919500008,30.94507198000008],[108.74457263100004,30.944605048000028],[108.88295400200008,30.94002382900004],[108.93475094200005,30.939073514000029],[108.96921258400005,30.93939965900006],[108.98641155000007,30.940074123000045],[109.00425303400004,30.941249777000053],[109.02207103800004,30.942820877000031],[109.05766007300008,30.946744970000054],[109.09321266400008,30.951266598000075],[109.43078326500006,30.99811935300005],[109.48403407200004,31.005107793000036],[109.51943510300003,31.009219405000067],[109.55465026300004,31.012369555000078],[109.57213745700005,31.013340571000072],[109.58950375300009,31.01371756900005],[109.60670721200006,31.013306862000036],[109.63971771100006,31.010691577000046],[109.65619808400004,31.009865912000066],[109.67316491400004,31.010249076000036],[109.69023563700006,31.011732528000039],[109.70738508000005,31.014037764000079],[109.72459337700008,31.016947986000048],[109.74184514000007,31.020295996000073],[109.77643522600005,31.027819555000065],[109.86315573400009,31.047784420000028],[109.89791220800004,31.054713273000061],[109.91531340700004,31.057521114000053],[109.93273748400009,31.059646108000038],[109.95019282500004,31.060832536000078],[109.96736614200006,31.060882265000032],[109.98456955200004,31.060021655000071],[110.00179482100003,31.058493209000062],[110.01903573700008,31.056482450000033],[110.05354745500006,31.051541542000052],[110.17449362400004,31.031869393000079],[110.20912177300005,31.027131864000069],[110.22646598800009,31.025226917000055],[110.24384040600006,31.02378309900007],[110.26146576100007,31.02288976400007],[110.27912214500009,31.022467444000029],[110.31449709500004,31.022566701000073],[110.34991945200005,31.023393807000048],[110.43849073600006,31.026171543000032],[110.47382985000007,31.026691769000024],[110.49144668800005,31.026567841000031],[110.50900782700006,31.026036794000049],[110.52649133200003,31.024938385000041],[110.54386834300004,31.023062190000076],[110.56113056200007,31.020235269000068],[110.57828628900006,31.016629969000064],[110.59536459700007,31.012457571000027],[110.61238760200007,31.00787858700005],[110.64632983600006,30.997950820000028],[110.68020032300007,30.987475885000038],[110.83257296200009,30.939305734000072],[110.98538428300009,30.892069409000044],[111.03606007800005,30.875963543000069],[111.06929113300004,30.864387944000043],[111.08555856100008,30.858071052000071],[111.10145788600005,30.851194529000054],[111.11684323700007,30.843536630000074],[111.13152237000008,30.834805208000034],[111.14535137400009,30.824754433000066],[111.15847386400009,30.81362839600007],[111.17108327100004,30.801719740000067],[111.18332650800005,30.789250444000061],[111.19531367800005,30.776386547000072],[111.21882351100004,30.749931368000034],[111.26514200500009,30.695838704000039],[111.34578912300009,30.600496354000029],[111.36830472200006,30.573005796000075],[111.37926916500004,30.559141608000061],[111.38992070100005,30.545159822000073],[111.40013395300008,30.531022875000076],[111.40974400400006,30.516684893000047],[111.41853690600004,30.502090966000026],[111.42543712500009,30.489112199000033],[111.44433667400006,30.451038781000079],[111.45102125100004,30.439490717000069],[111.45839726600008,30.429024062000053],[111.46776073500007,30.418694950000031],[111.48679330800007,30.399870112000031],[111.49463119600006,30.389583214000027],[111.50010672900004,30.378415335000057],[111.50415499200005,30.366185330000064],[111.51073693400008,30.340603215000044],[111.51460075400007,30.328290474000028],[111.51977410800004,30.317059978000032],[111.52652638600006,30.307813743000054],[111.53478167300005,30.30044427200005],[111.54418526400008,30.295326553000052],[111.55445560400005,30.292992322000032],[111.56464678500004,30.29373090200005],[111.57518972500009,30.296901338000055],[111.58589805400004,30.302011117000063],[111.59660320600005,30.308685457000024],[111.60714643500006,30.316648521000047],[111.61897615800007,30.327090549000047],[111.64247415000006,30.349676010000053],[111.65472929500004,30.360617509000065],[111.66776840600005,30.37052277600003],[111.68120281900008,30.378564029000074],[111.69544983700007,30.385379496000041],[111.71029409000005,30.391216992000068],[111.72556288400006,30.396254326000076],[111.74111629300006,30.400604369000064],[111.75683807100006,30.404317975000026],[111.77262733700007,30.407384251000053],[111.78839089500008,30.409727769000028],[111.80403596700006,30.411202502000037],[111.81946311700005,30.411582258000067],[111.83455919100004,30.410547588000043],[111.84919015400004,30.407669285000054],[111.86426895400007,30.402155805000064],[111.87881495900007,30.394617954000068],[111.89298090600005,30.385641991000057],[111.90688998100006,30.375689933000046],[111.96183828900007,30.332804069000076],[111.97583228800005,30.32273852000003],[111.99012483700005,30.313553407000029],[112.00484712700006,30.305654971000024],[112.02016257600008,30.299549695000053],[112.03533695700003,30.295792407000079],[112.05104618200005,30.293660865000049],[112.0671411190001,30.29270697000004],[112.0834950310001,30.292564159000051],[112.14922709100006,30.294366764000074],[112.16509534500005,30.294077411000046],[112.18038468800012,30.292880389000061],[112.19483084100011,30.290367856000046],[112.20809044700002,30.28603385200006],[112.22045847100003,30.279014198000027],[112.23094235800011,30.269924249000042],[112.23931887800006,30.259288507000065],[112.2451722510001,30.247497220000071],[112.24786940600006,30.234832316000052],[112.2469622970001,30.221699471000079],[112.24332322900011,30.208127947000037],[112.23794313900009,30.194291838000026],[112.22531521700012,30.166387256000064],[112.21962890000009,30.152574362000053],[112.21544786600009,30.139034853000055],[112.21371478900005,30.125932103000025],[112.21503954000002,30.114390117000028],[112.21913159500002,30.103797452000038],[112.22587121800007,30.094616225000038],[112.23619547700002,30.086534939000046],[112.24883265100004,30.080065593000029],[112.26302042400005,30.074563795000074],[112.29364300900011,30.064192263000052],[112.30905811500008,30.058217478000074],[112.32389957200007,30.050918031000037],[112.33654620800007,30.042708299000026],[112.34840006600007,30.033185736000064],[112.35951424100006,30.022632069000053],[112.36988725500009,30.011258373000032],[112.3794581410001,29.999214667000047],[112.38809945600008,29.986597858000039],[112.39560777600002,29.973457851000035],[112.40169139300008,29.959801884000058],[112.40595526700008,29.945597244000055],[112.40817964700011,29.929546101000028],[112.40838188700002,29.912981974000047],[112.40713388300003,29.896084883000071],[112.40488722700002,29.879013272000066],[112.40200595100009,29.861919362000037],[112.39249647700001,29.812279582000031],[112.38997678600003,29.797090859000036],[112.38832531500009,29.783177949000049],[112.38797306400011,29.77107615400007],[112.38946682300002,29.761491134000039],[112.39350673900003,29.75534474400007],[112.40070942000011,29.753374751000024],[112.41048987500005,29.754852128000039],[112.42213983200008,29.758803896000074],[112.43511035400002,29.764467828000079],[112.44897459100002,29.771238830000073],[112.49282922500004,29.793518108000058],[112.50736896500007,29.800207406000027],[112.52147036600002,29.805777383000077],[112.53485707400012,29.809661663000043],[112.54719641500003,29.811157338000044],[112.55807549300005,29.809378656000035],[112.56647934600005,29.804279956000073],[112.57367988300007,29.796576017000064],[112.58006023500002,29.787196607000055],[112.59163815600004,29.766679700000054],[112.59739998000009,29.757098425000038],[112.60350297700006,29.749052538000058],[112.61022670600005,29.743464576000065],[112.61775223000006,29.741182416000072],[112.62539877100005,29.742438853000067],[112.63253928800009,29.747141519000024],[112.63924477900002,29.754370698000059],[112.65913049900007,29.781436764000034],[112.66647808500011,29.789257242000076],[112.67462389000002,29.794920156000046],[112.68448017800006,29.797782556000072],[112.69482623200008,29.797813504000032],[112.70486911400008,29.795773796000049],[112.71377954500008,29.792263973000047],[112.72063940800001,29.787760199000047],[112.72438776100012,29.782646782000029],[112.72452829800011,29.777922207000074],[112.72271225000009,29.773062107000044],[112.72021903600012,29.768136518000063],[112.718301096,29.763209646000064],[112.71824412600006,29.758347123000078],[112.72021497500009,29.754717774000028],[112.723980557,29.751536765000026],[112.73196506700003,29.748339443000077],[112.74240780700006,29.746546552000041],[112.75459956000009,29.746022287000073],[112.76796096500004,29.746716313000036],[112.78200827000001,29.748660203000043],[112.79605988600008,29.751751230000025],[112.82433861400011,29.759439284000052],[112.83830241200008,29.762890877000075],[112.85196913200002,29.765287581000052],[112.86518178000006,29.765959819000045],[112.87585663700008,29.764738135000073],[112.88585326700002,29.761942005000037],[112.89492192000012,29.757717989000071],[112.90414418300008,29.751249955000048],[112.91995634900002,29.736911294000038],[112.92759030200011,29.73103135100007],[112.935696527,29.727407539000069],[112.94437604900008,29.726805834000061],[112.95361753500003,29.728507724000053],[112.96307672000012,29.73167178500006],[112.98120929400011,29.739337743000078],[112.98907021100001,29.742350890000068],[112.99547678600004,29.743764696000028],[112.99981942300008,29.742679920000057],[113.00156068700005,29.738679885000067],[113.00119068100003,29.732281241000067],[112.99902362700004,29.724172556000042],[112.99526386500008,29.714944057000025],[112.9900157730001,29.705113017000031],[112.98329169100009,29.695147466000037],[112.97443859200007,29.684621095000068],[112.94391344900009,29.653182795000077],[112.93452756700003,29.641986165000048],[112.92664163800009,29.629971234000038],[112.92051870200009,29.616001642000072],[112.91667722800003,29.601165495000032],[112.91496878200007,29.585870753000052],[112.91525143000001,29.571268487000054],[112.91711130500005,29.556882986000062],[112.92031012700011,29.543023379000033],[112.92472331900001,29.530046010000035],[112.93033274800007,29.518379164000066],[112.9372236480001,29.508550124000067],[112.94558540300011,29.501214582000046],[112.95616759300003,29.496666380000079],[112.96801127000003,29.494549990000053],[112.99306697700001,29.493323321000048],[113.00518302500006,29.492285669000069],[113.01629318900007,29.489705674000049],[113.02503293100006,29.48556379300004],[113.03288450700006,29.480363620000048],[113.04020623600002,29.475054661000058],[113.04733296500001,29.470598059000054],[113.05459157100006,29.468010371000048],[113.0625595680001,29.46805783700006],[113.07103608600005,29.470072809000044],[113.08005768200007,29.472923084000058],[113.08969558600006,29.475546663000046],[113.11262727000008,29.479143690000058],[113.12466859200003,29.482276714000079],[113.13686605500004,29.487969839000073],[113.14910247300008,29.495878145000063],[113.16135593800004,29.505414094000059],[113.1736123280001,29.516128035000065],[113.1858629300001,29.527680740000051],[113.19810277400006,29.539819727000065],[113.22254263500008,29.565165510000043],[113.29569447800009,29.643727346000048],[113.3325951270001,29.682580125000072],[113.35774687000003,29.707741577000036],[113.37064669400002,29.719921759000044],[113.38387494800008,29.73170734100006],[113.39758938300008,29.743085375000078],[113.41163453100012,29.754072117000078],[113.42591778100007,29.764778639000042],[113.45492956300006,29.785673472000042],[113.54264936100003,29.84744048400006],[113.57127863100004,29.868378016000065],[113.62080071100002,29.906001097000058],[113.63263652500007,29.914189641000064],[113.64462691600011,29.921546098000078],[113.65687585700005,29.927746055000057],[113.6695017190001,29.932398024000065],[113.68391112400002,29.935428137000031],[113.69874423500005,29.936880009000049],[113.72900849700011,29.938071368000067],[113.74413577200005,29.939233956000066],[113.75906060500006,29.941752699000062],[113.77383345800001,29.946263948000023],[113.78834592500004,29.95244258300005],[113.80269289100011,29.95983472100005],[113.81695787700005,29.968071004000024],[113.86001607500009,29.994998212000041],[113.87471051400007,30.003918953000039],[113.88971729700006,30.012434226000039],[113.90538995500003,30.020517425000037],[113.92134280900007,30.028105221000033],[113.98483838800007,30.056323550000059],[113.99960534700006,30.063458127000047],[114.01330805600003,30.070880766000073],[114.02545684600011,30.078750114000059],[114.03540376800004,30.087257856000065],[114.04229706400008,30.096639053000047],[114.04517075100011,30.106100276000063],[114.04455248200009,30.115923261000034],[114.04027897100002,30.125871453000059],[114.03303457100003,30.135528995000072],[114.02356501100007,30.144834528000047],[114.01244336500008,30.153702131000045],[114.00010621500007,30.162013675000026],[113.98688507600002,30.169610434000049],[113.97303371100008,30.176283782000041],[113.95875225500004,30.181765039000027],[113.94446695300007,30.185837804000073],[113.91679451100003,30.191932259000055],[113.90432009400001,30.195068570000046],[113.89348273700011,30.199006361000045],[113.8849736410001,30.204345344000046],[113.87950899000009,30.211471153000048],[113.87733795000008,30.219896399000049],[113.87881413700006,30.22968774900005],[113.88356130200009,30.239604031000056],[113.89087107100011,30.249062753000032],[113.90025964400002,30.25744048200005],[113.91143427000009,30.264030699000045],[113.92408118600008,30.26818399800004],[113.93770057100005,30.269944551000037],[113.95172209400005,30.26935157500003],[113.96470476400009,30.266779775000032],[114.00260365000008,30.255029620000073],[114.01473333300009,30.252547954000079],[114.02651326900002,30.252278871000044],[114.03727388400011,30.254774869000073],[114.04750914700003,30.259731736000049],[114.05705658300008,30.266801104000024],[114.06573824900011,30.27561743800004],[114.07381678400009,30.285807361000025],[114.08153043800007,30.296975099000065],[114.10464566900009,30.333293225000034],[114.11355242900004,30.346325583000066],[114.13260465200005,30.372053228000027],[114.15274506300011,30.39736190900004],[114.17353379100007,30.422299888000055],[114.22913321500005,30.486315224000066],[114.24021881300007,30.49961601900003],[114.25089028600007,30.513137437000069],[114.26098343400008,30.526975501000038],[114.28411229400001,30.561815226000078],[114.29109026800006,30.571485474000042],[114.29838780800003,30.58092855700005],[114.30596583400006,30.590143528000056],[114.31322114500006,30.598450717000048],[114.3207596630001,30.606468119000056],[114.33291788200006,30.617989591000025],[114.34580803600011,30.628581018000034],[114.35937791800006,30.638126055000043],[114.37362974300004,30.646409879000032],[114.38799758300001,30.652972214000044],[114.40286841700004,30.658168156000045],[114.41460023000002,30.661256088000073],[114.42647289000001,30.663543362000041],[114.43842029600012,30.665005127000029],[114.45377947600002,30.665603164000061],[114.46899571900008,30.664738650000061],[114.48389735900003,30.662308144000065],[114.4963365320001,30.658808993000036],[114.51008898700002,30.653030393000051],[114.52040100400006,30.647217072000046],[114.53021098800002,30.640491818000044],[114.54110068900002,30.631754022000052],[114.5620875190001,30.613248559000056],[114.57277956300004,30.604430958000023],[114.58590410600004,30.59535814700007],[114.5965325410001,30.589737826000032],[114.6097224670001,30.584835333000058],[114.62476991100004,30.581509765000078],[114.64033803400002,30.580000999000049],[114.65431629700004,30.579984914000079],[114.66841212800011,30.580997260000061],[114.68250845500006,30.582874470000036],[114.6934423240001,30.584848396000041],[114.73121105500002,30.593346779000058],[114.74420751200012,30.595785832000047],[114.75679195800001,30.597123501000056],[114.76448425300009,30.597163281000064],[114.77190124100002,30.596474663000038],[114.77980270100011,30.594753021000031],[114.78714288500009,30.591973551000024],[114.79474121600003,30.587374468000064],[114.80221186600011,30.580106577000038],[114.80707649500005,30.572955870000044],[114.81202521300008,30.562061018000065],[114.81503919000011,30.552220122000051],[114.81737304800004,30.541785530000027],[114.82382623800004,30.502611810000076],[114.82735369300008,30.48762563300005],[114.83177881500001,30.474658537000039],[114.83770603500011,30.46250363300004],[114.84652769900003,30.449753150000049],[114.8540326000001,30.44163786200005],[114.86243883800012,30.434363341000051],[114.87165304600001,30.427972819000047],[114.88524062300007,30.420774852000079],[114.89981900700002,30.414996292000069],[114.91601945100001,30.410136928000043],[114.92774059100009,30.40734713300003],[114.93959000000007,30.404975651000029],[114.97532606900006,30.399051433000068],[114.9871380300001,30.396520807000059],[115.00165698700005,30.392160748000038],[115.01520394200008,30.386342725000077],[115.02770291700006,30.379066230000035],[115.03889024500006,30.370353158000057],[115.04817016600009,30.360481806000053],[115.05522177000012,30.35000003600004],[115.06067838000001,30.33855692700007],[115.06333921200007,30.330858081000031],[115.06539865200011,30.32293962500006],[115.06691451000006,30.314932259000045],[115.07138731000009,30.279869635000068],[115.07395569200003,30.266853806000029],[115.07651046500007,30.258372541000028],[115.07984769300003,30.250325274000033],[115.08346077300007,30.243754565000074],[115.08777035900005,30.23768853200005],[115.09355852100009,30.231477468000037],[115.10019317300009,30.226030654000056],[115.11141433100011,30.21925555200005],[115.12384265200001,30.21371871100007],[115.1611610970001,30.200795350000078],[115.17507150900008,30.195360143000073],[115.18687688000011,30.189910432000033],[115.19842575400003,30.183732380000038],[115.21078336400001,30.176122607000025],[115.22272819500006,30.167757420000044],[115.23422052600006,30.158704148000027],[115.24519458100008,30.148987674000068],[115.25665789300001,30.137441953000064],[115.26546179800005,30.127411885000072],[115.27374437700007,30.116933571000061],[115.28150497800004,30.106058542000028],[115.28871876800008,30.09481763000008],[115.29479852500003,30.084300474000031],[115.30052591100002,30.073591935000024],[115.31569000500008,30.044200904000036],[115.3226228850001,30.032135745000062],[115.33026217000008,30.020354784000062],[115.33840191000002,30.008857728000066],[115.3719015800001,29.963721626000051],[115.37993191100009,29.952276978000043],[115.39797440500001,29.924866528000052],[115.40676198400001,29.912086792000025],[115.41258022400007,29.904441329000065],[115.4187363530001,29.897140315000058],[115.4260031120001,29.889543558000071],[115.43377902200007,29.882540931000051],[115.4446329970001,29.87446312700007],[115.45626979700012,29.867490118000035],[115.46518899000012,29.863092444000074],[115.47442331200011,29.859263068000075],[115.48529677200008,29.855569308000042],[115.4964649100001,29.852543896000043],[115.50787189000005,29.85014441800007],[115.52302808200011,29.847896126000023],[115.5384090120001,29.846500796000043],[115.55326334400002,29.845826026000054],[115.56817975400008,29.845622103000039],[115.61685390000002,29.845888968000054],[115.62898442400001,29.845331690000023],[115.64100533400006,29.844198944000027],[115.6528772480001,29.842357855000046],[115.66740817800007,29.838908330000038],[115.68160059400009,29.834215376000031],[115.69614084700004,29.828025762000038],[115.71031790600011,29.820796900000062],[115.72528333700006,29.812148208000053],[115.75503433900008,29.793878212000038],[115.76941823400011,29.78550074900005],[115.7840621150001,29.777530579000029],[115.79870578100008,29.770156040000074],[115.81355905700002,29.76326769800005],[115.8285971900001,29.756913108000049],[115.84380937000003,29.751185772000042],[115.85919831800004,29.746233223000047],[115.87478027300006,29.742267097000024],[115.88905842000008,29.739716963000035],[115.90346781200003,29.738185179000027],[115.91949130700004,29.73766968800004],[115.93556176900006,29.738259113000026],[115.95162374600011,29.739852791000033],[115.96339498100008,29.741634945000044],[115.97512275800011,29.743880064000052],[115.98679652600003,29.746541511000032],[116.0112393710001,29.753296739000064],[116.04480389800005,29.764023890000033],[116.06532944100002,29.770222915000033],[116.08156403300006,29.77442454100003],[116.09794669100006,29.778046003000043],[116.11444441800006,29.781125847000055],[116.13182271200003,29.783799544000033],[116.14925599700007,29.785978119000049],[116.20612929800006,29.791545679000023],[116.22339006100003,29.793746751000072],[116.2403637650001,29.796726161000038],[116.2569325720001,29.800885298000026],[116.26453940800002,29.80336937900006],[116.27644021200001,29.808028011000033],[116.28849885600005,29.813559394000038],[116.33519134900007,29.837828084000023],[116.34813877700003,29.843706241000064],[116.36065444200005,29.848617525000066],[116.37341520600012,29.852979282000035],[116.38635808700008,29.856884041000058],[116.43691052400004,29.870022082000048],[116.45343271200011,29.874862446000066],[116.46947767400002,29.880608965000079],[116.48300060200006,29.886718926000071],[116.49589840500005,29.893864673000053],[116.50622697200004,29.900714588000028],[116.5159507730001,29.908341298000039],[116.52572584000006,29.917510914000047],[116.53343850300007,29.925929220000057],[116.54073739500006,29.934769857000049],[116.56118492400003,29.961264668000069],[116.56798806100005,29.969425172000058],[116.57763116500007,29.979863189000071],[116.58795819400007,29.989672354000049],[116.59785546600006,29.997883030000025],[116.60828204300003,30.005487912000035],[116.62002214000006,30.012988703000076],[116.63222857700009,30.019865958000025],[116.64481951000005,30.026186832000064],[116.66077038100002,30.033329858000059],[116.70722264500012,30.052404702000047],[116.72094744800006,30.058473770000035],[116.73441873500008,30.06502081900004],[116.74660926700005,30.071670184000027],[116.75845049600002,30.078896257000054],[116.7682489550001,30.085520192000047],[116.7777645220001,30.092546355000025],[116.78698891800002,30.099958203000028],[116.79837629100007,30.110004315000026],[116.80929512300008,30.120587547000071],[116.8197562150001,30.13164904100006],[116.82973606300004,30.14316451600007],[116.83739863000005,30.152765001000034],[116.84473860100002,30.162622815000077],[116.85176775100001,30.172707935000062],[116.86095933000001,30.186953995000067],[116.86957036500007,30.201528591000056],[116.8775646360001,30.216394317000038],[116.88484705900009,30.231542369000067],[116.8912587100001,30.246990299000061],[116.89558763000002,30.259447984000076],[116.8992013510001,30.272090210000044],[116.90204110900004,30.284895473000063],[116.9043547230001,30.30009533100008],[116.90583140800004,30.315385437000032],[116.90774903400006,30.343596098000035],[116.90982843900008,30.361542028000031],[116.91294291400004,30.376936870000065],[116.91655778500001,30.389136521000069],[116.92118569800004,30.400906807000069],[116.92549646900011,30.409660410000072],[116.93044844600001,30.418049371000052],[116.93994052900007,30.430976141000031],[116.95084653300012,30.44287175200003],[116.96292059400002,30.453746208000041],[116.97601937200011,30.463517786000068],[116.98781156100006,30.470803962000048],[117.00019498200004,30.477173959000027],[117.01310668800011,30.48256901600007],[117.02193870800011,30.48556908300003],[117.03095483400011,30.488125232000073],[117.04217942300011,30.490693897000028],[117.05736968400004,30.49334450200007],[117.10543702900009,30.499364748000062],[117.12248016700005,30.501832111000056],[117.13908425400007,30.504979439000067],[117.15501229300003,30.509186179000039],[117.1651420070001,30.512800382000023],[117.17474093800001,30.517165046000059],[117.18365227000004,30.522331429000076],[117.19181718400012,30.528365492000034],[117.19903719800004,30.535197491000076],[117.20630465400006,30.544075502000055],[117.21242200300003,30.553832740000075],[117.21620729000006,30.561501953000061],[117.2194417720001,30.569468959000062],[117.22279258500009,30.579515074000028],[117.23259430900009,30.614006146000065],[117.23720988900004,30.625421742000071],[117.24283752200006,30.635274686000059],[117.24885442200002,30.64306995100003],[117.25928600100008,30.653144379000025],[117.26896692000003,30.660395175000076],[117.27950797300002,30.666928512000027],[117.29074825900011,30.67281491600005],[117.30235295200009,30.678010265000069],[117.31441432600002,30.682655363000038],[117.32974817400009,30.687671090000038],[117.34549411300009,30.692110596000077],[117.36152357700007,30.69616813500005],[117.4104330780001,30.707555225000078],[117.44010063500002,30.714839920000031],[117.47162790200002,30.723329607000039],[117.5049617200001,30.733064970000044],[117.53813873200011,30.743281664000051],[117.58739882900011,30.759468884000057],[117.60353768000004,30.765220645000056],[117.61941645600007,30.771270669000046],[117.63491730600003,30.77774056100003],[117.64987810400009,30.784797583000056],[117.66407949200004,30.792666856000039],[117.67290157800005,30.798437644000046],[117.68118412000001,30.804742107000038],[117.6900550470001,30.812871923000046],[117.69789486600007,30.821883865000075],[117.7047068170001,30.832048084000064],[117.71040091100008,30.843044317000079],[117.71603011800005,30.857339662000072],[117.72053246600001,30.872388613000055],[117.72418683300009,30.887988676000077],[117.72720247800009,30.903983868000068],[117.72973349100005,30.920253081000055],[117.73375428400004,30.953243563000058],[117.73940749800011,31.00929502200006],[117.7412028220001,31.022205062000069],[117.74356644600005,31.034812295000052],[117.74717409200002,31.048601093000059],[117.75179587600007,31.061742081000034],[117.75744938600008,31.074059423000051],[117.76421525700005,31.085316939000052],[117.77237745400009,31.095417040000029],[117.78181077400006,31.10380464900004],[117.7902690200001,31.109074899000063],[117.79938235600002,31.113017684000056],[117.80899506500009,31.115604721000068],[117.82051806100003,31.116859722000072],[117.83227157100009,31.116366373000062],[117.84438895500011,31.114200586000038],[117.85638294300009,31.11078578200005],[117.87607418400012,31.103800948000071],[117.8890724470001,31.099715374000027],[117.89898655100001,31.097534838000058],[117.90890664500012,31.096404132000032],[117.9193034540001,31.096555103000071],[117.92941807000011,31.098139127000024],[117.93951728800005,31.101360401000079],[117.94890893800005,31.106159526000056],[117.95655108900007,31.111765132000073],[117.96340955000005,31.118476483000052],[117.96919340000011,31.125732128000038],[117.97443943600001,31.133634974000074],[117.98664285100006,31.15471558400003],[117.99326907500006,31.165358580000031],[118.00135328300007,31.176280705000067],[118.01054624700009,31.186619975000042],[118.01738481400002,31.193232573000046],[118.02466160100005,31.19951900600006],[118.03756290100011,31.209280021000041],[118.05128030700007,31.218346996000037],[118.06561170500004,31.226857704000054],[118.08040664600003,31.234907148000048],[118.09555623500012,31.242551852000076],[118.11098472500009,31.249812777000045],[118.12664265900003,31.256676760000062],[118.14250125300009,31.263096487000041],[118.15893544700009,31.269143316000054],[118.17551873400009,31.274611295000057],[118.19220937400007,31.279434009000056],[118.20828068600008,31.28343413500005],[118.23995184400007,31.290640027000052],[118.25516222400006,31.29447465800007],[118.26962306500002,31.29891671300004],[118.28300276200002,31.304366207000044],[118.29487826600007,31.311301964000052],[118.30119360500009,31.31650352500003],[118.30665471600003,31.322471240000027],[118.31067528800008,31.328329069000063],[118.31398900400006,31.334706780000033],[118.31852838300006,31.348037709000039],[118.32129166600009,31.36256323300006],[118.3226027720001,31.374539300000038],[118.32497284700003,31.414083590000075],[118.32613707300004,31.428756762000035],[118.32790371200008,31.443454231000032],[118.32983575900005,31.454754196000067],[118.33228561900012,31.46598782500007],[118.33676386900004,31.482294852000052],[118.34211345400001,31.498422231000063],[118.34744401900002,31.512608534000037],[118.35928906400011,31.54064100800008],[118.3722053250001,31.568268722000028],[118.39164275600001,31.607228030000044],[118.39773105600011,31.619962059000045],[118.4033435130001,31.632664117000047],[118.40852963000009,31.645532570000057],[118.41444181800011,31.661906534000025],[118.42739173900009,31.702559359000077],[118.4316956670001,31.715185498000039],[118.43636984400007,31.727700249000065],[118.4428179790001,31.743285807000063],[118.44979514900001,31.758680798000057],[118.45720727300011,31.773907038000061],[118.46499634100007,31.788971453000045],[118.47313823200011,31.803865715000029],[118.48869912700002,31.830221361000042],[118.49691295000002,31.843131380000045],[118.50545152400002,31.85582288300003],[118.51437036000004,31.868247539000038],[118.52491532300007,31.88187405900004],[118.53588302600008,31.895196880000071],[118.55860594700005,31.921285354000076],[118.61645783800009,31.985957967000047],[118.63358245800009,32.006023807000076],[118.68077019300006,32.062967684000057],[118.70006137100006,32.084714217000055],[118.70965968100006,32.094765221000046],[118.7195084330001,32.10448232300007],[118.72984347700003,32.113968873000033],[118.74050453300003,32.122956823000038],[118.75153186000011,32.131344968000064],[118.76298715200005,32.138995657000066],[118.77481487600005,32.14571214800003],[118.78708360700011,32.151547590000064],[118.79988831900005,32.156547755000076],[118.81302774700009,32.160682149000024],[118.82464107700002,32.163591197000073],[118.8364185260001,32.165917362000073],[118.84917484000005,32.167843619000053],[118.88605784000003,32.172267930000032],[118.89807318700002,32.173963193000077],[118.91435922900007,32.176860246000047],[118.93021726400002,32.180409509000071],[118.94596175100003,32.184556024000074],[118.96159303700006,32.189188171000069],[118.97710599700008,32.194220619000077],[119.00772555100002,32.205247138000061],[119.03644091000001,32.216346434000059],[119.05081562100008,32.221484363000059],[119.06533875400009,32.225907083000038],[119.07767171900002,32.228821862000075],[119.09016158500003,32.230952001000048],[119.10674770200001,32.23256953200007],[119.12351339800011,32.233149078000054],[119.14041520500007,32.233012547000044],[119.15742121200003,32.232422918000054],[119.27698005100001,32.225443252000048],[119.31113473500011,32.224127913000075],[119.32815612600007,32.223877142000049],[119.34511923700006,32.224031632000049],[119.36200288300006,32.22472956200005],[119.40458283400005,32.227994537000029],[119.42181203400003,32.228848655000036],[119.43908106800006,32.229277805000038],[119.45740580600011,32.228998427000079],[119.47808395100003,32.227488351000034],[119.50014523400012,32.224679931000026],[119.52228424200007,32.220658097000069],[119.54385189600009,32.215661341000043],[119.56392349600003,32.210027937000064],[119.58159474700005,32.204134518000046],[119.59308265000004,32.199715157000071],[119.60381771300001,32.195173855000064],[120.97656205300007,31.802831931000071]]},"properties":{"FID":0,"NAME":"Yangtze","SYSTEM":" ","Shape_Leng":46.625686285}}]
}