{
"type": "FeatureCollection",
"name": "Feihuanghe_Sishui",
"crs": { "type": "name", "properties": { "name": "urn:ogc:def:crs:OGC:1.3:CRS84" } },
"features": [
{ "type": "Feature", "properties": { "osm_id": "94157969", "code": 8102, "fclass": "stream", "width": 10, "name": "黄河故道", "Shape_Leng": 0.048530913590899998 }, "geometry": { "type": "LineString", "coordinates": [ [ 116.77513620000002, 34.434827800000051 ], [ 116.776204700000108, 34.430522400000029 ], [ 116.777406700000029, 34.42887 ], [ 116.780333900000073, 34.427015500000039 ], [ 116.783027300000072, 34.424922400000071 ], [ 116.787624, 34.421139800000049 ], [ 116.793712, 34.416760300000078 ], [ 116.798675900000035, 34.413912900000071 ], [ 116.800454500000114, 34.412662600000033 ], [ 116.804113100000109, 34.409952700000076 ], [ 116.807618, 34.408183300000076 ], [ 116.809230400000047, 34.407620300000076 ], [ 116.810595600000056, 34.407195300000069 ], [ 116.812746700000048, 34.406691700000067 ] ] } },
{ "type": "Feature", "properties": { "osm_id": "121192600", "code": 8101, "fclass": "river", "width": 0, "name": "废黄河", "Shape_Leng": 1.1260405044899999 }, "geometry": { "type": "LineString", "coordinates": [ [ 118.940846900000111, 33.57663 ], [ 118.94405770000003, 33.578938500000049 ], [ 118.948163, 33.579951700000038 ], [ 118.958140500000013, 33.587201100000073 ], [ 118.962187600000107, 33.589460600000052 ], [ 118.965142400000104, 33.593860900000038 ], [ 118.968273100000033, 33.595642 ], [ 118.971909700000083, 33.598465 ], [ 118.977465400000028, 33.602706800000078 ], [ 118.978205300000013, 33.60343 ], [ 118.981134500000053, 33.60608540000004 ], [ 118.98627220000003, 33.610639300000059 ], [ 118.989775400000099, 33.613209300000051 ], [ 118.994192200000043, 33.619128300000057 ], [ 118.995264100000099, 33.620109100000036 ], [ 118.997112500000071, 33.62134240000006 ], [ 119.00004320000005, 33.621822 ], [ 119.003137400000014, 33.621984 ], [ 119.0064, 33.621580300000062 ], [ 119.010080500000072, 33.62060880000007 ], [ 119.013351600000078, 33.619906100000037 ], [ 119.017557, 33.617616300000066 ], [ 119.022698200000036, 33.616371300000026 ], [ 119.025968400000011, 33.615024800000072 ], [ 119.029745, 33.613309300000026 ], [ 119.033159900000101, 33.611177800000064 ], [ 119.035066500000084, 33.609878300000048 ], [ 119.037298100000044, 33.608019700000057 ], [ 119.039328100000034, 33.606989 ], [ 119.042533, 33.606809400000031 ], [ 119.049347, 33.606162 ], [ 119.053486300000031, 33.607621900000026 ], [ 119.061502300000029, 33.611022 ], [ 119.065405300000066, 33.613558400000045 ], [ 119.067151800000033, 33.615151900000058 ], [ 119.068450200000029, 33.615735200000074 ], [ 119.072098400000073, 33.616097500000024 ], [ 119.077602300000081, 33.616342600000053 ], [ 119.080411800000093, 33.616872700000044 ], [ 119.0826154, 33.617960800000048 ], [ 119.083161100000098, 33.619216800000061 ], [ 119.083656800000085, 33.620454900000027 ], [ 119.0842004000001, 33.621812600000055 ], [ 119.085373300000015, 33.623251900000071 ], [ 119.08696, 33.624302800000066 ], [ 119.090139600000043, 33.625498200000038 ], [ 119.092022900000075, 33.625733800000035 ], [ 119.099074600000108, 33.628068900000073 ], [ 119.101895100000092, 33.628025600000058 ], [ 119.106275900000014, 33.627102800000046 ], [ 119.115232300000116, 33.626031700000055 ], [ 119.122823500000095, 33.624698800000033 ], [ 119.130440200000066, 33.624186100000031 ], [ 119.135795100000109, 33.623225500000046 ], [ 119.138170200000104, 33.624568100000033 ], [ 119.152529500000014, 33.633069100000057 ], [ 119.161259, 33.640845 ], [ 119.163716900000054, 33.64358210000006 ], [ 119.163665200000082, 33.644411700000035 ], [ 119.162742800000046, 33.645241500000054 ], [ 119.162549100000092, 33.646397800000045 ], [ 119.16353330000004, 33.648214600000074 ], [ 119.169593700000064, 33.649625700000058 ], [ 119.171497800000111, 33.650771 ], [ 119.1723981, 33.652306900000042 ], [ 119.174646600000074, 33.654473 ], [ 119.181311600000072, 33.660371700000042 ], [ 119.184460500000114, 33.664022300000056 ], [ 119.187021100000038, 33.667754500000058 ], [ 119.19073590000005, 33.67190190000008 ], [ 119.195171, 33.675649 ], [ 119.1992457, 33.679320300000029 ], [ 119.202200800000014, 33.682485300000053 ], [ 119.207909900000118, 33.69166 ], [ 119.211155300000087, 33.698787100000061 ], [ 119.213342200000056, 33.709236500000031 ], [ 119.21355850000009, 33.713925700000061 ], [ 119.213327200000094, 33.718208400000037 ], [ 119.21116690000008, 33.721470300000078 ], [ 119.209148800000094, 33.725764 ], [ 119.20907770000008, 33.727286 ], [ 119.210964300000114, 33.731154600000025 ], [ 119.211839400000031, 33.732006 ], [ 119.212427100000014, 33.732995300000027 ], [ 119.211722400000099, 33.734676900000068 ], [ 119.211041100000102, 33.736335 ], [ 119.210993300000041, 33.737621700000034 ], [ 119.213702900000044, 33.742743500000074 ], [ 119.217519400000015, 33.744818300000077 ], [ 119.221012, 33.746374 ], [ 119.227025100000105, 33.748424200000045 ], [ 119.234547500000076, 33.75093830000003 ], [ 119.245136800000068, 33.753547 ], [ 119.252850400000057, 33.754699600000038 ], [ 119.261464400000023, 33.757303 ], [ 119.2683465, 33.760052 ], [ 119.272584200000097, 33.761195300000054 ], [ 119.275346300000024, 33.76165670000006 ], [ 119.278421300000105, 33.761491700000079 ], [ 119.281456300000059, 33.760888600000044 ], [ 119.286456, 33.758739400000024 ], [ 119.289467500000114, 33.757087 ], [ 119.292546200000061, 33.755156300000067 ], [ 119.294781900000089, 33.753544400000067 ], [ 119.295884900000033, 33.752860800000065 ], [ 119.300532200000021, 33.747035800000049 ], [ 119.303450400000088, 33.741897200000039 ], [ 119.305510400000117, 33.738614 ], [ 119.3058373, 33.735758400000066 ], [ 119.305927200000042, 33.732692400000076 ], [ 119.3061298, 33.730518300000028 ], [ 119.306771300000037, 33.727702 ], [ 119.308246900000086, 33.725360500000079 ], [ 119.309049, 33.724498600000061 ], [ 119.312548500000048, 33.721767800000066 ], [ 119.315611500000045, 33.719122200000072 ], [ 119.316985100000011, 33.718043100000045 ], [ 119.318596100000036, 33.715641100000028 ], [ 119.319104500000094, 33.713845700000036 ], [ 119.31988530000001, 33.708272400000055 ], [ 119.321576600000071, 33.706792300000075 ], [ 119.323037800000066, 33.705855500000041 ], [ 119.332836900000075, 33.700540500000045 ], [ 119.337611, 33.697777700000074 ], [ 119.342314100000067, 33.694915700000024 ], [ 119.346709100000112, 33.691779100000076 ], [ 119.350064400000065, 33.689108700000077 ], [ 119.351594600000112, 33.688518700000031 ], [ 119.36291760000006, 33.686524100000042 ], [ 119.373531900000103, 33.686072400000057 ], [ 119.385955300000091, 33.685344800000053 ], [ 119.391495600000098, 33.684409200000061 ], [ 119.405500800000027, 33.685036500000024 ], [ 119.419426300000055, 33.687452400000041 ], [ 119.42272180000009, 33.687335500000074 ], [ 119.4246597, 33.687767 ], [ 119.426180900000077, 33.688932700000066 ], [ 119.428149700000063, 33.689144700000043 ], [ 119.431548300000031, 33.688405900000078 ], [ 119.43573820000006, 33.686865900000043 ], [ 119.437863400000083, 33.687215600000059 ], [ 119.440667800000028, 33.688438200000064 ], [ 119.446082500000102, 33.690839600000061 ], [ 119.451784700000076, 33.691903400000058 ], [ 119.455038300000069, 33.693047400000069 ], [ 119.4570089, 33.694293 ], [ 119.457661700000017, 33.696246200000076 ], [ 119.458928200000059, 33.696961200000032 ], [ 119.462270800000056, 33.697685 ], [ 119.467582400000083, 33.698516600000062 ], [ 119.471261200000072, 33.69844130000007 ], [ 119.475343300000077, 33.698773100000039 ], [ 119.477377700000034, 33.699553600000058 ], [ 119.479276900000059, 33.700720500000045 ], [ 119.484845600000085, 33.705716300000063 ], [ 119.491554700000052, 33.712292 ], [ 119.49654170000008, 33.718364700000052 ], [ 119.49817, 33.719894600000032 ], [ 119.50334, 33.721968200000049 ], [ 119.503621100000032, 33.722956400000044 ], [ 119.503658, 33.72787 ], [ 119.504442, 33.733913800000039 ], [ 119.5042611, 33.736847700000055 ], [ 119.50395960000003, 33.738853800000072 ], [ 119.503839, 33.741060400000038 ], [ 119.504532500000096, 33.743567800000051 ], [ 119.507397100000048, 33.74996150000004 ], [ 119.510804500000063, 33.754524500000059 ], [ 119.512583600000085, 33.757332400000053 ], [ 119.5139104000001, 33.761042700000075 ], [ 119.516925800000081, 33.767710700000066 ], [ 119.51860970000007, 33.770887100000039 ], [ 119.520906200000013, 33.773450900000057 ], [ 119.52449450000006, 33.775531300000068 ], [ 119.526484700000083, 33.777135400000077 ], [ 119.527268700000036, 33.77843880000006 ], [ 119.528746200000114, 33.783501500000057 ], [ 119.529861900000014, 33.78783720000007 ], [ 119.530766500000027, 33.791922100000079 ], [ 119.531218800000033, 33.796457800000042 ], [ 119.531249000000116, 33.798888400000067 ], [ 119.533420100000058, 33.801143600000046 ], [ 119.538606600000094, 33.804250600000046 ], [ 119.540325400000029, 33.805002300000069 ], [ 119.540838, 33.805879300000072 ], [ 119.540898300000094, 33.806981700000051 ], [ 119.539480200000071, 33.811797600000034 ], [ 119.538012700000081, 33.813876100000073 ], [ 119.538354, 33.815799 ], [ 119.540267700000072, 33.819598300000052 ], [ 119.54355170000008, 33.823434300000031 ], [ 119.546386200000029, 33.825789 ], [ 119.549743800000101, 33.828728900000044 ], [ 119.550323200000093, 33.829308200000071 ], [ 119.551074200000016, 33.830315300000052 ], [ 119.551943300000062, 33.833042400000068 ], [ 119.552801600000066, 33.835849600000074 ], [ 119.554730800000016, 33.842428600000062 ], [ 119.55541750000009, 33.843337500000075 ], [ 119.561382700000081, 33.847810700000025 ], [ 119.572648, 33.854297300000042 ], [ 119.576317200000062, 33.857380100000057 ], [ 119.581775200000038, 33.862400800000046 ], [ 119.586940200000072, 33.868248400000027 ], [ 119.589527400000065, 33.872056100000066 ], [ 119.590685600000029, 33.873746700000027 ], [ 119.591246, 33.874305 ], [ 119.5934502, 33.875832700000046 ], [ 119.596355, 33.877251700000045 ], [ 119.599194300000022, 33.878391600000043 ], [ 119.603481400000078, 33.879833900000051 ], [ 119.606498200000033, 33.880539500000054 ], [ 119.610010000000102, 33.880795400000068 ], [ 119.612606500000084, 33.880686900000057 ], [ 119.613260300000093, 33.880958200000066 ], [ 119.617201800000089, 33.883889200000056 ], [ 119.623739800000067, 33.888634400000058 ], [ 119.62834440000006, 33.892259700000068 ], [ 119.634676900000045, 33.895671 ], [ 119.635573600000043, 33.896291200000064 ], [ 119.635517500000105, 33.896694300000036 ], [ 119.635181300000113, 33.897407600000065 ], [ 119.634789, 33.897717700000044 ], [ 119.633388, 33.898663500000055 ], [ 119.632379300000025, 33.900058900000033 ], [ 119.632267200000115, 33.900632600000051 ], [ 119.632510100000104, 33.90105120000004 ], [ 119.633294600000113, 33.901996900000029 ], [ 119.633500100000106, 33.902725600000053 ], [ 119.633518800000047, 33.904260500000078 ], [ 119.635797700000012, 33.91131450000006 ], [ 119.639932300000055, 33.922282500000051 ], [ 119.640919300000064, 33.924330100000077 ], [ 119.641112400000111, 33.925095700000043 ], [ 119.640876400000025, 33.929546800000026 ], [ 119.640962200000104, 33.933766300000059 ], [ 119.64018980000003, 33.939534300000048 ], [ 119.640039600000023, 33.942079900000067 ], [ 119.640168300000028, 33.942881 ], [ 119.641584500000022, 33.950018900000032 ], [ 119.64278610000008, 33.957690200000059 ], [ 119.644352600000047, 33.964488800000026 ], [ 119.644760200000064, 33.964933700000074 ], [ 119.645704400000113, 33.96623290000008 ], [ 119.648558300000104, 33.96852860000007 ], [ 119.651240500000085, 33.969827700000053 ], [ 119.658343, 33.972799500000065 ], [ 119.661690400000111, 33.973849400000063 ], [ 119.6626989, 33.97445440000007 ], [ 119.668707, 33.980397500000038 ], [ 119.669500900000116, 33.981269400000031 ], [ 119.670080300000109, 33.982675100000051 ], [ 119.672097300000019, 33.985432900000035 ], [ 119.677912400000082, 33.991677800000048 ], [ 119.681667400000038, 33.994880100000046 ], [ 119.681790100000057, 33.995004900000026 ], [ 119.685079200000018, 33.998349100000041 ], [ 119.689091800000028, 34.003543500000035 ], [ 119.690529500000025, 34.005019900000036 ], [ 119.694885400000089, 34.009538 ], [ 119.696580500000096, 34.010747500000036 ], [ 119.69769610000003, 34.011263400000075 ], [ 119.699326900000074, 34.011450100000047 ], [ 119.703592400000048, 34.011838600000033 ], [ 119.70447050000007, 34.01212170000008 ], [ 119.70889370000009, 34.013469600000064 ], [ 119.709641800000099, 34.013860500000078 ], [ 119.711869600000114, 34.015828500000055 ], [ 119.713251900000046, 34.01733820000004 ], [ 119.71367680000003, 34.017725200000029 ] ] } },
{ "type": "Feature", "properties": { "osm_id": "203350415", "code": 8101, "fclass": "river", "width": 0, "name": "废黄河", "Shape_Leng": 0.0282039636688 }, "geometry": { "type": "LineString", "coordinates": [ [ 116.548395500000083, 34.470922400000063 ], [ 116.54948550000006, 34.472368500000073 ], [ 116.550586200000112, 34.474898100000075 ], [ 116.55376380000007, 34.47848730000004 ], [ 116.557786, 34.483756100000051 ], [ 116.560397100000046, 34.487629300000037 ], [ 116.561409, 34.48864 ], [ 116.562205500000118, 34.489031500000067 ], [ 116.563589600000114, 34.489102200000048 ], [ 116.56404550000002, 34.489805300000057 ], [ 116.564276200000108, 34.491003500000033 ], [ 116.564297700000111, 34.492462500000045 ], [ 116.564225300000089, 34.492774200000042 ] ] } },
{ "type": "Feature", "properties": { "osm_id": "246155903", "code": 8101, "fclass": "river", "width": 0, "name": "废黄河", "Shape_Leng": 0.28615472042500001 }, "geometry": { "type": "LineString", "coordinates": [ [ 116.564225300000089, 34.492774200000042 ], [ 116.564759, 34.492144200000041 ], [ 116.566003600000045, 34.489968900000065 ], [ 116.566937, 34.489296800000034 ], [ 116.567451900000037, 34.488518600000077 ], [ 116.568063500000108, 34.487970300000029 ], [ 116.56941530000006, 34.487581200000079 ], [ 116.570515000000114, 34.48672780000004 ], [ 116.572569600000065, 34.485587 ], [ 116.573932200000058, 34.485211200000037 ], [ 116.574356, 34.48577720000003 ], [ 116.574758300000099, 34.486763200000041 ], [ 116.575149900000042, 34.486957800000027 ], [ 116.576099400000089, 34.486984300000074 ], [ 116.578787, 34.487934900000027 ], [ 116.579999300000054, 34.489044800000045 ], [ 116.581619400000022, 34.490044 ], [ 116.583679300000085, 34.490680700000041 ], [ 116.584714600000098, 34.490724900000032 ], [ 116.588925700000118, 34.490663 ], [ 116.594145300000037, 34.490181100000029 ], [ 116.597145300000079, 34.489708800000074 ], [ 116.59786930000007, 34.489589500000079 ], [ 116.607554100000016, 34.489138600000047 ], [ 116.610240700000077, 34.488992800000062 ], [ 116.611511700000051, 34.488860200000033 ], [ 116.616193200000112, 34.488144100000056 ], [ 116.631138700000065, 34.48575720000008 ], [ 116.632650900000044, 34.485478800000067 ], [ 116.635884500000088, 34.48433840000007 ], [ 116.644684500000039, 34.481434200000024 ], [ 116.652197500000057, 34.479153200000042 ], [ 116.659855200000038, 34.476872200000059 ], [ 116.665035500000045, 34.475811200000066 ], [ 116.666145500000084, 34.47566530000006 ], [ 116.672258900000088, 34.475333800000044 ], [ 116.673915900000111, 34.475320500000066 ], [ 116.678790500000105, 34.475625600000058 ], [ 116.69616520000011, 34.475347 ], [ 116.696744400000057, 34.475294 ], [ 116.698691, 34.474591100000055 ], [ 116.700302100000044, 34.474050500000033 ], [ 116.70139180000001, 34.473953300000062 ], [ 116.709698600000024, 34.474141200000076 ], [ 116.717394100000092, 34.473957800000051 ], [ 116.739386800000034, 34.469607500000052 ], [ 116.746430700000019, 34.467094900000063 ], [ 116.755401300000017, 34.463896300000044 ], [ 116.768749400000047, 34.45442010000005 ], [ 116.770853500000044, 34.452273500000047 ], [ 116.772683700000016, 34.450150500000063 ], [ 116.77328870000008, 34.449252500000057 ], [ 116.777312100000017, 34.439923900000053 ], [ 116.777417900000046, 34.43924 ], [ 116.777011500000071, 34.432343200000048 ], [ 116.777054900000053, 34.432081500000038 ], [ 116.77721740000004, 34.43181990000005 ], [ 116.777430500000037, 34.431683200000066 ], [ 116.7777628, 34.43158580000005 ], [ 116.780636400000049, 34.430939300000034 ], [ 116.7811752, 34.430802 ], [ 116.781571100000065, 34.430546900000024 ], [ 116.784392500000081, 34.428477 ], [ 116.785679800000025, 34.427300200000047 ], [ 116.786512800000082, 34.425848 ], [ 116.788104800000042, 34.421660200000076 ], [ 116.789150800000016, 34.421048300000052 ], [ 116.790257800000063, 34.420320500000059 ], [ 116.793277500000045, 34.417946900000061 ], [ 116.7956153, 34.416451700000039 ], [ 116.798682, 34.414805 ], [ 116.804101800000012, 34.411250100000075 ], [ 116.812746700000048, 34.406691700000067 ] ] } },
{ "type": "Feature", "properties": { "osm_id": "757650309", "code": 8101, "fclass": "river", "width": 0, "name": "黄河故道", "Shape_Leng": 0.39838276179600002 }, "geometry": { "type": "LineString", "coordinates": [ [ 118.641005200000109, 33.700758400000041 ], [ 118.649986200000058, 33.704517200000055 ], [ 118.652564200000029, 33.705367800000033 ], [ 118.655393100000083, 33.705802700000049 ], [ 118.65659160000007, 33.705663 ], [ 118.657576400000039, 33.705386500000031 ], [ 118.657986200000096, 33.70514460000004 ], [ 118.65856430000008, 33.704659400000025 ], [ 118.659086000000116, 33.704210600000067 ], [ 118.659688600000095, 33.703787100000056 ], [ 118.669561200000089, 33.699169700000027 ], [ 118.675491400000055, 33.695983100000035 ], [ 118.677790200000118, 33.694909200000041 ], [ 118.681532900000093, 33.693303300000025 ], [ 118.687548600000014, 33.689701500000069 ], [ 118.689033700000095, 33.688727500000027 ], [ 118.69095, 33.687321700000041 ], [ 118.691443400000026, 33.686737300000061 ], [ 118.694109900000058, 33.684366 ], [ 118.697152800000026, 33.681012900000042 ], [ 118.706233200000042, 33.669694400000026 ], [ 118.709568500000046, 33.66547840000004 ], [ 118.711198700000068, 33.662555300000065 ], [ 118.712323, 33.660288 ], [ 118.71517110000002, 33.657177600000068 ], [ 118.720661200000109, 33.653467500000033 ], [ 118.723022200000059, 33.65181860000007 ], [ 118.728699700000107, 33.648970500000075 ], [ 118.730723400000102, 33.646684500000049 ], [ 118.732334800000103, 33.644473400000038 ], [ 118.734152400000085, 33.640576 ], [ 118.734583300000054, 33.637784100000033 ], [ 118.734470900000019, 33.63379290000006 ], [ 118.734002500000088, 33.631863 ], [ 118.733215500000028, 33.630588800000055 ], [ 118.731024, 33.627044900000044 ], [ 118.730929500000116, 33.617959600000063 ], [ 118.731044500000053, 33.613678500000049 ], [ 118.731127900000047, 33.612386300000026 ], [ 118.733103100000108, 33.60756020000008 ], [ 118.734620800000016, 33.605124300000057 ], [ 118.74235950000002, 33.598584800000026 ], [ 118.750023200000101, 33.594331400000044 ], [ 118.752028100000075, 33.590902400000061 ], [ 118.753002500000093, 33.588054200000045 ], [ 118.7527027000001, 33.581046300000025 ], [ 118.753058700000111, 33.57941610000006 ], [ 118.756843700000104, 33.574375700000076 ], [ 118.760403900000028, 33.572670600000038 ], [ 118.7657441, 33.572183400000029 ], [ 118.773070600000096, 33.571771200000057 ], [ 118.7780361, 33.572389500000043 ], [ 118.782120900000109, 33.572726800000055 ], [ 118.7840883, 33.572127200000068 ], [ 118.788716500000078, 33.568998 ], [ 118.792164300000081, 33.564426 ], [ 118.792089300000043, 33.561015700000041 ], [ 118.791321100000118, 33.554270200000076 ], [ 118.79090890000009, 33.55323960000004 ], [ 118.789409800000044, 33.551553200000058 ], [ 118.787704700000063, 33.550316500000065 ], [ 118.788023300000077, 33.546643900000049 ], [ 118.788094500000057, 33.544575300000076 ], [ 118.788245600000096, 33.543516 ], [ 118.791811400000029, 33.54128890000004 ], [ 118.795447800000034, 33.539951100000053 ], [ 118.798930400000017, 33.539451600000064 ], [ 118.802548800000068, 33.541283200000066 ], [ 118.805372100000113, 33.541187500000035 ], [ 118.807962400000065, 33.541283400000054 ], [ 118.811889800000017, 33.541393700000071 ], [ 118.816230200000064, 33.541271300000062 ], [ 118.820532400000047, 33.541745200000037 ], [ 118.823091100000056, 33.541385 ], [ 118.834936500000026, 33.544322700000066 ], [ 118.837305600000036, 33.545194500000036 ], [ 118.843029300000012, 33.548435400000074 ], [ 118.845777400000088, 33.549174600000072 ], [ 118.848999400000025, 33.549212500000067 ], [ 118.855670700000019, 33.547866900000031 ], [ 118.85855150000009, 33.548738700000058 ], [ 118.862967500000082, 33.550861400000031 ], [ 118.864294200000018, 33.551846900000044 ], [ 118.866208400000119, 33.551922700000034 ], [ 118.871799500000066, 33.551562600000068 ], [ 118.878015900000037, 33.550349700000027 ], [ 118.883398500000112, 33.54834070000004 ], [ 118.88953140000001, 33.541260300000033 ], [ 118.889960100000053, 33.54055180000006 ], [ 118.890915900000095, 33.533602100000053 ], [ 118.891135400000053, 33.532809600000064 ], [ 118.892438900000116, 33.53158650000006 ], [ 118.895338700000025, 33.529122700000073 ], [ 118.8982764000001, 33.527189500000077 ], [ 118.901289800000086, 33.523967500000026 ], [ 118.902881900000011, 33.521333100000049 ], [ 118.9033746, 33.520025400000065 ], [ 118.903753700000038, 33.519343100000071 ], [ 118.905326800000012, 33.518300700000054 ] ] } },
{ "type": "Feature", "properties": { "osm_id": "761662413", "code": 8101, "fclass": "river", "width": 0, "name": "废黄河", "Shape_Leng": 0.100340608917 }, "geometry": { "type": "LineString", "coordinates": [ [ 119.720777400000088, 34.024918300000024 ], [ 119.7243932, 34.028937700000029 ], [ 119.728164800000059, 34.030472400000065 ], [ 119.732290700000021, 34.03026710000006 ], [ 119.735988500000076, 34.031547400000079 ], [ 119.738738900000044, 34.033192700000029 ], [ 119.740209700000037, 34.034289600000079 ], [ 119.741120900000055, 34.035295700000063 ], [ 119.743540900000085, 34.03856890000003 ], [ 119.745369, 34.04179460000006 ], [ 119.745532900000057, 34.044045900000071 ], [ 119.747983600000111, 34.046161700000027 ], [ 119.751917400000025, 34.047498100000041 ], [ 119.7558146, 34.04914210000004 ], [ 119.76019030000009, 34.05090210000003 ], [ 119.762588300000061, 34.051493500000049 ], [ 119.765844900000047, 34.052293900000052 ], [ 119.770358800000054, 34.053195900000048 ], [ 119.773733600000014, 34.053206 ], [ 119.7861951000001, 34.052648900000065 ], [ 119.790673200000015, 34.052108300000043 ], [ 119.791988700000047, 34.052524500000061 ], [ 119.797432400000048, 34.056499400000064 ], [ 119.798915100000045, 34.057956700000034 ], [ 119.802153100000055, 34.061139200000071 ], [ 119.803275400000075, 34.065519400000028 ] ] } },
{ "type": "Feature", "properties": { "osm_id": "844783307", "code": 8101, "fclass": "river", "width": 0, "name": "黄河故道", "Shape_Leng": 0.80317145056100003 }, "geometry": { "type": "LineString", "coordinates": [ [ 118.100224200000071, 34.030822 ], [ 118.102542400000061, 34.030037900000025 ], [ 118.103598500000089, 34.029548700000078 ], [ 118.104660600000102, 34.029023900000027 ], [ 118.107868, 34.027114700000027 ], [ 118.108178100000032, 34.026984300000038 ], [ 118.109431200000017, 34.026457500000049 ], [ 118.110088900000051, 34.026181 ], [ 118.112095200000113, 34.025451900000064 ], [ 118.114895400000023, 34.024900600000024 ], [ 118.115982700000018, 34.024520700000039 ], [ 118.117159100000094, 34.02392240000006 ], [ 118.117322100000024, 34.023818300000073 ], [ 118.117994400000043, 34.02344 ], [ 118.11849570000004, 34.023095800000078 ], [ 118.118810400000029, 34.022835300000054 ], [ 118.120396800000094, 34.02096860000006 ], [ 118.120612800000117, 34.020717 ], [ 118.120843, 34.020557500000052 ], [ 118.121209500000077, 34.020446100000072 ], [ 118.122073000000114, 34.020205500000031 ], [ 118.124192500000049, 34.019322400000078 ], [ 118.128413, 34.017563700000039 ], [ 118.128977, 34.017328700000064 ], [ 118.130051300000105, 34.016946400000052 ], [ 118.131042300000104, 34.016657300000077 ], [ 118.131758500000046, 34.016530600000067 ], [ 118.132665300000099, 34.016454400000043 ], [ 118.135642100000041, 34.016131500000029 ], [ 118.136260700000093, 34.016154400000062 ], [ 118.137894700000061, 34.016387900000041 ], [ 118.138054900000043, 34.01641010000003 ], [ 118.140752900000052, 34.016783700000076 ], [ 118.144206500000109, 34.017262 ], [ 118.147432200000026, 34.01799230000006 ], [ 118.149409700000092, 34.018632 ], [ 118.151167100000066, 34.019291300000077 ], [ 118.153959100000066, 34.020338800000047 ], [ 118.155140300000085, 34.020469300000059 ], [ 118.156222900000103, 34.020232100000044 ], [ 118.1587101, 34.018686700000046 ], [ 118.159960700000056, 34.01809060000005 ], [ 118.164516300000059, 34.015919200000042 ], [ 118.167520300000092, 34.014345200000037 ], [ 118.168303100000117, 34.013791200000071 ], [ 118.168915, 34.013358 ], [ 118.1697699, 34.012207700000033 ], [ 118.170390600000019, 34.01137250000005 ], [ 118.170481500000051, 34.011250200000063 ], [ 118.17138280000006, 34.009275900000034 ], [ 118.171726, 34.005665 ], [ 118.171759700000052, 34.005052600000056 ], [ 118.171957600000042, 34.001452200000074 ], [ 118.172101500000053, 33.998834100000067 ], [ 118.17142560000002, 33.993861800000047 ], [ 118.172452900000053, 33.991153100000076 ], [ 118.174327700000049, 33.987554800000055 ], [ 118.175009, 33.987029900000039 ], [ 118.176124800000025, 33.986692 ], [ 118.177221300000042, 33.986416500000075 ], [ 118.191078800000014, 33.982934600000078 ], [ 118.192062100000044, 33.982687500000054 ], [ 118.196640500000058, 33.981537100000025 ], [ 118.201261100000011, 33.980376 ], [ 118.202920300000073, 33.979925 ], [ 118.210063900000023, 33.97798350000005 ], [ 118.213888900000029, 33.975445300000047 ], [ 118.214413900000068, 33.975055300000065 ], [ 118.215757200000098, 33.974057600000037 ], [ 118.217467300000067, 33.973307900000066 ], [ 118.217597400000045, 33.973250900000039 ], [ 118.221153800000025, 33.971674200000052 ], [ 118.22280580000006, 33.97130750000008 ], [ 118.22950650000007, 33.96982 ], [ 118.244941, 33.968474800000024 ], [ 118.250835900000084, 33.968351700000028 ], [ 118.256029800000078, 33.968545300000073 ], [ 118.262104400000112, 33.968657200000052 ], [ 118.266157900000053, 33.968731800000057 ], [ 118.266863500000113, 33.968744800000024 ], [ 118.270592300000089, 33.968399800000043 ], [ 118.271844200000032, 33.968212 ], [ 118.277201500000047, 33.967408300000045 ], [ 118.278143800000066, 33.96718750000008 ], [ 118.279372200000012, 33.966794900000025 ], [ 118.282907900000055, 33.965340900000058 ], [ 118.283368700000096, 33.965049200000067 ], [ 118.287281, 33.961728400000027 ], [ 118.2875553, 33.961450500000069 ], [ 118.287744300000099, 33.961251 ], [ 118.287803200000099, 33.960934900000041 ], [ 118.287807500000099, 33.96066570000005 ], [ 118.287644600000021, 33.959758200000067 ], [ 118.286761400000046, 33.954060800000036 ], [ 118.286395200000015, 33.952322 ], [ 118.286039600000095, 33.951166800000067 ], [ 118.285464, 33.950194 ], [ 118.284090200000037, 33.947477400000025 ], [ 118.283643900000015, 33.946112400000061 ], [ 118.283505400000081, 33.94343850000007 ], [ 118.283504200000039, 33.942692200000067 ], [ 118.283497700000112, 33.938568400000065 ], [ 118.283613800000012, 33.931677600000057 ], [ 118.283611900000096, 33.929616600000031 ], [ 118.283021300000087, 33.921527100000048 ], [ 118.282897400000024, 33.917810300000042 ], [ 118.282955100000095, 33.915931600000079 ], [ 118.282990300000051, 33.914864900000055 ], [ 118.283257500000104, 33.908772800000065 ], [ 118.285513400000013, 33.905550900000037 ], [ 118.288164500000107, 33.901764600000035 ], [ 118.288367000000108, 33.901558100000045 ], [ 118.290814400000045, 33.899061600000039 ], [ 118.291534900000102, 33.898326600000075 ], [ 118.29616980000003, 33.894906900000024 ], [ 118.297148600000014, 33.893877900000064 ], [ 118.298331500000018, 33.892634300000054 ], [ 118.301459100000102, 33.889642200000026 ], [ 118.305434000000105, 33.885839400000066 ], [ 118.309905300000082, 33.881816 ], [ 118.312390100000016, 33.879423700000075 ], [ 118.314350900000022, 33.877306800000042 ], [ 118.3170493, 33.874393500000053 ], [ 118.317928600000073, 33.872958900000071 ], [ 118.318153800000118, 33.872591600000078 ], [ 118.319055, 33.871121300000027 ], [ 118.320795100000055, 33.866800300000079 ], [ 118.320911400000114, 33.866479200000072 ], [ 118.322723100000076, 33.861476800000048 ], [ 118.323813800000039, 33.857316100000048 ], [ 118.323842800000079, 33.857228500000076 ], [ 118.325290600000017, 33.852858100000049 ], [ 118.326425100000051, 33.849178400000028 ], [ 118.328845400000091, 33.840621100000078 ], [ 118.328965800000105, 33.840290400000072 ], [ 118.332623500000068, 33.830246100000068 ], [ 118.334730400000012, 33.826487500000042 ], [ 118.33522430000005, 33.825750400000061 ], [ 118.335323700000117, 33.825602200000048 ], [ 118.336479600000075, 33.823877100000061 ], [ 118.3383338000001, 33.821153 ], [ 118.338609100000099, 33.820748600000059 ], [ 118.33979110000007, 33.819194800000048 ], [ 118.340218200000095, 33.818633400000067 ], [ 118.346697800000015, 33.813981 ], [ 118.350071500000013, 33.811652400000071 ], [ 118.353211800000054, 33.809450600000048 ], [ 118.353589400000033, 33.809220800000048 ], [ 118.360515100000043, 33.80500580000006 ], [ 118.364393100000029, 33.803088400000036 ], [ 118.367836500000067, 33.801385900000071 ], [ 118.369636200000059, 33.799776700000052 ], [ 118.373760700000048, 33.797245700000076 ], [ 118.379425600000104, 33.794677900000067 ], [ 118.386230100000034, 33.790584100000046 ], [ 118.390451400000074, 33.788044400000047 ], [ 118.392110400000092, 33.787046200000077 ], [ 118.395742500000097, 33.785986 ], [ 118.402625100000023, 33.785047300000031 ], [ 118.404432400000019, 33.78491020000007 ], [ 118.405395200000044, 33.784837100000061 ], [ 118.407921400000077, 33.784897200000046 ], [ 118.409477700000025, 33.784875400000033 ], [ 118.410282300000063, 33.785007300000075 ], [ 118.4119531, 33.785373400000026 ], [ 118.414200400000027, 33.785968800000035 ], [ 118.416805100000033, 33.78703530000007 ], [ 118.418834, 33.787719200000026 ], [ 118.421188700000016, 33.78849880000007 ], [ 118.423145, 33.78946250000007 ], [ 118.427255900000091, 33.791453800000056 ], [ 118.43020480000007, 33.792074 ], [ 118.434952700000053, 33.792947200000071 ], [ 118.437392, 33.79330420000008 ], [ 118.439460900000086, 33.793363300000067 ], [ 118.440537, 33.793394 ], [ 118.443270900000016, 33.792785800000047 ], [ 118.444429200000059, 33.792024500000025 ], [ 118.452321900000015, 33.784972500000038 ], [ 118.453119300000026, 33.781896800000027 ], [ 118.453443500000049, 33.78064640000008 ], [ 118.453802500000052, 33.779261900000051 ], [ 118.454102300000045, 33.778175100000055 ], [ 118.456969200000117, 33.774371400000064 ], [ 118.461353800000097, 33.769649500000071 ], [ 118.46173490000001, 33.769262200000071 ], [ 118.464801500000021, 33.76614550000005 ], [ 118.472390300000029, 33.761105100000066 ], [ 118.474895400000037, 33.759737500000028 ], [ 118.479323200000067, 33.757320100000072 ], [ 118.483389300000113, 33.755296400000077 ], [ 118.487466600000062, 33.752932800000053 ], [ 118.488325500000087, 33.752463900000066 ], [ 118.489571200000114, 33.751783800000055 ], [ 118.49455660000001, 33.748847 ], [ 118.498922900000025, 33.746208600000045 ], [ 118.506624100000067, 33.740737200000069 ], [ 118.507501700000034, 33.740221900000051 ], [ 118.51055150000002, 33.739335500000038 ], [ 118.512367600000061, 33.739090600000054 ], [ 118.513783600000011, 33.738926800000058 ], [ 118.515508800000021, 33.739039400000024 ], [ 118.516317500000014, 33.739130100000068 ], [ 118.516798600000016, 33.739238200000045 ], [ 118.517961100000093, 33.740287600000045 ], [ 118.518285900000024, 33.740680500000053 ], [ 118.518503100000089, 33.741262400000039 ], [ 118.519506200000023, 33.745728100000065 ], [ 118.520183800000041, 33.748782700000049 ], [ 118.520257400000105, 33.749238 ], [ 118.520340100000112, 33.74975 ], [ 118.520263100000079, 33.750234500000033 ], [ 118.520172900000034, 33.750591 ], [ 118.519722900000033, 33.751905700000066 ], [ 118.517818200000079, 33.757650400000045 ], [ 118.517686, 33.758188800000028 ], [ 118.516123900000025, 33.764550900000074 ], [ 118.51587040000004, 33.765583500000048 ], [ 118.515801900000042, 33.765859700000078 ], [ 118.515683200000012, 33.766833100000042 ], [ 118.515719500000046, 33.767530100000045 ], [ 118.516957500000103, 33.770265800000061 ], [ 118.517112100000077, 33.77060750000004 ], [ 118.517422900000042, 33.77109310000003 ], [ 118.517816800000105, 33.771619800000053 ], [ 118.518130200000087, 33.771976700000039 ], [ 118.518792400000052, 33.772531600000036 ], [ 118.519213800000102, 33.77280410000003 ], [ 118.519727900000021, 33.773062500000037 ], [ 118.520254100000102, 33.773277900000039 ], [ 118.520914900000093, 33.773443200000031 ], [ 118.52171020000003, 33.773582600000054 ], [ 118.522682300000042, 33.773678100000041 ], [ 118.523677300000031, 33.773704 ], [ 118.524615900000072, 33.773678100000041 ], [ 118.528116200000113, 33.77350940000008 ], [ 118.53162430000009, 33.773376900000073 ], [ 118.532612300000096, 33.773329500000045 ], [ 118.532977900000105, 33.773275700000056 ], [ 118.533273, 33.773185600000033 ], [ 118.536125500000026, 33.77213160000008 ], [ 118.538867, 33.770920300000057 ], [ 118.54001130000006, 33.770283500000062 ], [ 118.54005010000003, 33.770254400000056 ], [ 118.546760200000108, 33.765227400000072 ], [ 118.54801550000002, 33.764364700000044 ], [ 118.548913600000105, 33.76389 ], [ 118.550567900000033, 33.763197500000047 ], [ 118.555342100000075, 33.761198800000045 ], [ 118.562737600000105, 33.758205400000065 ], [ 118.563333900000089, 33.75779730000005 ], [ 118.563392500000077, 33.757757200000071 ], [ 118.565198100000089, 33.755989700000043 ], [ 118.566290600000116, 33.754925900000046 ], [ 118.567657500000109, 33.753594900000053 ], [ 118.568096500000024, 33.753104300000075 ], [ 118.568425800000114, 33.752718 ], [ 118.5691395, 33.751768500000026 ], [ 118.569662500000049, 33.750967100000025 ], [ 118.569917, 33.750349100000051 ], [ 118.570118500000035, 33.749827400000072 ], [ 118.570733400000108, 33.747616900000025 ], [ 118.570752300000095, 33.747161100000028 ], [ 118.570691300000021, 33.746695800000055 ], [ 118.570517500000051, 33.746170300000074 ], [ 118.569282900000076, 33.744193900000027 ], [ 118.567739800000027, 33.742017800000042 ], [ 118.5662254, 33.739888800000074 ], [ 118.5642401, 33.737412300000074 ], [ 118.562351300000046, 33.734570500000075 ], [ 118.561851, 33.733779 ], [ 118.561548200000061, 33.733231900000078 ], [ 118.561359700000025, 33.732736500000044 ], [ 118.561307100000022, 33.73211450000008 ], [ 118.561649100000068, 33.730222500000025 ], [ 118.562095800000066, 33.72871710000004 ], [ 118.56232620000003, 33.728257 ], [ 118.562587100000087, 33.727927800000032 ], [ 118.565797700000076, 33.725035 ], [ 118.567685500000039, 33.723361200000056 ], [ 118.56884070000001, 33.722547300000031 ], [ 118.569918100000109, 33.721940800000027 ], [ 118.570070900000019, 33.721854800000074 ], [ 118.570756600000095, 33.721553300000039 ], [ 118.571199, 33.721427900000037 ], [ 118.571725100000094, 33.721378100000038 ], [ 118.572224700000106, 33.721399900000051 ], [ 118.577883500000098, 33.722861500000079 ], [ 118.587496000000101, 33.727321 ], [ 118.588741900000059, 33.727947200000074 ], [ 118.590437800000018, 33.728220400000055 ], [ 118.591564200000107, 33.728060300000038 ], [ 118.594522600000118, 33.726833800000065 ], [ 118.598082700000077, 33.72362970000006 ], [ 118.601032200000077, 33.721874700000058 ], [ 118.601830300000074, 33.721399900000051 ], [ 118.607451600000104, 33.714185900000075 ], [ 118.612604500000089, 33.709239100000048 ], [ 118.623997, 33.701069500000074 ], [ 118.627097500000104, 33.698902600000054 ], [ 118.627761300000088, 33.69867 ], [ 118.62864310000009, 33.698610700000074 ], [ 118.633684400000107, 33.69912080000006 ], [ 118.637210100000061, 33.699431600000025 ], [ 118.639368300000115, 33.700188500000024 ] ] } },
{ "type": "Feature", "properties": { "osm_id": "852707455", "code": 8101, "fclass": "river", "width": 10, "name": "黄河故道", "Shape_Leng": 1.26029989302 }, "geometry": { "type": "LineString", "coordinates": [ [ 117.10030590000008, 34.275853900000072 ], [ 117.113085400000045, 34.276864500000045 ], [ 117.117740300000037, 34.276899700000058 ], [ 117.123207900000011, 34.276857500000062 ], [ 117.128152100000079, 34.275901100000056 ], [ 117.135478, 34.27676260000004 ], [ 117.138138500000082, 34.277075500000024 ], [ 117.148920500000031, 34.278344700000048 ], [ 117.151205400000094, 34.277940400000034 ], [ 117.167899700000021, 34.274102700000071 ], [ 117.171835900000019, 34.273387500000069 ], [ 117.175866700000029, 34.273088500000028 ], [ 117.180323700000031, 34.273114900000053 ], [ 117.182480400000031, 34.273196700000028 ], [ 117.185011100000111, 34.273471800000038 ], [ 117.186468600000012, 34.273239 ], [ 117.18763940000008, 34.272663100000045 ], [ 117.188818300000094, 34.27177 ], [ 117.193071800000098, 34.267116500000043 ], [ 117.194573900000023, 34.265132600000072 ], [ 117.197083600000042, 34.262768300000062 ], [ 117.1976370000001, 34.261581400000068 ], [ 117.198045300000103, 34.259732600000063 ], [ 117.197136000000114, 34.257323700000029 ], [ 117.195720800000117, 34.25287430000003 ], [ 117.195315900000082, 34.250606 ], [ 117.195622900000103, 34.247983800000043 ], [ 117.19583160000002, 34.246856700000023 ], [ 117.19696620000002, 34.245894100000044 ], [ 117.199313700000062, 34.244450200000074 ], [ 117.215022200000021, 34.236204900000075 ], [ 117.224267600000076, 34.228235300000051 ], [ 117.232199100000116, 34.221338900000035 ], [ 117.236224500000048, 34.217491800000062 ], [ 117.238135300000067, 34.215784800000051 ], [ 117.239078, 34.214765700000044 ], [ 117.239842300000078, 34.21451090000005 ], [ 117.242364600000087, 34.214256100000057 ], [ 117.246670400000085, 34.214077800000041 ], [ 117.247918800000093, 34.214205100000072 ], [ 117.2489888, 34.214638300000047 ], [ 117.253243600000019, 34.217186 ], [ 117.254950600000029, 34.218434400000035 ], [ 117.25546010000005, 34.21914780000003 ], [ 117.256173500000045, 34.2206 ], [ 117.258899600000063, 34.225695600000051 ], [ 117.260249900000076, 34.227810200000079 ], [ 117.261574800000062, 34.229262400000039 ], [ 117.263791300000094, 34.23091850000003 ], [ 117.266695800000093, 34.23290570000006 ], [ 117.276097, 34.238663700000075 ], [ 117.2901352, 34.24714780000005 ], [ 117.293804, 34.248752800000034 ], [ 117.29734540000004, 34.249924800000031 ], [ 117.299256200000059, 34.250103200000069 ], [ 117.300504600000068, 34.250001300000065 ], [ 117.302288100000055, 34.249568100000033 ], [ 117.30498840000007, 34.248421700000051 ], [ 117.305168400000071, 34.248239500000068 ], [ 117.305953100000011, 34.246425200000033 ], [ 117.306526100000042, 34.242253 ], [ 117.306426900000019, 34.23526540000006 ], [ 117.305526500000042, 34.226145900000063 ], [ 117.305207900000028, 34.21232660000004 ], [ 117.305717700000059, 34.207702100000063 ], [ 117.306211600000097, 34.20623960000006 ], [ 117.30872880000004, 34.200507900000048 ], [ 117.310545, 34.197543100000075 ], [ 117.312948600000027, 34.193875300000059 ], [ 117.3161761, 34.191023900000062 ], [ 117.318215100000089, 34.189980300000059 ], [ 117.320783600000027, 34.189444500000036 ], [ 117.331150300000104, 34.187309300000038 ], [ 117.33251180000002, 34.187209800000062 ], [ 117.334334300000023, 34.187120100000072 ], [ 117.336049200000048, 34.187227800000073 ], [ 117.337952600000108, 34.187524100000076 ], [ 117.341729200000032, 34.188350400000047 ], [ 117.344354100000032, 34.18892470000003 ], [ 117.35105180000005, 34.19028940000004 ], [ 117.353951800000118, 34.190774200000078 ], [ 117.355307500000094, 34.190765200000044 ], [ 117.356941600000027, 34.190280400000063 ], [ 117.359829000000104, 34.18928180000006 ], [ 117.36287040000002, 34.18823 ], [ 117.36541550000004, 34.186924900000065 ], [ 117.368444200000113, 34.184657600000037 ], [ 117.3694001, 34.183133300000065 ], [ 117.370390500000099, 34.181123200000059 ], [ 117.371427, 34.180284800000038 ], [ 117.374720600000046, 34.178922400000033 ], [ 117.376609300000041, 34.177893400000073 ], [ 117.377611200000047, 34.176969300000053 ], [ 117.380536300000017, 34.174730300000078 ], [ 117.388436500000012, 34.167822400000034 ], [ 117.399711, 34.157702500000028 ], [ 117.402555500000062, 34.156006200000036 ], [ 117.4052388, 34.155482 ], [ 117.408682200000044, 34.155377200000032 ], [ 117.413484500000095, 34.155100800000071 ], [ 117.420175400000062, 34.155386700000065 ], [ 117.432186900000033, 34.155567800000028 ], [ 117.438313600000015, 34.155377200000032 ], [ 117.441054500000064, 34.154567100000065 ], [ 117.442666700000018, 34.153271 ], [ 117.444267500000024, 34.151593700000035 ], [ 117.44621380000001, 34.148648800000046 ], [ 117.447100500000033, 34.146361400000046 ], [ 117.449645600000053, 34.139946800000075 ], [ 117.451373100000069, 34.138164400000051 ], [ 117.46011390000001, 34.13141550000006 ], [ 117.462451700000088, 34.130300200000079 ], [ 117.468981500000041, 34.127697700000056 ], [ 117.473426800000084, 34.126000800000043 ], [ 117.478563, 34.12377 ], [ 117.48147670000003, 34.122778500000038 ], [ 117.483273200000099, 34.122406700000056 ], [ 117.484678200000076, 34.122378100000049 ], [ 117.486785700000041, 34.123045400000024 ], [ 117.49579140000003, 34.126668100000074 ], [ 117.497852800000032, 34.127106600000047 ], [ 117.499384500000019, 34.126773 ], [ 117.502712700000075, 34.126181900000063 ], [ 117.505776, 34.126077100000032 ], [ 117.517300500000033, 34.126087200000029 ], [ 117.518878100000052, 34.126082300000064 ], [ 117.520337900000072, 34.12639420000005 ], [ 117.522627700000044, 34.127451600000029 ], [ 117.523816700000111, 34.127963200000067 ], [ 117.5246644, 34.128124 ], [ 117.525406100000055, 34.128089900000077 ], [ 117.527230800000098, 34.127768300000071 ], [ 117.529791400000022, 34.126569600000039 ], [ 117.5312689000001, 34.125653500000055 ], [ 117.53484190000006, 34.123090400000024 ], [ 117.538503300000116, 34.120478400000025 ], [ 117.544495600000118, 34.115541800000074 ], [ 117.54586130000007, 34.114026200000069 ], [ 117.546520500000042, 34.112408200000061 ], [ 117.547797900000091, 34.108465400000057 ], [ 117.54981690000011, 34.101939100000038 ], [ 117.550776400000018, 34.100247800000034 ], [ 117.552736600000117, 34.097576600000025 ], [ 117.554720300000099, 34.094242400000041 ], [ 117.557916600000112, 34.088933800000063 ], [ 117.559670700000083, 34.086189200000035 ], [ 117.562820000000102, 34.082761900000037 ], [ 117.566328200000044, 34.078471600000057 ], [ 117.571420000000103, 34.072884100000067 ], [ 117.574869400000011, 34.068485900000042 ], [ 117.579967, 34.061942 ], [ 117.583238300000062, 34.057771800000069 ], [ 117.58904890000008, 34.052371500000049 ], [ 117.591255, 34.049928500000078 ], [ 117.594060300000024, 34.047426100000052 ], [ 117.595092, 34.046988 ], [ 117.596224700000107, 34.046695 ], [ 117.597892300000012, 34.046481300000039 ], [ 117.599579500000118, 34.046419100000037 ], [ 117.600885600000083, 34.04640130000007 ], [ 117.602151800000115, 34.046501900000067 ], [ 117.603299600000014, 34.046694600000023 ], [ 117.604357900000082, 34.046977800000036 ], [ 117.605509700000084, 34.047334700000079 ], [ 117.606480600000054, 34.047777900000028 ], [ 117.607365800000025, 34.048330300000032 ], [ 117.60799570000006, 34.048847 ], [ 117.608395800000039, 34.049806 ], [ 117.608716100000038, 34.05082230000005 ], [ 117.60879280000006, 34.051592700000072 ], [ 117.608828600000038, 34.052417500000047 ], [ 117.608557500000074, 34.05443420000006 ], [ 117.608127200000013, 34.057810500000073 ], [ 117.607812600000102, 34.061254600000041 ], [ 117.6079042, 34.063551100000041 ], [ 117.60809560000007, 34.064826900000071 ], [ 117.608994700000039, 34.067902500000059 ], [ 117.610235000000102, 34.072674300000074 ], [ 117.611966600000073, 34.078873200000032 ], [ 117.614280800000074, 34.084885400000076 ], [ 117.615429600000084, 34.086347 ], [ 117.617294300000026, 34.087863800000036 ], [ 117.619600200000036, 34.089780400000052 ], [ 117.626476400000115, 34.095309300000054 ], [ 117.628699, 34.096784500000069 ], [ 117.630663600000048, 34.097597900000039 ], [ 117.631962300000055, 34.097894300000064 ], [ 117.634809300000029, 34.098687100000063 ], [ 117.636724, 34.09934880000003 ], [ 117.640661500000078, 34.100617200000045 ], [ 117.645568600000047, 34.101973400000077 ], [ 117.648282900000027, 34.102002200000072 ], [ 117.653319900000042, 34.100727200000051 ], [ 117.655468700000029, 34.099740200000042 ], [ 117.659209500000088, 34.095136900000057 ], [ 117.66295660000003, 34.088730600000076 ], [ 117.663516400000049, 34.087171600000033 ], [ 117.664137700000083, 34.084817900000075 ], [ 117.664709800000082, 34.082785100000024 ], [ 117.666475200000036, 34.078775300000075 ], [ 117.66827760000001, 34.075702900000067 ], [ 117.670332200000075, 34.074128500000029 ], [ 117.673697100000027, 34.071606200000076 ], [ 117.676237700000115, 34.070235500000024 ], [ 117.679172000000108, 34.06856920000007 ], [ 117.68337340000005, 34.066485100000079 ], [ 117.68585250000001, 34.066026400000055 ], [ 117.688805200000047, 34.065537200000051 ], [ 117.693055900000104, 34.065088800000069 ], [ 117.699161100000083, 34.064515100000051 ], [ 117.700920700000097, 34.064246200000071 ], [ 117.702455400000076, 34.06390650000003 ], [ 117.704165500000045, 34.063213500000074 ], [ 117.707099800000037, 34.061863 ], [ 117.710200200000031, 34.06059410000006 ], [ 117.712986800000067, 34.059763400000065 ], [ 117.715244400000074, 34.059126300000059 ], [ 117.718929100000082, 34.058377200000052 ], [ 117.720897600000058, 34.05794910000003 ], [ 117.725578900000073, 34.057444600000053 ], [ 117.728574700000081, 34.057169400000078 ], [ 117.730450900000051, 34.056690300000071 ], [ 117.735716600000046, 34.055288800000028 ], [ 117.739149100000077, 34.054463100000078 ], [ 117.742858500000011, 34.052597800000058 ], [ 117.747669, 34.050416400000074 ], [ 117.750547900000015, 34.049519300000043 ], [ 117.752854700000057, 34.048948500000051 ], [ 117.755755900000054, 34.04807610000006 ], [ 117.759061700000075, 34.047528300000067 ], [ 117.762054300000045, 34.047730100000024 ], [ 117.7645946, 34.048249100000078 ], [ 117.766891300000111, 34.050238500000034 ], [ 117.768213600000081, 34.052833400000054 ], [ 117.768358900000067, 34.057858100000033 ], [ 117.768552900000032, 34.061150700000042 ], [ 117.767952600000058, 34.062729 ], [ 117.766960900000072, 34.064581200000077 ], [ 117.7654559, 34.067009800000051 ], [ 117.764098700000091, 34.069388 ], [ 117.762645900000052, 34.070966100000078 ], [ 117.760679800000048, 34.072796500000038 ], [ 117.75865280000005, 34.074634 ], [ 117.753128600000082, 34.080052700000067 ], [ 117.750657900000078, 34.083741800000041 ], [ 117.749883700000055, 34.08498110000005 ], [ 117.749535700000024, 34.087128100000029 ], [ 117.7488571, 34.091414900000075 ], [ 117.747995900000092, 34.095254800000077 ], [ 117.747778400000016, 34.09727920000006 ], [ 117.748013300000025, 34.098071600000026 ], [ 117.748674400000027, 34.099109 ], [ 117.749535700000024, 34.099995 ], [ 117.752015100000108, 34.101270100000079 ], [ 117.7534157, 34.101666300000034 ], [ 117.756095100000039, 34.102559500000041 ], [ 117.757809, 34.102761200000032 ], [ 117.759757700000023, 34.102444300000059 ], [ 117.764577200000076, 34.101666300000034 ], [ 117.766221400000063, 34.100701 ], [ 117.767961300000024, 34.099072900000067 ], [ 117.769588100000078, 34.097048600000051 ], [ 117.7718761000001, 34.093129600000054 ], [ 117.773050600000033, 34.091256400000077 ], [ 117.77327670000011, 34.090341400000057 ], [ 117.773424600000112, 34.08890770000005 ], [ 117.77385090000007, 34.086033 ], [ 117.774259800000095, 34.084620800000039 ], [ 117.77545160000011, 34.083309500000041 ], [ 117.778270300000031, 34.080967800000053 ], [ 117.779879700000038, 34.079490700000065 ], [ 117.781080200000019, 34.078604400000074 ], [ 117.783368200000041, 34.078092800000036 ], [ 117.785282100000018, 34.078013500000054 ], [ 117.787491800000112, 34.078272900000059 ], [ 117.793346600000064, 34.081695500000023 ], [ 117.794695, 34.082841200000075 ], [ 117.796548, 34.08519 ], [ 117.797452800000087, 34.086559 ], [ 117.797887800000012, 34.087293900000077 ], [ 117.798218600000041, 34.087601100000029 ], [ 117.798749, 34.088093600000036 ], [ 117.801341500000035, 34.08991640000005 ], [ 117.80875350000008, 34.09433990000008 ], [ 117.817809700000112, 34.098874900000055 ], [ 117.82605680000006, 34.101988200000051 ], [ 117.831786700000066, 34.102981900000032 ], [ 117.836788, 34.102087600000061 ], [ 117.852222400000073, 34.095165300000076 ], [ 117.856163800000104, 34.094105400000046 ], [ 117.861628800000062, 34.094204800000057 ], [ 117.867789300000027, 34.09331050000003 ], [ 117.873055500000078, 34.093906700000048 ], [ 117.878182400000014, 34.09493370000007 ], [ 117.883588, 34.097516900000073 ], [ 117.886904900000104, 34.09943990000005 ], [ 117.887596600000052, 34.099557 ], [ 117.887931700000081, 34.099613800000043 ], [ 117.891045, 34.099464800000078 ], [ 117.894067300000074, 34.10099660000003 ], [ 117.8965928, 34.101932300000044 ], [ 117.898232300000018, 34.102023400000064 ], [ 117.901337400000102, 34.101468600000032 ], [ 117.903357800000094, 34.100524600000028 ], [ 117.906388400000083, 34.098603600000047 ], [ 117.90975010000011, 34.095655900000054 ], [ 117.915711900000019, 34.089942500000063 ], [ 117.922568, 34.085587100000055 ], [ 117.926260900000102, 34.08330170000005 ], [ 117.929258400000094, 34.081082600000059 ], [ 117.9315272, 34.078565400000059 ], [ 117.933796, 34.075568 ], [ 117.936031600000092, 34.071891500000049 ], [ 117.943351400000097, 34.058792200000028 ], [ 117.945686400000113, 34.054171800000063 ], [ 117.947955200000024, 34.052399800000046 ], [ 117.951101700000095, 34.051124700000059 ], [ 117.955424000000107, 34.050230400000032 ], [ 117.958084, 34.049671300000057 ], [ 117.964323300000046, 34.048359700000049 ], [ 117.969053300000041, 34.047365400000047 ], [ 117.9772838, 34.045858400000043 ], [ 117.982119500000067, 34.045543800000075 ], [ 117.985266, 34.045527200000038 ], [ 117.995401, 34.045394700000031 ], [ 118.002441700000077, 34.045290500000078 ], [ 118.002653, 34.045289600000046 ], [ 118.006194200000095, 34.045241200000078 ], [ 118.010416, 34.044214400000044 ], [ 118.012172, 34.043432600000074 ], [ 118.012769100000014, 34.043410900000026 ], [ 118.01312560000008, 34.043397300000038 ], [ 118.013731300000018, 34.043507300000044 ] ] } },
{ "type": "Feature", "properties": { "osm_id": "908519718", "code": 8101, "fclass": "river", "width": 10, "name": "黄河故道", "Shape_Leng": 0.42699320518099998 }, "geometry": { "type": "LineString", "coordinates": [ [ 116.812746700000048, 34.406691700000067 ], [ 116.813868300000081, 34.405906900000048 ], [ 116.816060900000025, 34.404180600000075 ], [ 116.820357100000024, 34.399212400000067 ], [ 116.820713200000114, 34.398275700000056 ], [ 116.820579700000053, 34.39775220000007 ], [ 116.820646400000101, 34.396925700000054 ], [ 116.822171200000071, 34.394886900000074 ], [ 116.824942600000099, 34.391130500000031 ], [ 116.825332100000082, 34.389817100000073 ], [ 116.825922000000105, 34.388568 ], [ 116.827213100000108, 34.387511800000027 ], [ 116.830218200000104, 34.383396900000037 ], [ 116.839667500000019, 34.375703100000067 ], [ 116.842650300000059, 34.373351400000047 ], [ 116.845677600000045, 34.371606 ], [ 116.8601910000001, 34.36828040000006 ], [ 116.866391100000101, 34.366424400000028 ], [ 116.885300100000109, 34.361500100000058 ], [ 116.888372000000118, 34.360967200000061 ], [ 116.892623600000093, 34.360673200000065 ], [ 116.896185200000104, 34.361077500000079 ], [ 116.901995, 34.362584300000037 ], [ 116.904777500000023, 34.364054300000078 ], [ 116.907582300000058, 34.366222500000049 ], [ 116.9094076, 34.369860500000073 ], [ 116.913058200000023, 34.381196200000034 ], [ 116.914660900000058, 34.388874900000076 ], [ 116.916642, 34.390932300000031 ], [ 116.91924640000002, 34.39179560000008 ], [ 116.921672700000045, 34.392126200000064 ], [ 116.925189800000112, 34.391373100000067 ], [ 116.9291075000001, 34.389756600000055 ], [ 116.933556900000099, 34.386226200000067 ], [ 116.9440346, 34.373093 ], [ 116.948738400000025, 34.369204100000047 ], [ 116.953040400000077, 34.366077300000029 ], [ 116.953792800000087, 34.365602900000056 ], [ 116.954781800000092, 34.365176900000051 ], [ 116.956159900000102, 34.364692200000036 ], [ 116.959112900000036, 34.364177400000074 ], [ 116.966687800000045, 34.363124700000071 ], [ 116.967925200000082, 34.362865500000055 ], [ 116.969247500000051, 34.36226460000006 ], [ 116.972608700000023, 34.36091730000004 ], [ 116.974828900000034, 34.359817900000053 ], [ 116.975945200000069, 34.358991700000047 ], [ 116.976846, 34.357835 ], [ 116.977438700000107, 34.355890300000056 ], [ 116.977723600000104, 34.354720800000052 ], [ 116.977806800000053, 34.351918200000057 ], [ 116.977837200000067, 34.350895500000036 ], [ 116.977839100000097, 34.35083110000005 ], [ 116.977685100000031, 34.348155200000065 ], [ 116.977192400000035, 34.345803400000079 ], [ 116.97677090000002, 34.344449700000041 ], [ 116.9759702, 34.342686800000024 ], [ 116.975190800000064, 34.341239500000029 ], [ 116.973838300000011, 34.339305800000034 ], [ 116.972273500000028, 34.337319500000035 ], [ 116.971067500000117, 34.335915 ], [ 116.967209900000057, 34.331849600000055 ], [ 116.966436200000089, 34.330838100000051 ], [ 116.964558600000032, 34.327066500000058 ], [ 116.964021500000058, 34.325451800000053 ], [ 116.963844900000026, 34.324380800000029 ], [ 116.963781600000061, 34.323627800000054 ], [ 116.963711600000011, 34.322589600000072 ], [ 116.963792400000102, 34.321365300000025 ], [ 116.96392870000011, 34.32014950000007 ], [ 116.9642434000001, 34.318594 ], [ 116.965482900000097, 34.315999700000077 ], [ 116.966360500000064, 34.314664400000026 ], [ 116.967307400000095, 34.314003100000036 ], [ 116.968854800000031, 34.313602500000059 ], [ 116.973173700000075, 34.313030200000071 ], [ 116.975552600000015, 34.31293480000005 ], [ 116.985914900000012, 34.313723300000049 ], [ 116.992458700000043, 34.314359200000069 ], [ 116.993952200000081, 34.314168400000028 ], [ 117.000880900000084, 34.311917400000027 ], [ 117.004630100000099, 34.311039900000026 ], [ 117.009726600000022, 34.311109800000054 ], [ 117.020004200000017, 34.311656700000071 ], [ 117.020812500000034, 34.311853800000051 ], [ 117.022290700000099, 34.312483400000076 ], [ 117.026471, 34.314289300000041 ], [ 117.0308592, 34.316146 ], [ 117.032660700000065, 34.316769100000045 ], [ 117.034862400000065, 34.317195100000049 ], [ 117.036363700000038, 34.317354100000045 ], [ 117.046879900000022, 34.316584700000078 ], [ 117.048504300000104, 34.316495700000075 ], [ 117.050244200000066, 34.31608870000008 ], [ 117.051814700000023, 34.315243100000032 ], [ 117.057026700000051, 34.312693200000069 ], [ 117.0660186, 34.307898500000078 ], [ 117.067750800000113, 34.306302300000027 ], [ 117.069252, 34.305609200000049 ], [ 117.070514600000024, 34.305253100000073 ], [ 117.072901100000081, 34.304407200000071 ], [ 117.073809600000118, 34.304133800000045 ], [ 117.0744793, 34.304051100000038 ], [ 117.075403200000096, 34.303834900000027 ], [ 117.076750400000037, 34.303351600000042 ], [ 117.078290100000117, 34.303097200000025 ], [ 117.079521900000032, 34.303256200000078 ], [ 117.080984600000079, 34.303707700000075 ], [ 117.082470500000113, 34.30436270000007 ], [ 117.08591940000008, 34.305100400000072 ], [ 117.086981800000103, 34.305272100000025 ], [ 117.0908157, 34.304324600000029 ], [ 117.091724100000079, 34.303879400000028 ], [ 117.092378500000109, 34.303173500000071 ], [ 117.096874500000013, 34.296940900000038 ], [ 117.097316500000034, 34.296293700000035 ], [ 117.097721300000103, 34.295700700000054 ], [ 117.097906100000046, 34.293811700000049 ], [ 117.097852200000034, 34.291299400000071 ], [ 117.096351, 34.286528900000064 ], [ 117.095221600000059, 34.280104600000072 ], [ 117.095073, 34.278952900000036 ], [ 117.0950037, 34.277693300000067 ], [ 117.095334800000046, 34.276840900000025 ], [ 117.09576590000006, 34.276033 ], [ 117.096313100000089, 34.275707400000044 ], [ 117.096444100000099, 34.275629500000036 ], [ 117.096535800000083, 34.275574900000038 ], [ 117.097798300000022, 34.275581300000056 ], [ 117.099035600000093, 34.275753500000064 ], [ 117.099914800000079, 34.275823 ] ] } },
{ "type": "Feature", "properties": { "osm_id": "908519719", "code": 8101, "fclass": "river", "width": 10, "name": "黄河故道", "Shape_Leng": 0.00039231877345099998 }, "geometry": { "type": "LineString", "coordinates": [ [ 117.099914800000079, 34.275823 ], [ 117.10030590000008, 34.275853900000072 ] ] } },
{ "type": "Feature", "properties": { "osm_id": "1023479331", "code": 8101, "fclass": "river", "width": 0, "name": "黄河故道", "Shape_Leng": 0.083330719995499999 }, "geometry": { "type": "LineString", "coordinates": [ [ 118.024157500000115, 34.015365900000063 ], [ 118.026832600000034, 34.01307440000005 ], [ 118.028084800000101, 34.012029700000028 ], [ 118.029060500000014, 34.011355700000024 ], [ 118.0298467, 34.011090400000057 ], [ 118.042799700000046, 34.010945700000036 ], [ 118.04450410000004, 34.011037700000031 ], [ 118.045124800000053, 34.01099750000003 ], [ 118.045868800000108, 34.011112800000035 ], [ 118.046221100000025, 34.011241100000063 ], [ 118.047105200000033, 34.011768800000027 ], [ 118.059903700000064, 34.022054700000069 ], [ 118.060838100000069, 34.022499700000026 ], [ 118.069129800000042, 34.026434800000061 ], [ 118.069636, 34.026675 ], [ 118.0750825, 34.029240400000049 ], [ 118.084201200000052, 34.032738400000028 ], [ 118.084354100000041, 34.032797 ], [ 118.087601200000108, 34.033152 ], [ 118.089170300000092, 34.033301800000061 ], [ 118.090209700000059, 34.033242100000052 ], [ 118.09146730000009, 34.033011 ], [ 118.093653200000062, 34.032588800000042 ], [ 118.09606030000009, 34.032123900000045 ], [ 118.097332800000117, 34.031777700000077 ], [ 118.099627400000031, 34.031011700000079 ] ] } },
{ "type": "Feature", "properties": { "osm_id": "1023479332", "code": 8101, "fclass": "river", "width": 0, "name": "黄河故道", "Shape_Leng": 0.00032586245567900002 }, "geometry": { "type": "LineString", "coordinates": [ [ 118.099627400000031, 34.031011700000079 ], [ 118.099937700000055, 34.030912200000046 ] ] } },
{ "type": "Feature", "properties": { "osm_id": "1023479333", "code": 8101, "fclass": "river", "width": 0, "name": "黄河故道", "Shape_Leng": 0.00030036585787699999 }, "geometry": { "type": "LineString", "coordinates": [ [ 118.099937700000055, 34.030912200000046 ], [ 118.099943200000098, 34.030910300000073 ], [ 118.100224200000071, 34.030822 ] ] } },
{ "type": "Feature", "properties": { "osm_id": "1294487833", "code": 8101, "fclass": "river", "width": 0, "name": "废黄河", "Shape_Leng": 0.034073874425599997 }, "geometry": { "type": "LineString", "coordinates": [ [ 119.803275400000075, 34.065519400000028 ], [ 119.813191500000016, 34.076673600000049 ], [ 119.825647900000035, 34.091217700000072 ] ] } },
{ "type": "Feature", "properties": { "osm_id": "1294487834", "code": 8101, "fclass": "river", "width": 0, "name": "废黄河", "Shape_Leng": 0.108383572025 }, "geometry": { "type": "LineString", "coordinates": [ [ 119.825647900000035, 34.091217700000072 ], [ 119.828284300000064, 34.095261700000037 ], [ 119.83071330000007, 34.100869 ], [ 119.831523300000072, 34.103178800000023 ], [ 119.831968500000016, 34.105781800000045 ], [ 119.832608100000016, 34.107521600000041 ], [ 119.835557300000119, 34.109601600000076 ], [ 119.840540900000065, 34.11476250000004 ], [ 119.84690420000004, 34.123461400000053 ], [ 119.85154870000008, 34.129932600000075 ], [ 119.854252300000098, 34.138164900000049 ], [ 119.858378700000117, 34.146274500000061 ], [ 119.859859300000039, 34.147788 ], [ 119.869308300000057, 34.155228200000067 ], [ 119.87048470000002, 34.156154400000048 ], [ 119.883122800000024, 34.165064200000074 ], [ 119.893611700000065, 34.171113800000057 ] ] } }
]
}
