{
  "type" : "FeatureCollection",
  "features" : [{"type":"Feature","id":0,"geometry":{"type":"LineString","coordinates":[[119.01233910000008,33.588959300000056],[119.01356970000006,33.589579400000048],[119.01482280000005,33.590210900000045],[119.02013850000003,33.592367300000035],[119.02032040000006,33.59244110000003],[119.02236280000011,33.59309410000003],[119.02627200000006,33.594190100000048],[119.02826260000006,33.594652000000053],[119.02901090000012,33.594825700000058],[119.03036280000003,33.59490530000005],[119.03079670000011,33.59474350000005],[119.03420810000011,33.593292800000029],[119.03781300000003,33.591005000000052],[119.03884560000006,33.590395200000046],[119.0406435000001,33.589333300000078],[119.04363150000006,33.587985400000036],[119.04399090000004,33.587795400000061],[119.05171760000007,33.583711900000026],[119.06493960000012,33.576928500000065],[119.06964760000005,33.573872400000027],[119.07874570000001,33.566864000000066],[119.0887494000001,33.559263300000055],[119.0904187000001,33.557995300000073],[119.09608350000008,33.552988400000061],[119.09700380000004,33.551068300000054],[119.09678460000009,33.548618600000054],[119.09680750000007,33.546907900000065],[119.09767810000005,33.545355100000052],[119.10057030000007,33.542891100000077],[119.10397990000001,33.539826100000028],[119.10599180000008,33.536771100000067],[119.10813880000001,33.533326800000054],[119.10862660000009,33.532720200000028],[119.10981640000011,33.531240800000035],[119.11204800000007,33.529380600000025],[119.11616790000005,33.527663400000051],[119.12270360000002,33.525498500000026],[119.12468190000004,33.525205800000037],[119.12879920000012,33.525090800000044],[119.12999520000005,33.524343400000078],[119.13053910000008,33.521216800000047],[119.13150910000002,33.518433300000027],[119.13288950000003,33.517146100000048],[119.13302280000005,33.51645620000005],[119.13147700000002,33.514837400000033],[119.13048690000005,33.512309600000037],[119.13068060000001,33.508838900000057],[119.13040600000011,33.506947000000025],[119.13021230000004,33.506466800000055],[119.12950190000004,33.504706000000056],[119.12919120000004,33.502428500000065],[119.12981260000004,33.500468500000068],[119.12969270000008,33.497891800000048],[119.12937800000009,33.495594500000038],[119.12918660000003,33.494502100000034],[119.12879980000002,33.492165700000044],[119.1281795000001,33.489530400000035],[119.12823030000004,33.487342100000035],[119.12934750000011,33.483645400000057],[119.13023040000007,33.479173700000047]]},"properties":{"FID":0,"osm_id":"121193158","code":8101,"fclass":"river","width":180,"name":"邗沟","Shape_Leng":0.193568412893}}]
}