{
  "type" : "FeatureCollection",
  "features" : [{"type":"Feature","id":0,"geometry":{"type":"Polygon","coordinates":[[[115.9457159000001,38.963546700000052],[115.94803330000002,38.957940500000063],[115.94833370000003,38.956505500000048],[115.94953530000009,38.953335100000061],[115.95005030000004,38.952767800000061],[115.95219610000004,38.951666400000079],[115.95288270000003,38.951065700000072],[115.96185200000002,38.94248790000006],[115.96489900000006,38.943622800000071],[115.96691600000008,38.942220900000052],[115.97137920000011,38.942254300000059],[115.97309590000009,38.941586700000073],[115.97386830000005,38.941119400000048],[115.97605700000008,38.939016400000071],[115.97614280000005,38.938215300000024],[115.97644320000006,38.937514300000032],[115.97790240000006,38.937380800000028],[115.98052020000011,38.937414200000035],[115.98202220000007,38.93681330000004],[115.98451130000001,38.938015000000064],[115.98471150000012,38.938071600000058],[115.98489760000007,38.938124300000027],[115.98545550000006,38.938282100000038],[115.98940370000003,38.93884950000006],[115.9902191000001,38.939150000000041],[115.99914550000005,38.940885700000024],[115.99760050000009,38.944056700000033],[115.99627010000006,38.949930900000027],[115.99627010000006,38.95066520000006],[115.99480930000004,38.953966000000037],[115.99399560000006,38.955804700000044],[115.99101300000007,38.965014800000063],[115.98697890000005,38.966449700000055],[115.98474730000009,38.967667600000027],[115.98232270000005,38.967934500000069],[115.97991930000001,38.968718600000045],[115.97663630000011,38.970186700000056],[115.97571370000003,38.971204400000033],[115.97491980000007,38.971454600000072],[115.97393270000009,38.971487900000056],[115.97150800000009,38.97150460000006],[115.97049950000007,38.971387800000059],[115.96977000000004,38.972388800000033],[115.96964120000007,38.97330640000007],[115.97223750000001,38.976709400000061],[115.97273110000003,38.98516630000006],[115.9733533000001,38.986183700000026],[115.97159380000005,38.986333800000068],[115.96644400000002,38.987468000000035],[115.96378320000008,38.987901600000043],[115.96279620000007,38.987801500000046],[115.96202370000003,38.987301200000047],[115.96206660000007,38.985900100000038],[115.96258160000002,38.985266300000035],[115.96313950000001,38.984065400000077],[115.96305370000005,38.983398200000067],[115.96262450000006,38.982697700000074],[115.96129410000003,38.981530100000043],[115.95897670000011,38.98042920000006],[115.95824710000011,38.979194800000073],[115.95764630000008,38.978627700000061],[115.95687390000001,38.978360800000075],[115.95571510000002,38.977293200000076],[115.95451350000008,38.974757600000032],[115.95060820000003,38.969486000000074],[115.94653130000006,38.964814700000034],[115.9457159000001,38.963546700000052]]]},"properties":{"FID":0,"osm_id":"495266463","code":8200,"fclass":"water","name":"白洋淀","Shape_Leng":0.17480491125600001,"Shape_Area":0.0014902697957299999}},{"type":"Feature","id":1,"geometry":{"type":"Polygon","coordinates":[[[116.01337190000004,38.828283100000078],[116.01348860000007,38.828276800000026],[116.01352350000002,38.828313300000048],[116.0135289000001,38.828340500000024],[116.01355170000011,38.82836350000008],[116.0136040000001,38.828373900000031],[116.01369920000002,38.828377100000068],[116.01377560000003,38.828355100000067],[116.01379840000004,38.828289300000051],[116.01384000000007,38.82825900000006],[116.01387890000001,38.828261100000077],[116.0139392000001,38.828294500000027],[116.01410020000003,38.828311300000053],[116.01464870000007,38.828266300000053],[116.01485790000004,38.828153500000042],[116.01483110000004,38.827825400000052],[116.01486860000011,38.827656200000035],[116.01487670000006,38.827524600000061],[116.01484720000008,38.827359500000057],[116.01479890000007,38.827234100000055],[116.01476130000003,38.827050200000031],[116.01476400000001,38.82698750000003],[116.01498660000004,38.826885200000049],[116.01530050000008,38.826780700000029],[116.01535950000005,38.826782800000046],[116.01544260000003,38.826858000000072],[116.01548280000009,38.826887200000044],[116.01565720000008,38.826881000000071],[116.01590130000011,38.826803700000028],[116.01606760000004,38.826734700000031],[116.01623390000009,38.826707500000055],[116.01631430000009,38.826749300000074],[116.01634110000009,38.82684340000003],[116.01667640000005,38.827096200000028],[116.0169446000001,38.827179800000067],[116.01704120000011,38.827255000000036],[116.01715920000004,38.82727170000004],[116.01809260000005,38.827125400000057],[116.01835010000002,38.827079500000025],[116.01863440000011,38.827670800000078],[116.01866390000009,38.827794100000062],[116.01887580000005,38.827727200000027],[116.01904480000007,38.827637400000071],[116.01911990000008,38.82755590000005],[116.01913330000002,38.827445100000034],[116.0191655000001,38.826966600000048],[116.01948200000004,38.826795300000072],[116.01981460000002,38.826711700000033],[116.01992730000006,38.826699200000064],[116.02031350000004,38.826711700000033],[116.02083920000007,38.826519500000074],[116.02112350000004,38.826364900000044],[116.02126300000009,38.826114100000041],[116.02148290000002,38.826022200000068],[116.02157410000007,38.826080700000034],[116.02160100000003,38.826281300000062],[116.02162780000003,38.826536200000078],[116.02171360000011,38.826720100000045],[116.02185310000004,38.826874700000076],[116.02271680000001,38.827025200000037],[116.02311370000007,38.827021000000059],[116.02339270000004,38.826866300000063],[116.02343020000001,38.826661600000079],[116.02328540000008,38.825942800000064],[116.02306540000006,38.825650200000041],[116.02294740000002,38.825549900000055],[116.02271140000005,38.825512300000071],[116.02260410000008,38.825499800000046],[116.02260410000008,38.825403600000072],[116.02281330000005,38.82534510000005],[116.02295820000006,38.825236500000074],[116.02297420000002,38.825136200000031],[116.0229528000001,38.824969000000067],[116.02297420000002,38.82488120000005],[116.02312450000011,38.824885400000028],[116.02326390000007,38.824969000000067],[116.02337660000001,38.82507350000003],[116.02348920000009,38.825228100000061],[116.02358580000009,38.825320100000056],[116.02367160000006,38.825353500000062],[116.02396130000011,38.825236500000074],[116.02422950000005,38.824960600000054],[116.02488930000004,38.823589800000036],[116.02531850000003,38.822877300000073],[116.02539360000003,38.82272370000004],[116.0254513000001,38.822627500000067],[116.02547000000004,38.822563800000069],[116.02547410000011,38.822498000000053],[116.0254754,38.822442600000045],[116.02560420000009,38.822327700000073],[116.02570470000001,38.822347500000035],[116.0258080000001,38.822348600000055],[116.02599580000003,38.822313000000065],[116.02617010000006,38.822278600000061],[116.02622780000002,38.822254500000042],[116.02658450000001,38.821867900000029],[116.02794710000001,38.82168820000004],[116.03080090000003,38.821412400000042],[116.03208300000006,38.821245200000078],[116.03317200000004,38.821165800000074],[116.03382110000007,38.821040400000072],[116.03493690000005,38.820793800000047],[116.0383326000001,38.819527400000027],[116.03961470000002,38.818829400000027],[116.03977020000002,38.818867100000034],[116.0398775000001,38.818879600000059],[116.04008790000012,38.818940700000041],[116.04015110000012,38.818959000000063],[116.04041930000005,38.819101100000069],[116.04153510000003,38.819886900000029],[116.04172290000008,38.820058200000062],[116.04175510000005,38.820212900000058],[116.04169070000012,38.82033830000006],[116.0417443,38.820551400000056],[116.04177650000008,38.820660100000055],[116.04138490000003,38.820710200000065],[116.04112210000005,38.820747900000072],[116.04110600000001,38.820808500000055],[116.04115430000002,38.820890000000077],[116.04118910000011,38.820984000000067],[116.04121330000009,38.821111500000029],[116.04122670000004,38.821266100000059],[116.04125080000006,38.821335100000056],[116.04131250000012,38.821427000000028],[116.04143860000011,38.821491800000047],[116.04158610000002,38.821544000000074],[116.04168800000002,38.82161300000007],[116.0417417000001,38.82170700000006],[116.04176310000003,38.82183450000008],[116.04175240000006,38.822064400000045],[116.0417470000001,38.822323500000039],[116.04173090000006,38.822530400000062],[116.04177120000008,38.822622300000035],[116.04183550000005,38.822756100000049],[116.04189190000011,38.822854300000074],[116.04195890000005,38.822877300000073],[116.04214130000003,38.82286890000006],[116.04245780000008,38.822917000000075],[116.04304790000003,38.822975500000041],[116.04333220000001,38.822958800000038],[116.04349850000006,38.823209500000075],[116.04329470000005,38.82395340000005],[116.04316060000008,38.824484200000029],[116.04287090000003,38.825412000000028],[116.04268850000005,38.82600130000003],[116.04261340000005,38.826344000000063],[116.04247930000008,38.827121300000044],[116.04222180000011,38.828103400000032],[116.04206080000006,38.82864660000007],[116.04209300000002,38.828792900000053],[116.04216810000003,38.829022700000053],[116.0421467000001,38.829135600000029],[116.04205550000006,38.829265100000043],[116.04198570000005,38.829457400000081],[116.04192140000009,38.829657900000029],[116.04188920000001,38.829896100000042],[116.04195890000005,38.830121800000029],[116.04248460000008,38.831124700000032],[116.04271530000005,38.831626200000073],[116.0428065000001,38.83174740000004],[116.04320880000012,38.831939600000055],[116.04354680000006,38.832048300000054],[116.0436863000001,38.832106800000076],[116.04383110000003,38.832349100000044],[116.04404570000008,38.832875700000045],[116.04428170000006,38.833193200000039],[116.04458210000007,38.833481600000027],[116.04467330000011,38.833636200000058],[116.04474840000012,38.833845100000076],[116.04481280000005,38.834283900000059],[116.04488790000005,38.834655800000064],[116.04487720000009,38.834839700000032],[116.04483430000005,38.835031900000047],[116.04477520000012,38.835240800000065],[116.04479130000004,38.835374500000057],[116.04501660000005,38.835646100000076],[116.04512390000002,38.835692100000074],[116.04533850000007,38.835775700000056],[116.04548870000008,38.835909400000048],[116.04555840000012,38.836001300000078],[116.04564430000005,38.836064000000079],[116.0458374000001,38.83609320000005],[116.04594470000006,38.836130800000035],[116.04610560000003,38.836201900000049],[116.04628260000004,38.836247800000081],[116.04647580000005,38.836239500000033],[116.04666350000002,38.836227000000065],[116.04689960000007,38.836235300000055],[116.04711410000004,38.836239500000033],[116.04728040000009,38.836193500000036],[116.0473770000001,38.83609320000005],[116.04746550000004,38.836034700000027],[116.04753660000006,38.836052500000051],[116.0476063000001,38.83607440000003],[116.04772030000004,38.836101600000063],[116.04804220000005,38.836260400000072],[116.0482836000001,38.836477700000046],[116.04839890000005,38.836613500000055],[116.04849010000009,38.836763900000051],[116.04854910000006,38.836883000000057],[116.04867790000003,38.836977000000047],[116.04894610000008,38.837135800000055],[116.04916600000001,38.837296700000024],[116.04927870000006,38.837461700000063],[116.04938330000004,38.837639300000035],[116.04943420000006,38.837821100000042],[116.04948520000005,38.837984000000063],[116.04953350000005,38.83807180000008],[116.04957640000009,38.838130300000046],[116.04979100000003,38.838142800000071],[116.04997340000011,38.83817410000006],[116.05018530000007,38.838247300000035],[116.05059030000007,38.83845830000007],[116.05071900000007,38.838573200000042],[116.05094700000006,38.838725700000055],[116.05108920000009,38.838777900000025],[116.05129840000006,38.838811400000054],[116.05160680000006,38.838811400000054],[116.05197700000008,38.83883220000007],[116.05224250000003,38.838899100000049],[116.05247850000001,38.839020300000072],[116.05296940000005,38.839291900000035],[116.05349780000006,38.839519600000074],[116.05372850000003,38.839697200000046],[116.05452240000011,38.840576700000042],[116.05471550000004,38.840835800000036],[116.05493010000009,38.84119510000005],[116.05512320000003,38.841391500000043],[116.05527340000003,38.841527300000052],[116.05545580000012,38.841587900000036],[116.05568110000002,38.841656800000067],[116.05583130000002,38.84171740000005],[116.05594930000007,38.841821800000048],[116.05599220000011,38.841936700000076],[116.05584470000008,38.842114300000048],[116.05571870000006,38.842360800000051],[116.05568650000009,38.842511200000047],[116.05571060000011,38.842674200000033],[116.05587960000003,38.842995900000062],[116.05688270000007,38.844197100000031],[116.05716440000003,38.844082200000059],[116.05737360000001,38.844316200000037],[116.05716440000003,38.844403900000032],[116.05721530000005,38.844577300000026],[116.05731990000004,38.844734000000074],[116.05734410000002,38.844851000000062],[116.05733870000006,38.844986800000072],[116.05734940000002,38.845089100000052],[116.05740580000008,38.845241600000065],[116.05752110000003,38.845371200000045],[116.05767670000012,38.845473500000026],[116.0578349000001,38.845517400000062],[116.05804150000006,38.845534100000066],[116.05830970000011,38.845598900000027],[116.05846520000011,38.84570750000006],[116.05864230000009,38.846058400000061],[116.05873350000002,38.846392700000024],[116.05874960000006,38.846676800000068],[116.05882470000006,38.847073700000067],[116.0589212000001,38.847261700000047],[116.05905000000007,38.847541600000056],[116.05919480000011,38.847909300000026],[116.05932890000008,38.84813070000007],[116.05950060000009,38.848343800000066],[116.05966150000006,38.848485800000049],[116.05989220000004,38.848665500000038],[116.06007460000001,38.848765700000058],[116.06032130000006,38.848866000000044],[116.06053050000003,38.84899130000008],[116.06076660000008,38.849166800000035],[116.06109920000006,38.849580400000036],[116.06123330000003,38.849843600000042],[116.06136740000011,38.850131900000065],[116.06163560000005,38.85080030000006],[116.06172140000001,38.851051000000041],[116.06205940000007,38.85171100000008],[116.06214520000003,38.852062000000046],[116.06230620000008,38.853118900000027],[116.06239200000005,38.853532500000028],[116.06252070000005,38.854079700000057],[116.06259050000006,38.854288600000075],[116.06279970000003,38.854543400000068],[116.06296600000007,38.85475230000003],[116.06305720000012,38.854923600000063],[116.06306250000011,38.855065600000046],[116.06304110000008,38.855224400000054],[116.06307860000004,38.85561290000004],[116.06321810000009,38.85587600000008],[116.06326640000009,38.856072400000073],[116.06330390000005,38.856231100000059],[116.06341120000002,38.856444200000055],[116.06352390000006,38.856602900000041],[116.06365800000003,38.856728200000077],[116.06386180000004,38.856970500000045],[116.06404420000001,38.857187700000054],[116.06429100000003,38.85740080000005],[116.06451090000007,38.85757620000004],[116.06474700000001,38.857743300000038],[116.06497760000002,38.857956400000035],[116.06507690000001,38.858069200000045],[116.06520290000003,38.85801900000007],[116.06556500000011,38.858271800000068],[116.06602910000004,38.858748000000048],[116.06662720000008,38.859397500000057],[116.06698390000008,38.859710800000073],[116.06737020000003,38.860061700000074],[116.06752840000001,38.860187000000053],[116.06760620000011,38.860304000000042],[116.06760620000011,38.860379200000068],[116.06757670000002,38.860496100000034],[116.06757400000004,38.860585900000046],[116.06765180000002,38.860847000000035],[116.06777250000005,38.860964000000024],[116.06795220000004,38.861099700000068],[116.0680675000001,38.861193700000058],[116.06815070000005,38.86128350000007],[116.06821510000009,38.861373300000025],[116.06821240000011,38.861928900000066],[116.06822040000009,38.862359100000049],[116.06806490000008,38.862428000000079],[116.06796560000009,38.862511600000062],[116.06787710000003,38.862628500000028],[116.06785570000011,38.862732900000026],[116.06786370000009,38.862766400000055],[116.06776980000006,38.862852000000032],[116.06767060000004,38.86292300000008],[116.06762230000004,38.863019100000031],[116.06752310000002,38.863079600000049],[116.06741580000005,38.863152700000057],[116.06721730000004,38.863489000000072],[116.06711800000005,38.863750000000039],[116.06708850000007,38.863885800000048],[116.06711800000005,38.863963100000035],[116.06717710000009,38.864006900000049],[116.06740240000011,38.864038200000039],[116.06749890000003,38.864052900000047],[116.06787980000001,38.864071700000068],[116.06801660000008,38.864121800000078],[116.06800050000004,38.864240800000061],[116.06791730000009,38.864393300000074],[116.06776980000006,38.864637600000037],[116.06772150000006,38.864815200000066],[116.06768940000006,38.865015600000049],[116.06757940000011,38.865155600000037],[116.06732190000002,38.865358100000037],[116.06636700000001,38.865951300000063],[116.06630270000005,38.866110000000049],[116.06631870000001,38.866402400000027],[116.0666192000001,38.867663700000037],[116.0666513000001,38.867757700000027],[116.06671840000001,38.867883000000063],[116.06723870000008,38.868309000000067],[116.06698390000008,38.86854500000004],[116.06686860000002,38.868618100000049],[116.06679080000004,38.868687000000079],[116.06674790000011,38.868820700000072],[116.06687660000011,38.869054600000027],[116.06703760000005,38.869367800000077],[116.06720920000009,38.869501500000069],[116.06754180000007,38.86979800000006],[116.06781540000009,38.870011000000034],[116.06810510000003,38.870353500000078],[116.06862540000009,38.87105930000007],[116.06872200000009,38.871314100000063],[116.06867910000005,38.87159390000005],[116.06858250000005,38.871848700000044],[116.06848600000001,38.872074200000043],[116.06837330000008,38.872466800000041],[116.06830890000003,38.872842700000035],[116.06838400000004,38.873151700000051],[116.0685959000001,38.873617400000057],[116.06869790000007,38.873749000000032],[116.06895000000009,38.873947300000054],[116.06912970000008,38.874114400000053],[116.06921290000003,38.87430020000005],[116.06921820000002,38.874699100000043],[116.06920480000008,38.874947600000041],[116.06918330000008,38.875252400000079],[116.06919940000012,38.875455000000045],[116.06924770000001,38.875761900000043],[116.06927450000001,38.87615240000008],[116.06926650000003,38.876457300000027],[116.06931750000001,38.876810200000079],[116.06941400000005,38.87701270000008],[116.06956420000006,38.877338500000064],[116.06971170000008,38.877714300000036],[116.06969560000005,38.877845900000068],[116.06966880000004,38.877960700000074],[116.06956690000004,38.878117300000042],[116.06950790000008,38.878240500000061],[116.06948910000006,38.878409600000055],[116.06951590000006,38.878714500000058],[116.06910820000007,38.87874370000003],[116.06888290000006,38.878714500000058],[116.06830890000003,38.878756200000055],[116.06673180000007,38.878823100000034],[116.06615780000004,38.878869000000066],[116.06558920000009,38.878910800000028],[116.06518690000007,38.878898200000037],[116.06483280000009,38.878839800000037],[116.06433930000003,38.878735400000039],[116.06401740000001,38.878631000000041],[116.06374380000011,38.878593400000057],[116.06348100000002,38.878643500000067],[116.06318590000001,38.87880640000003],[116.06290700000011,38.879019300000039],[116.06255290000001,38.879441100000065],[116.06229010000004,38.879645700000026],[116.06207550000011,38.879837800000075],[116.06193070000006,38.880075900000065],[116.06190920000006,38.880313900000033],[116.0619253000001,38.880522700000029],[116.06201650000003,38.880777400000056],[116.06215600000007,38.881178300000045],[116.06237590000001,38.881575000000055],[116.06310550000001,38.882343400000025],[116.06350240000006,38.882472900000039],[116.06389940000008,38.882514600000036],[116.06407370000011,38.882773500000042],[116.06388870000001,38.882806900000048],[116.06359900000007,38.882832000000064],[116.06330390000005,38.88282780000003],[116.06317520000005,38.882811100000026],[116.06287750000001,38.882880000000057],[116.06276750000006,38.882942600000035],[116.06272190000004,38.883042800000055],[116.06264410000006,38.883078300000079],[116.0624590000001,38.883076300000027],[116.06240810000008,38.883095000000026],[116.0623035000001,38.883184800000038],[116.06220960000007,38.883326800000077],[116.06203530000005,38.88380490000003],[116.06199770000001,38.884030400000029],[116.06194670000002,38.884228800000074],[116.06179650000001,38.884318600000029],[116.06159000000002,38.884383300000025],[116.06148000000007,38.884531500000037],[116.06148540000004,38.884646300000043],[116.06146930000011,38.884727800000064],[116.06147470000008,38.884798800000056],[116.06155250000006,38.885051400000066],[116.06176970000001,38.885594200000071],[116.06176970000001,38.88571950000005],[116.06167850000008,38.885821800000031],[116.06145860000004,38.885928300000046],[116.06039640000006,38.886456500000065],[116.06013360000009,38.886623500000042],[116.05982240000003,38.886865700000044],[116.05973660000006,38.887158000000056],[116.05971510000006,38.887254000000041],[116.05943080000009,38.887329200000067],[116.05918410000004,38.887270700000045],[116.05890510000006,38.887187200000028],[116.05870130000005,38.88713290000004],[116.05826140000011,38.887103700000068],[116.05792340000005,38.887107900000046],[116.05759620000003,38.887170500000025],[116.05734940000002,38.887329200000067],[116.05710800000008,38.88747950000004],[116.05694710000012,38.88762150000008],[116.05671110000003,38.887780200000066],[116.05649650000009,38.887888700000076],[116.05623360000004,38.888105900000028],[116.05587960000003,38.888431500000024],[116.05495690000009,38.889333400000055],[116.05494080000005,38.889475400000038],[116.0549784000001,38.889700900000037],[116.05530020000003,38.890577700000051],[116.05569720000005,38.891721800000028],[116.05516340000008,38.891849100000059],[116.05433730000004,38.892003600000066],[116.05352190000008,38.892099600000051],[116.0531840000001,38.892153900000039],[116.05280310000001,38.892245800000069],[116.05276820000006,38.89181990000003],[116.05282190000003,38.89144200000004],[116.05281920000004,38.891103800000053],[116.05271460000006,38.890414900000053],[116.05276820000006,38.888832400000069],[116.05278580000004,38.888406800000041],[116.05274680000002,38.888071400000058],[116.0528111000001,38.887711300000035],[116.05284870000003,38.887544200000036],[116.05300960000011,38.886817700000051],[116.05318800000009,38.885955400000057],[116.0531840000001,38.885796700000071],[116.05321480000009,38.885703800000044],[116.05320270000004,38.885633900000073],[116.05315580000001,38.885624500000063],[116.05307800000003,38.885621400000048],[116.05303110000011,38.885632900000076],[116.05299490000004,38.885668300000077],[116.05280850000008,38.885720500000048],[116.04535460000011,38.887416900000062],[116.0443246000001,38.887500400000079],[116.04413690000001,38.88747950000004],[116.04402020000009,38.887499400000024],[116.0440162000001,38.88753070000007],[116.04412350000007,38.887534800000026],[116.04441720000011,38.887545300000056],[116.0450287000001,38.887574500000028],[116.04509580000001,38.887602700000059],[116.04513470000006,38.887657000000047],[116.04515480000009,38.887791600000071],[116.04508910000004,38.887833400000034],[116.04487720000009,38.887826100000041],[116.04447220000009,38.887811500000055],[116.04404970000007,38.887792700000034],[116.04374130000008,38.887805200000059],[116.04362590000005,38.887802100000044],[116.04350790000001,38.887588100000073],[116.04310960000009,38.887627800000075],[116.0429567000001,38.887251900000081],[116.04312030000006,38.886949200000061],[116.04333220000001,38.886619300000064],[116.04355210000006,38.886214300000063],[116.04368360000001,38.885990900000024],[116.04375870000001,38.885742500000049],[116.04371580000009,38.88562550000006],[116.04354140000009,38.885435600000051],[116.04340200000001,38.88512030000004],[116.0427797000001,38.884711100000061],[116.04244710000012,38.884719400000051],[116.04196430000002,38.884911500000044],[116.04132060000006,38.884861400000034],[116.04091290000008,38.884644300000048],[116.04049440000006,38.884293500000069],[116.04014040000004,38.883825800000068],[116.03958250000005,38.88322450000004],[116.0390890000001,38.882664900000066],[116.03841300000011,38.881821400000035],[116.03829500000006,38.88143720000005],[116.0383379000001,38.881086500000038],[116.03761910000003,38.879975700000045],[116.03746890000002,38.879457800000068],[116.03754400000003,38.87905690000008],[116.03745820000006,38.878514000000052],[116.03743140000006,38.878388700000073],[116.03731870000001,38.87822170000004],[116.03708270000004,38.877967000000069],[116.03690560000007,38.877812400000039],[116.03663210000002,38.877641200000028],[116.03640680000001,38.877578600000049],[116.03609560000007,38.877582800000027],[116.03604730000006,38.877495100000033],[116.03625120000004,38.877399000000025],[116.03634770000008,38.877315500000066],[116.03647650000005,38.877181800000074],[116.03651400000001,38.877039900000057],[116.03648720000001,38.87686860000008],[116.03641750000008,38.876705800000025],[116.03627800000004,38.876517800000045],[116.03607950000003,38.87632990000003],[116.03586490000009,38.876116900000056],[116.03573080000001,38.875824600000044],[116.03563960000008,38.875528100000054],[116.03559670000004,38.875227400000028],[116.03563430000008,38.87487660000005],[116.03568260000009,38.874655200000063],[116.03570940000009,38.874379600000054],[116.03570400000001,38.874074700000051],[116.03560750000008,38.873790700000029],[116.0352802000001,38.873360600000069],[116.0351568000001,38.87319350000007],[116.03497980000009,38.872917900000061],[116.03486180000004,38.872596300000055],[116.0348189,38.872191200000032],[116.03479740000012,38.871848700000044],[116.03480280000008,38.871639900000048],[116.03469550000011,38.871451900000068],[116.03456140000003,38.87130570000005],[116.03447560000006,38.871130300000061],[116.03447560000006,38.870971600000075],[116.0344702000001,38.870716900000048],[116.03428240000005,38.870023500000059],[116.03415370000005,38.869831400000066],[116.03402490000008,38.869710300000065],[116.03386940000007,38.869597500000054],[116.03371920000006,38.869514000000038],[116.03353680000009,38.86945970000005],[116.03329540000004,38.86940960000004],[116.03305400000011,38.869296800000029],[116.0329091000001,38.86917150000005],[116.03266240000005,38.86892510000007],[116.03246390000004,38.868703700000026],[116.03218500000003,38.868361200000038],[116.03192750000005,38.868181600000071],[116.03172360000008,38.868052200000079],[116.03150900000003,38.867876700000068],[116.03142320000006,38.867738900000063],[116.03128910000009,38.867480000000057],[116.03112820000001,38.867221000000029],[116.03055950000009,38.86656940000006],[116.03018400000008,38.866114200000027],[116.0298514000001,38.865700600000025],[116.02940080000008,38.86517850000007],[116.02924260000009,38.864886200000058],[116.02907090000008,38.864650200000028],[116.02887510000005,38.864439200000049],[116.02862570000002,38.863977700000078],[116.02853720000007,38.863779300000033],[116.02843790000009,38.863309400000048],[116.0283869000001,38.863207000000045],[116.02825550000011,38.863188200000025],[116.02821260000007,38.86309220000004],[116.0282314000001,38.862958500000047],[116.02826620000008,38.862808100000052],[116.02825020000012,38.862578400000075],[116.02819110000007,38.862283900000079],[116.02812410000001,38.862125200000037],[116.02804630000003,38.861974800000041],[116.02801680000005,38.861807700000043],[116.02796320000004,38.861498600000061],[116.0279068000001,38.861369100000047],[116.02781830000004,38.861248000000046],[116.02775130000009,38.86114770000006],[116.02775130000009,38.861057900000048],[116.02781030000006,38.860947200000055],[116.02767620000009,38.860721700000056],[116.0276037000001,38.860673600000041],[116.0274965000001,38.860673600000041],[116.02726580000001,38.860727900000029],[116.02711290000002,38.860740500000077],[116.02701100000002,38.860723800000073],[116.02679910000006,38.860673600000041],[116.02668640000002,38.86064650000003],[116.02650400000005,38.860644400000069],[116.02630820000002,38.860661100000073],[116.02617410000005,38.860625600000049],[116.02616880000005,38.860525400000029],[116.02626800000007,38.860337400000049],[116.02635650000002,38.860299800000064],[116.0264075,38.860366600000077],[116.02646920000007,38.860370800000055],[116.02656300000001,38.860356200000069],[116.02671590000011,38.860304000000042],[116.02678300000002,38.860276800000065],[116.02679640000008,38.860230900000033],[116.02678030000004,38.860143100000073],[116.02672670000004,38.859880000000032],[116.02671320000002,38.859773500000074],[116.02664080000011,38.859618900000044],[116.02658180000003,38.859462300000075],[116.02660060000005,38.859236700000054],[116.02659790000007,38.859100900000044],[116.02658450000001,38.858952600000066],[116.02655230000005,38.858883700000035],[116.0264853000001,38.858833600000025],[116.02627070000005,38.858839900000078],[116.02608290000001,38.858862800000054],[116.02582280000001,38.858900400000039],[116.0257074000001,38.858896300000026],[116.0257289000001,38.858841900000073],[116.02569400000004,38.858808500000066],[116.02552770000011,38.858885800000053],[116.02550890000009,38.858800200000076],[116.02562430000012,38.858762600000034],[116.02574770000001,38.858748000000048],[116.02594610000006,38.858745900000031],[116.02610440000001,38.858731300000045],[116.02624650000007,38.858722900000032],[116.02635650000002,38.858685300000047],[116.02640480000002,38.858620600000052],[116.02640210000004,38.858541200000047],[116.02628140000002,38.858497300000067],[116.02607490000003,38.858520300000066],[116.0260320000001,38.858482700000025],[116.02604540000004,38.858415900000068],[116.02609900000004,38.858334400000047],[116.02616610000007,38.858261300000038],[116.02624920000005,38.858161100000075],[116.02621970000007,38.858092100000079],[116.02609100000006,38.858046200000047],[116.02588180000009,38.857991900000059],[116.02585230000011,38.857966800000042],[116.02580260000002,38.857748500000071],[116.02575970000009,38.857733900000028],[116.02564040000004,38.857747500000073],[116.02544050000006,38.857778800000062],[116.02523800000006,38.857792400000051],[116.02517630000011,38.85778300000004],[116.0252018000001,38.857720400000062],[116.02531450000004,38.857697400000063],[116.0257021000001,38.857660800000076],[116.02583350000009,38.857635800000025],[116.02588980000007,38.857603400000073],[116.02590050000003,38.857570000000067],[116.02588040000001,38.857499000000075],[116.02585090000002,38.85738200000003],[116.02585490000001,38.857283800000062],[116.02577450000001,38.857252500000072],[116.0257342000001,38.857221200000026],[116.0257074000001,38.857173100000068],[116.02567790000001,38.857129300000054],[116.02562160000002,38.857089600000052],[116.02552500000002,38.857054100000028],[116.02536950000001,38.85701860000006],[116.0252488000001,38.856968400000028],[116.02516560000004,38.856872400000043],[116.02513880000004,38.856763700000045],[116.02511730000003,38.856703200000027],[116.02498860000003,38.856615400000067],[116.02480350000008,38.856594600000051],[116.02458360000003,38.856602900000041],[116.02428320000001,38.856619600000045],[116.02407130000006,38.856655100000069],[116.02383260000011,38.856730300000038],[116.02362600000004,38.856803400000047],[116.02355360000001,38.856784600000026],[116.02345170000001,38.856834800000058],[116.02344100000005,38.856920400000035],[116.02348120000011,38.857045700000072],[116.02352140000005,38.857179400000064],[116.02348390000009,38.857283800000062],[116.02342490000001,38.857229500000074],[116.02342750000003,38.857123000000058],[116.02335510000012,38.856978900000058],[116.02326930000004,38.856857700000035],[116.02309760000003,38.856838900000071],[116.02292330000012,38.856893200000059],[116.02284280000003,38.856951700000025],[116.02270070000009,38.856918300000075],[116.02263900000003,38.856882800000051],[116.02249950000009,38.856884900000068],[116.02235470000005,38.856928700000026],[116.02211590000002,38.85700810000003],[116.0214132000001,38.857171000000051],[116.02120670000011,38.857210700000053],[116.02096260000008,38.857267100000058],[116.02068630000008,38.857344400000045],[116.02038590000006,38.85740080000005],[116.02034970000011,38.857339200000069],[116.02034570000001,38.857280700000047],[116.02032290000011,38.857258800000068],[116.02031480000005,38.857217000000048],[116.02035240000009,38.85719400000005],[116.02038730000004,38.857201300000042],[116.02043020000008,38.857224300000041],[116.02053080000007,38.857219100000066],[116.02060720000009,38.857182500000079],[116.0209827000001,38.857011200000045],[116.02115970000011,38.856971600000065],[116.0214347000001,38.856940200000054],[116.02177800000004,38.856893200000059],[116.02210520000006,38.856851500000062],[116.02246460000003,38.856755400000054],[116.02325860000008,38.856602900000041],[116.02366630000006,38.856548600000053],[116.02428850000001,38.856410800000049],[116.02436360000002,38.856327200000067],[116.02434220000009,38.856214400000056],[116.02436360000002,38.856160100000068],[116.02442800000006,38.855947100000037],[116.02447630000006,38.855550200000039],[116.02450310000006,38.855337200000065],[116.02432610000005,38.855082300000049],[116.02406860000008,38.854927800000041],[116.02383260000011,38.854693800000064],[116.02366630000006,38.85438890000006],[116.02345700000001,38.854029600000047],[116.02320490000011,38.853561700000057],[116.02310300000011,38.853281800000047],[116.02296620000004,38.852972700000066],[116.02283750000004,38.852797200000055],[116.02239760000009,38.852298000000076],[116.02240030000007,38.852216500000054],[116.02253170000006,38.852139300000033],[116.02265510000007,38.852124600000025],[116.02278920000003,38.852066100000059],[116.02300910000008,38.851834300000064],[116.02306010000007,38.851690200000064],[116.02318350000007,38.851439500000026],[116.02330680000011,38.85133090000005],[116.02359120000006,38.851092700000038],[116.02385940000011,38.850846300000057],[116.02425630000005,38.850591400000042],[116.02493490000006,38.850073400000042],[116.02505560000009,38.849927200000025],[116.02509590000011,38.849743300000057],[116.02507170000001,38.849501000000032],[116.02498320000007,38.849235700000065],[116.02468550000003,38.848483700000031],[116.02458890000003,38.848159900000041],[116.02452460000006,38.848059700000078],[116.02443610000012,38.848026300000072],[116.02431000000001,38.848057600000061],[116.02409540000008,38.848199600000044],[116.02399080000009,38.848279000000048],[116.02379770000005,38.848448200000064],[116.02367430000004,38.84855680000004],[116.02358040000001,38.848652900000047],[116.02343560000008,38.84879710000007],[116.0232827000001,38.848840900000027],[116.02315130000011,38.848884800000064],[116.0230815000001,38.848999700000036],[116.02314320000005,38.849122900000054],[116.02306810000005,38.849208600000054],[116.02284550000002,38.849185600000055],[116.02271940000003,38.849139600000058],[116.02263360000006,38.849133400000028],[116.02252360000011,38.849166800000035],[116.02225810000004,38.849300500000027],[116.02215890000002,38.849363200000028],[116.02203010000005,38.849511500000062],[116.02199260000009,38.849392400000056],[116.02189870000007,38.849308800000074],[116.02178330000004,38.849294200000031],[116.02156880000007,38.849338100000068],[116.02146950000008,38.84931720000003],[116.02140780000002,38.84922320000004],[116.02124150000009,38.849166800000035],[116.02104040000006,38.849175200000047],[116.02082310000003,38.849214800000027],[116.02068630000008,38.849290000000053],[116.02051730000005,38.849413300000037],[116.02041010000005,38.849402800000064],[116.02038060000007,38.849356900000032],[116.02044220000005,38.849252400000069],[116.02051200000005,38.849158400000078],[116.02045830000009,38.848903600000028],[116.02029200000004,38.848260200000027],[116.02025450000008,38.847863300000029],[116.02016870000011,38.84743300000008],[116.02009360000011,38.846413600000062],[116.02012040000011,38.846213000000034],[116.02014720000011,38.846137800000065],[116.02028670000004,38.84594560000005],[116.02042080000001,38.84584540000003],[116.02043150000009,38.845745100000045],[116.02036180000005,38.845578000000046],[116.02026520000004,38.845398300000056],[116.02030280000008,38.845264600000064],[116.02043150000009,38.845143500000063],[116.02058710000006,38.844984700000055],[116.02045300000009,38.844738200000052],[116.02046370000005,38.844579400000043],[116.02066750000006,38.844395600000041],[116.02083920000007,38.844316200000037],[116.02103770000008,38.84433290000004],[116.02112350000004,38.844366300000047],[116.02121470000009,38.844504200000074],[116.02132740000002,38.844592000000034],[116.02155800000003,38.844658800000047],[116.02164920000007,38.84466720000006],[116.02184770000008,38.844663000000025],[116.02206770000009,38.844629600000076],[116.0222447000001,38.844587800000056],[116.02253970000004,38.844596100000047],[116.02263630000004,38.844671300000073],[116.02281330000005,38.844688100000042],[116.0229528000001,38.84466720000006],[116.0230547000001,38.844617000000028],[116.02310300000011,38.844537600000081],[116.02310300000011,38.844441500000073],[116.02307080000003,38.844320400000072],[116.02294740000002,38.844032100000049],[116.02287770000009,38.843718700000068],[116.02274360000001,38.842941600000074],[116.02270600000008,38.842619900000045],[116.02272750000009,38.842139400000065],[116.02278110000009,38.841533500000025],[116.0229045000001,38.840890100000024],[116.0229045000001,38.840693700000031],[116.02279190000002,38.840564200000074],[116.02257730000008,38.840438800000072],[116.0222179000001,38.84033850000003],[116.02187450000008,38.840367800000024],[116.02182090000008,38.840179800000044],[116.02205160000005,38.840054400000042],[116.02212130000009,38.839993800000059],[116.02225810000004,38.839845500000024],[116.02249410000002,38.839644900000053],[116.02268730000003,38.839513300000078],[116.02282670000011,38.839419300000031],[116.02296080000008,38.839164400000072],[116.02298230000008,38.838984800000048],[116.02297690000012,38.838817600000027],[116.02295820000006,38.838608700000066],[116.02289650000012,38.838314100000048],[116.02278920000003,38.837913000000071],[116.02268730000003,38.837612100000058],[116.02269530000001,38.837551500000075],[116.02274360000001,38.837411600000053],[116.02286700000002,38.837275800000043],[116.02289910000002,38.837133700000038],[116.0229045000001,38.836958200000026],[116.02291520000006,38.83678690000005],[116.02291520000006,38.836609300000077],[116.02290720000008,38.83641920000008],[116.02286960000004,38.83617890000005],[116.0226712000001,38.835667000000058],[116.02233860000001,38.834843800000044],[116.0222715000001,38.834760300000028],[116.02212670000006,38.834641200000078],[116.02209400000004,38.834518500000058],[116.02194390000011,38.834418500000027],[116.02164370000003,38.83416770000008],[116.02065160000006,38.833283300000062],[116.02043520000007,38.832841700000074],[116.0203623000001,38.832468700000049],[116.02035160000003,38.83206210000003],[116.02031380000005,38.831615600000077],[116.02023570000006,38.83109550000006],[116.02011230000005,38.830752800000027],[116.02000090000001,38.830570800000032],[116.01978090000011,38.830202800000052],[116.01953850000007,38.829766600000028],[116.01945760000001,38.829648400000053],[116.01939270000003,38.829353100000048],[116.01927660000001,38.82889890000007],[116.01920170000005,38.828622600000074],[116.01914810000005,38.828551600000026],[116.01902870000004,38.828482600000029],[116.01869480000005,38.828429300000039],[116.01805910000007,38.828477400000054],[116.01751760000002,38.82856970000006],[116.01615230000004,38.828764100000058],[116.01580370000011,38.828806600000064],[116.01540390000002,38.828784400000075],[116.01518380000005,38.828750100000036],[116.01493030000006,38.828730200000052],[116.0134551000001,38.828738600000065],[116.01337190000004,38.828283100000078]],[[116.02455140000006,38.842749400000059],[116.02456210000003,38.843054400000028],[116.02462650000007,38.843284200000028],[116.02477130000011,38.843915100000061],[116.02498050000008,38.844558500000062],[116.02507170000001,38.844708900000057],[116.02526490000002,38.844926200000032],[116.02546330000007,38.845009800000071],[116.02581740000005,38.845147600000075],[116.0261607000001,38.845247900000061],[116.02640210000004,38.845285500000045],[116.02678830000002,38.845318900000052],[116.02721210000004,38.845231200000057],[116.0274965000001,38.845126700000037],[116.02766810000003,38.845101700000043],[116.02778610000007,38.845114200000069],[116.02793630000008,38.845151800000053],[116.02833870000006,38.845013900000026],[116.02848350000011,38.844917800000076],[116.02869270000008,38.844838500000037],[116.02876780000008,38.844825900000046],[116.02899850000006,38.844775800000036],[116.02926670000011,38.84466720000006],[116.02951880000001,38.844462400000054],[116.02977630000009,38.844378900000038],[116.0298729000001,38.844270200000039],[116.0299480000001,38.844053000000031],[116.02986750000002,38.843856600000038],[116.02978710000002,38.843697800000029],[116.02985680000006,38.843564100000037],[116.03028600000005,38.843386600000031],[116.03066410000008,38.84328000000005],[116.03083040000001,38.843236200000035],[116.03090290000011,38.843250800000078],[116.03123550000009,38.843125400000076],[116.03356360000009,38.842498700000078],[116.03652480000005,38.841633800000068],[116.03703440000004,38.841500100000076],[116.0375011000001,38.841404000000068],[116.03784440000004,38.841341300000067],[116.0381824000001,38.84124520000006],[116.03836480000007,38.84109060000003],[116.03840230000003,38.84077730000007],[116.03813950000006,38.840342700000065],[116.03803750000009,38.840175600000066],[116.03791950000004,38.839908200000025],[116.03768880000007,38.839678400000025],[116.03762450000011,38.839619900000059],[116.03752250000002,38.839411000000041],[116.03749040000002,38.839185300000054],[116.03733210000007,38.838809300000037],[116.03724090000003,38.838424800000041],[116.03720340000007,38.83808010000007],[116.03717920000008,38.837438700000064],[116.03711490000001,38.837112800000057],[116.03700760000004,38.83684960000005],[116.03697000000011,38.836649000000079],[116.03707190000011,38.836444200000074],[116.03719000000001,38.836151700000073],[116.03722750000009,38.835804900000028],[116.03719000000001,38.83552080000004],[116.03714700000012,38.835357800000054],[116.03702370000008,38.835295100000053],[116.03667500000006,38.835362000000032],[116.03620830000011,38.835403800000051],[116.03544120000004,38.835474800000043],[116.03514880000012,38.835558400000025],[116.03492080000001,38.835681600000044],[116.03480280000008,38.835840400000052],[116.03478400000006,38.835921900000073],[116.03474380000011,38.836293800000078],[116.03474380000011,38.836778500000037],[116.03486720000001,38.837196400000039],[116.03494230000001,38.83783150000005],[116.03486720000001,38.83812400000005],[116.03464720000011,38.838462500000048],[116.03422880000005,38.838796700000046],[116.03382650000003,38.838951300000076],[116.03343490000009,38.839047400000027],[116.03308080000011,38.839043300000071],[116.03267850000009,38.838951300000076],[116.03243170000007,38.838817600000027],[116.03213670000002,38.838587800000028],[116.0314876000001,38.837948500000039],[116.03126760000009,38.837835700000028],[116.03112820000001,38.837810600000068],[116.03066150000006,38.837844000000075],[116.03044690000002,38.837814800000046],[116.03033420000008,38.837702000000036],[116.03028590000008,38.837505600000043],[116.03014110000004,38.836995800000068],[116.03004990000011,38.836653200000057],[116.0298997000001,38.836682400000029],[116.02965290000009,38.836970700000052],[116.02833870000006,38.837998600000049],[116.02800610000008,38.838207600000032],[116.02766270000006,38.838236800000061],[116.02756080000006,38.83816580000007],[116.02584420000005,38.836807800000031],[116.02575300000001,38.836812000000066],[116.02574770000001,38.836895500000026],[116.02804360000005,38.838813400000049],[116.02837620000003,38.839072500000043],[116.02858540000011,38.839636600000063],[116.02848890000007,38.839787000000058],[116.02804900000001,38.83992070000005],[116.02718000000004,38.840179800000044],[116.02647180000008,38.840309300000058],[116.02570470000001,38.840342700000065],[116.02516290000005,38.84030510000008],[116.02493760000004,38.84030510000008],[116.02466940000011,38.840409600000044],[116.0245943000001,38.840606000000037],[116.02458360000003,38.840961100000072],[116.02459970000007,38.841395700000078],[116.02462650000007,38.841909600000065],[116.02461580000011,38.842540500000041],[116.02455140000006,38.842749400000059]],[[116.0246479000001,38.848003300000073],[116.0246479000001,38.848053400000026],[116.02467210000009,38.848128600000052],[116.02472840000007,38.84822470000006],[116.0247955000001,38.848477500000058],[116.0248974000001,38.848684300000059],[116.0249993000001,38.848920300000032],[116.02507710000009,38.849131300000067],[116.02513610000005,38.849340200000029],[116.02527290000012,38.849354800000071],[116.02549280000005,38.849256600000047],[116.0256806000001,38.849175200000047],[116.02589790000002,38.84908530000007],[116.02601590000006,38.849018500000057],[116.02606950000006,38.848914000000036],[116.02605610000001,38.848740700000064],[116.02600780000012,38.848596500000042],[116.02590590000011,38.848542200000054],[116.02578520000009,38.848542200000054],[116.02555990000008,38.848588200000052],[116.02516560000004,38.84865080000003],[116.0251737000001,38.848607000000072],[116.02555450000011,38.848519200000055],[116.02577180000003,38.848496300000079],[116.02589250000005,38.848441900000068],[116.02591400000006,38.848393900000076],[116.02582540000003,38.84827690000003],[116.02569130000006,38.848212200000034],[116.02549820000002,38.848205900000039],[116.0252756000001,38.848239300000046],[116.02501000000007,38.848312400000054],[116.02491080000004,38.848295700000051],[116.02494840000008,38.848251900000037],[116.02507170000001,38.848203800000078],[116.02514950000011,38.848195500000031],[116.02533190000008,38.848151600000051],[116.02539900000011,38.848093100000028],[116.02539900000011,38.847992800000043],[116.02534260000004,38.847907200000066],[116.02523800000006,38.847861200000068],[116.02512810000007,38.847869600000024],[116.02500470000007,38.847911400000044],[116.02484370000002,38.847971900000061],[116.02470700000003,38.847980300000074],[116.0246479000001,38.848003300000073]],[[116.02679640000008,38.859236700000054],[116.02682860000004,38.859426800000051],[116.0268420000001,38.859451800000045],[116.02682590000006,38.859573000000069],[116.02685540000004,38.859727500000076],[116.02691710000011,38.859913400000039],[116.02698420000002,38.860080500000038],[116.02706190000004,38.860153600000046],[116.02721750000001,38.860189100000071],[116.02746700000012,38.860176600000045],[116.02758230000006,38.860132700000065],[116.02757960000008,38.860017800000037],[116.02747230000011,38.859767200000078],[116.02740790000007,38.85955210000003],[116.02735700000005,38.859412100000043],[116.02723630000003,38.859161500000027],[116.0271934000001,38.859052900000052],[116.02707800000007,38.859055000000069],[116.0268420000001,38.859130200000038],[116.02679640000008,38.859236700000054]],[[116.02735160000009,38.858992300000068],[116.02735430000007,38.859146900000042],[116.02746960000002,38.859476900000061],[116.02760110000008,38.859819400000049],[116.02773250000007,38.86012020000004],[116.02785990000007,38.860158800000079],[116.02794170000004,38.860160900000039],[116.0280570000001,38.860146300000054],[116.02813750000007,38.860106600000051],[116.02815360000011,38.860024100000032],[116.02815090000001,38.859961400000032],[116.02818580000007,38.859939500000053],[116.02822600000002,38.859952000000078],[116.02825420000011,38.860004300000071],[116.02828770000008,38.860078400000077],[116.02837090000003,38.860093000000063],[116.02844060000007,38.860053300000061],[116.02846470000009,38.860007400000029],[116.0284620000001,38.859917600000074],[116.02845130000003,38.859823600000027],[116.02844860000005,38.859671100000071],[116.02843790000009,38.859531200000049],[116.02841380000007,38.859357800000055],[116.02839770000003,38.859232500000076],[116.02832260000002,38.859130200000038],[116.02823670000009,38.859073800000033],[116.02797120000002,38.85903200000007],[116.02750450000008,38.858942200000058],[116.02735160000009,38.858992300000068]],[[116.02826490000007,38.84969220000005],[116.02827430000002,38.849712000000068],[116.02881610000009,38.850070200000062],[116.02886170000011,38.850100500000053],[116.02892340000005,38.850090100000045],[116.02903200000003,38.850002400000051],[116.02915810000002,38.849892700000055],[116.02925600000003,38.849796600000047],[116.02933110000004,38.849682800000039],[116.02935390000005,38.849620100000038],[116.02934990000006,38.849507300000027],[116.02929490000008,38.849393400000054],[116.02917820000005,38.849265000000059],[116.02910850000001,38.849205400000073],[116.02898110000001,38.84911980000004],[116.02885370000001,38.849178300000062],[116.02867260000005,38.84932450000008],[116.02849020000008,38.84947070000004],[116.02833060000012,38.849594000000025],[116.02827430000002,38.84965980000004],[116.02826490000007,38.84969220000005]],[[116.02846210000007,38.859211600000037],[116.02847680000002,38.859275300000036],[116.02849420000007,38.859358900000075],[116.02849960000003,38.859490500000049],[116.02858010000011,38.859865400000047],[116.02859350000006,38.859957300000076],[116.02866590000008,38.860074200000042],[116.02891670000008,38.860061700000074],[116.02907490000007,38.860028300000067],[116.02923180000005,38.85998440000003],[116.02936460000001,38.859901900000068],[116.02941020000003,38.859778700000049],[116.02939950000007,38.85965340000007],[116.02937270000007,38.859542700000077],[116.02933240000004,38.859435100000042],[116.02925330000005,38.859383900000068],[116.02904010000009,38.85941420000006],[116.02903070000002,38.859477900000059],[116.02898640000001,38.859461200000055],[116.02895830000011,38.85940590000007],[116.02890330000002,38.859225200000026],[116.02887110000006,38.859170900000038],[116.0288121000001,38.859128100000078],[116.02857070000005,38.85911660000005],[116.02847550000001,38.859150000000056],[116.02846210000007,38.859211600000037]],[[116.02851970000006,38.857650400000068],[116.02853180000011,38.85768900000005],[116.02864850000003,38.857728700000052],[116.0287598000001,38.857697400000063],[116.02884560000007,38.857674400000064],[116.02942630000007,38.857660800000076],[116.0295215000001,38.857666000000052],[116.02956310000002,38.85768070000006],[116.02964620000012,38.857692200000031],[116.02982600000007,38.857578300000057],[116.02990240000008,38.857468700000027],[116.02997880000009,38.857415400000036],[116.0300539000001,38.857379900000069],[116.03013040000008,38.857313100000056],[116.0302028000001,38.857218000000046],[116.03023370000005,38.857128200000034],[116.03018000000009,38.85705930000006],[116.03012500000011,38.857038400000079],[116.03003920000003,38.85701540000008],[116.02995340000007,38.85696530000007],[116.02988500000004,38.856900500000052],[116.02978710000002,38.856846200000064],[116.02937000000009,38.856794000000036],[116.02926270000012,38.856801300000029],[116.02917150000007,38.856812800000057],[116.02901730000008,38.856816000000038],[116.02885630000003,38.856807600000025],[116.02869670000007,38.856799200000069],[116.02863910000008,38.856866100000047],[116.02862160000006,38.856949600000064],[116.02860550000003,38.85711150000003],[116.02861230000008,38.857343300000025],[116.02859210000008,38.857440500000052],[116.02854120000006,38.857557400000076],[116.02853040000002,38.857604400000071],[116.02851970000006,38.857650400000068]],[[116.02858010000011,38.832031500000028],[116.02862300000004,38.832119300000045],[116.03000160000011,38.83329770000006],[116.03045760000009,38.833678000000077],[116.0305542000001,38.833757400000025],[116.0306829000001,38.833774100000028],[116.03167000000008,38.833418900000026],[116.03239690000009,38.833153500000037],[116.03275090000011,38.832915400000047],[116.03344830000003,38.832351200000062],[116.03357170000004,38.832482900000059],[116.03282060000004,38.832986400000038],[116.03276970000002,38.833051200000057],[116.03277240000011,38.833120100000031],[116.03279110000005,38.833176500000036],[116.03285280000011,38.83329770000006],[116.03293330000008,38.833558900000071],[116.03308350000009,38.833736500000043],[116.03318540000009,38.833820100000025],[116.03342950000001,38.833870200000035],[116.0340384000001,38.833788700000071],[116.03473840000004,38.833715600000062],[116.03514880000012,38.833655000000078],[116.0351971,38.833594400000038],[116.03516220000006,38.833483700000045],[116.03510860000006,38.833381300000042],[116.0348967000001,38.833187000000066],[116.03463110000007,38.832921600000077],[116.03448360000004,38.832723100000067],[116.03435220000006,38.832512100000031],[116.03458280000007,38.832244700000047],[116.03532310000003,38.833055400000035],[116.03541970000003,38.833159800000033],[116.03640140000005,38.833026100000041],[116.03776390000007,38.83273360000004],[116.03875640000001,38.832528800000034],[116.03920700000003,38.832378400000039],[116.04092360000004,38.831651300000033],[116.04135270000006,38.831538400000056],[116.04170680000004,38.831459000000052],[116.04191060000005,38.831400500000029],[116.04191600000001,38.831287700000075],[116.04178190000005,38.831141500000058],[116.04137420000006,38.830464500000062],[116.04120790000002,38.830217900000036],[116.04117040000006,38.830067500000041],[116.04114890000005,38.829833500000063],[116.04115960000001,38.829524200000037],[116.04113280000001,38.829260900000065],[116.04102550000005,38.82916060000008],[116.04068220000011,38.829039500000079],[116.04041930000005,38.82893080000008],[116.04009210000004,38.82878450000004],[116.03912650000007,38.828245400000071],[116.03870810000001,38.828032300000075],[116.03860080000004,38.828007200000059],[116.03816630000006,38.828115900000057],[116.03769420000003,38.828258000000062],[116.03727580000009,38.828433500000074],[116.0360098000001,38.828571400000044],[116.03517290000002,38.828901500000029],[116.03485640000008,38.829043600000034],[116.0345185000001,38.829240000000027],[116.03421270000001,38.829482400000074],[116.03404100000012,38.829649600000039],[116.03386400000011,38.829879400000038],[116.03379430000007,38.829963000000077],[116.03362260000006,38.829804200000069],[116.03353140000002,38.829632900000036],[116.03343490000009,38.829557600000044],[116.0330325000001,38.829779100000053],[116.03310230000011,38.829896100000042],[116.03224400000011,38.830376700000045],[116.0314608000001,38.830769500000031],[116.03011430000004,38.831375500000036],[116.02866050000011,38.831956300000058],[116.02858010000011,38.832031500000028]],[[116.02864980000004,38.855884400000036],[116.02876780000008,38.85624370000005],[116.02890730000001,38.856394100000045],[116.0291433000001,38.856427500000052],[116.02943840000012,38.856364800000051],[116.02954030000001,38.856241600000033],[116.02956180000001,38.856070300000056],[116.02955640000005,38.855899000000079],[116.0295430000001,38.855802900000072],[116.02953760000003,38.855698500000074],[116.0296234000001,38.855815500000062],[116.02968510000005,38.855959600000062],[116.02972000000011,38.856041100000027],[116.02966900000001,38.856114200000036],[116.02964220000001,38.856164300000046],[116.02963420000003,38.85624370000005],[116.02966100000003,38.856279200000074],[116.02974410000002,38.856308400000046],[116.02982730000008,38.856329300000027],[116.02989700000001,38.856373200000064],[116.03003110000009,38.856655100000069],[116.03006330000005,38.856793000000039],[116.03008480000005,38.856893200000059],[116.03010360000007,38.856928700000026],[116.03017330000011,38.856949600000064],[116.03031280000005,38.856928700000026],[116.03048980000005,38.856928700000026],[116.03064540000003,38.856935000000078],[116.0307097000001,38.856930800000043],[116.03078220000009,38.856893200000059],[116.03079560000003,38.85678050000007],[116.03083580000009,38.856663500000025],[116.03088940000009,38.856527700000072],[116.03109870000003,38.856116200000031],[116.03120860000001,38.85587600000008],[116.03129180000008,38.85542490000006],[116.03153590000011,38.854629100000068],[116.03173970000012,38.853908500000045],[116.0318175000001,38.853576300000043],[116.03188990000001,38.853400900000054],[116.03197310000007,38.853281800000047],[116.03208300000006,38.853148100000055],[116.03212860000008,38.853068800000074],[116.0321474000001,38.852979000000062],[116.0321206000001,38.852628000000038],[116.03205620000006,38.85236690000005],[116.03187380000008,38.851669300000026],[116.03181210000002,38.851433200000031],[116.03172360000008,38.851165900000069],[116.03165660000002,38.850990400000057],[116.03149560000008,38.850781500000039],[116.03109600000005,38.850259300000062],[116.03092970000012,38.850048300000026],[116.03068560000008,38.849829000000057],[116.03043620000005,38.849551200000064],[116.03036370000007,38.849469700000043],[116.03023500000006,38.84942790000008],[116.03010890000007,38.849444600000027],[116.02996680000001,38.849511500000062],[116.02980850000006,38.849580400000036],[116.02968780000003,38.849651400000027],[116.02961540000001,38.849724500000036],[116.02955640000005,38.849839400000064],[116.02955640000005,38.84989580000007],[116.02960740000003,38.849981500000069],[116.02968250000004,38.850067100000047],[116.02965830000005,38.850100500000053],[116.02948670000001,38.850111000000027],[116.02937940000004,38.850123500000052],[116.02925060000007,38.85016950000005],[116.02917820000005,38.850209200000052],[116.0291380000001,38.850299000000064],[116.02913530000001,38.850545500000067],[116.02903600000002,38.850741800000037],[116.02900390000002,38.85085040000007],[116.02899310000009,38.850911000000053],[116.02915410000003,38.850877600000047],[116.02964760000009,38.851531400000056],[116.02990510000006,38.851940800000079],[116.03000160000011,38.852258300000074],[116.03010890000007,38.852768000000026],[116.03022690000012,38.853302700000029],[116.03025910000008,38.853636900000026],[116.03006600000003,38.854129900000032],[116.02988360000006,38.854355500000054],[116.02972270000009,38.85446410000003],[116.02926130000003,38.854631200000028],[116.02895020000005,38.854798300000027],[116.02866050000011,38.855441600000063],[116.02864980000004,38.855884400000036]],[[116.03069360000006,38.85735070000004],[116.03071780000005,38.857461400000034],[116.03082240000003,38.858369900000071],[116.03085460000011,38.858992300000068],[116.03088680000008,38.859297300000037],[116.03193820000001,38.859228300000041],[116.03203740000004,38.859230400000058],[116.03206690000002,38.859251300000039],[116.0320991000001,38.859385000000032],[116.03271070000005,38.859347400000047],[116.03273750000005,38.859255500000074],[116.03293330000008,38.859217900000033],[116.03317740000011,38.85916990000004],[116.03330340000002,38.859462300000075],[116.03359850000004,38.859397500000057],[116.03346710000005,38.859013200000049],[116.03348850000009,38.858927600000072],[116.03413220000004,38.858825200000069],[116.03409470000008,38.858716600000037],[116.03389620000007,38.858748000000048],[116.0337621000001,38.858789700000045],[116.03363070000012,38.858806400000049],[116.03348310000001,38.858804400000054],[116.03335980000008,38.858768800000064],[116.03328470000008,38.858672800000079],[116.03321490000008,38.85816310000007],[116.03313450000007,38.857682800000077],[116.03306200000009,38.857290100000057],[116.03300030000003,38.857219100000066],[116.03276970000002,38.857116700000063],[116.03247460000011,38.857083300000056],[116.03198920000011,38.857081200000039],[116.03144470000007,38.857047800000032],[116.03109060000008,38.857037400000024],[116.03084920000003,38.857031100000029],[116.03075000000001,38.857075000000066],[116.03069630000005,38.857173100000068],[116.03069360000006,38.85735070000004]],[[116.03535530000011,38.833845100000076],[116.03547870000011,38.833970500000078],[116.03612780000003,38.834058200000072],[116.03699680000011,38.834049900000025],[116.03939470000012,38.833711400000027],[116.04104160000009,38.833347900000035],[116.04230760000007,38.832942500000058],[116.04271530000005,38.832670900000039],[116.04282260000002,38.832520500000044],[116.04265630000009,38.832186200000081],[116.04259190000005,38.831902000000071],[116.04251680000004,38.831755700000031],[116.04235590000008,38.831638700000042],[116.04218960000003,38.831542600000034],[116.0420501000001,38.831513400000063],[116.04135270000006,38.831709800000056],[116.04056420000006,38.83197720000004],[116.03909970000007,38.832545500000037],[116.03863830000012,38.832708500000081],[116.03786590000004,38.832850600000029],[116.03568260000009,38.833239200000037],[116.03551630000004,38.833327000000054],[116.03540360000011,38.833527500000059],[116.03535530000011,38.833845100000076]],[[116.03712020000012,38.83689970000006],[116.03717920000008,38.837117000000035],[116.03733480000005,38.83730920000005],[116.0374260000001,38.837409500000035],[116.03761910000003,38.837906700000076],[116.03770490000011,38.838090600000044],[116.0375762000001,38.838078000000053],[116.03748500000006,38.838190900000029],[116.03746350000006,38.838332900000069],[116.03751180000006,38.838592000000062],[116.03765670000007,38.838888700000041],[116.03776390000007,38.839160200000038],[116.03786050000008,38.839331600000037],[116.03813410000009,38.83925430000005],[116.03841040000009,38.839147700000069],[116.03862230000004,38.839087100000029],[116.03928740000003,38.838539800000035],[116.03960390000009,38.838249400000052],[116.03982660000008,38.837992400000076],[116.04003850000004,38.837503500000025],[116.04010820000008,38.837261100000035],[116.04013500000008,38.837077300000033],[116.04007070000011,38.836621800000046],[116.03998480000007,38.836429600000031],[116.03995000000009,38.83622280000003],[116.03990970000007,38.836036800000045],[116.03989090000005,38.835867600000029],[116.0398722000001,38.835821600000031],[116.03980780000006,38.83580070000005],[116.03970590000006,38.835807000000045],[116.03963610000005,38.835861300000033],[116.03963880000003,38.835957400000041],[116.03968170000007,38.836066100000039],[116.03967640000008,38.836149600000056],[116.03956100000005,38.836176800000032],[116.03950740000005,38.836147600000061],[116.03944030000002,38.835938600000077],[116.03940010000008,38.835892700000045],[116.03923110000005,38.835888500000067],[116.03841840000007,38.836114100000032],[116.03793560000008,38.836227000000065],[116.0375494000001,38.836306300000047],[116.03725970000005,38.836348100000066],[116.03714700000012,38.836636500000054],[116.03712020000012,38.83689970000006]],[[116.03728380000007,38.836277100000075],[116.03731870000001,38.836300100000074],[116.03810460000011,38.836103700000081],[116.03859810000006,38.835957400000041],[116.03945640000006,38.835765200000026],[116.03973000000008,38.835727600000041],[116.03993120000007,38.835660800000028],[116.03992310000001,38.835587600000053],[116.04002240000011,38.835073700000066],[116.04024230000005,38.834710100000052],[116.04041930000005,38.834409300000061],[116.04057490000002,38.834179400000039],[116.04080560000011,38.833857700000067],[116.04093970000008,38.833665400000029],[116.04096650000008,38.833548400000041],[116.04086460000008,38.833489900000075],[116.04005460000008,38.833669600000064],[116.03872950000004,38.833886900000039],[116.03789810000001,38.834033200000079],[116.03748500000006,38.834087500000066],[116.03736160000005,38.834329900000057],[116.03732940000009,38.834622400000057],[116.03733480000005,38.834783200000061],[116.03746890000002,38.834875200000056],[116.03769150000005,38.834887700000024],[116.03787390000002,38.834797900000069],[116.03804290000005,38.834777000000031],[116.03824940000004,38.834808300000077],[116.03837820000001,38.834887700000024],[116.03841040000009,38.83496290000005],[116.03845330000001,38.835117500000024],[116.03863300000012,38.835132200000032],[116.03882610000005,38.835136300000045],[116.03908360000003,38.835255400000051],[116.0394940000001,38.835416300000077],[116.03970050000009,38.835596000000066],[116.03936520000002,38.835698400000069],[116.03915330000007,38.83575060000004],[116.03860350000002,38.835871800000064],[116.03836210000009,38.835894800000062],[116.03819310000006,38.835863400000051],[116.03820650000011,38.835775700000056],[116.03817430000004,38.835637800000029],[116.03804290000005,38.835619000000065],[116.0378846000001,38.835654500000032],[116.03770230000009,38.835669100000075],[116.03769150000005,38.835604300000057],[116.03773180000007,38.835495700000024],[116.03771840000002,38.835447600000066],[116.03759500000001,38.835435100000041],[116.03742330000011,38.835479000000078],[116.03737230000002,38.835554200000047],[116.03736700000002,38.835623100000078],[116.03736160000005,38.835723400000063],[116.03733210000007,38.835988800000052],[116.03728380000007,38.836277100000075]],[[116.03784440000004,38.83950290000007],[116.0379276000001,38.839565600000071],[116.03801340000007,38.83959690000006],[116.03816900000004,38.839594800000043],[116.0383326000001,38.839519600000074],[116.03847210000004,38.839360800000065],[116.0385874000001,38.839225000000056],[116.03860880000002,38.839170700000068],[116.03852570000004,38.839179100000024],[116.03821460000006,38.839294000000052],[116.03805360000001,38.839342000000045],[116.0379034,38.839392100000055],[116.0378525000001,38.839427700000044],[116.03784440000004,38.83950290000007]],[[116.03838090000011,38.839799500000026],[116.03839690000007,38.83992070000005],[116.03847740000003,38.840196500000047],[116.03853640000011,38.840572500000064],[116.03861690000008,38.84101540000006],[116.03866520000008,38.841190900000072],[116.03872950000004,38.841408200000046],[116.03971120000006,38.841199300000028],[116.04075730000011,38.841044700000054],[116.04157270000007,38.840998700000057],[116.04217890000007,38.840923500000031],[116.0436916000001,38.840781400000026],[116.04482890000008,38.840643600000078],[116.04479130000004,38.840752200000054],[116.04384180000011,38.840869200000043],[116.04269920000002,38.840986200000032],[116.04153510000003,38.841082300000039],[116.04078950000007,38.841161700000043],[116.03993650000007,38.84124520000006],[116.03929280000011,38.841362200000049],[116.03879390000009,38.84148760000005],[116.03869740000005,38.841541900000038],[116.03879930000005,38.841638000000046],[116.03949130000001,38.841515800000025],[116.0400800000001,38.84138420000005],[116.04088600000011,38.84129960000007],[116.04177120000008,38.841232700000035],[116.04234520000011,38.841170000000034],[116.0432303,38.841078100000061],[116.04365140000004,38.84224590000008],[116.04392770000004,38.842828800000063],[116.04516680000006,38.842507100000034],[116.04556920000005,38.842277300000035],[116.0458106000001,38.841993100000025],[116.04600910000011,38.841721600000028],[116.04622900000004,38.841119900000081],[116.04629870000008,38.840798200000052],[116.04629340000008,38.84048480000007],[116.04625580000004,38.840158900000063],[116.04620220000004,38.839774500000033],[116.04613780000011,38.839193700000067],[116.04606810000007,38.838917900000069],[116.04578380000009,38.83868810000007],[116.04564160000007,38.838711100000069],[116.0455343000001,38.838654700000063],[116.04547260000004,38.838562700000068],[116.04542430000004,38.838462500000048],[116.04534660000002,38.838358000000028],[116.04523390000008,38.838224300000036],[116.04509710000002,38.838117700000055],[116.04498180000007,38.837967300000059],[116.04488790000005,38.837785500000052],[116.04481820000001,38.837346800000034],[116.04478600000004,38.837041800000065],[116.04481820000001,38.836853700000063],[116.04488790000005,38.836665700000026],[116.04502200000002,38.836435900000026],[116.04509170000006,38.836285500000031],[116.04514270000004,38.836103700000081],[116.04508640000006,38.836013800000046],[116.04492540000001,38.835944900000072],[116.04471620000004,38.835880100000054],[116.04463850000002,38.835790300000042],[116.04460890000007,38.835652400000072],[116.04450170000007,38.835525000000075],[116.04443190000006,38.835397500000056],[116.04445340000007,38.835272100000054],[116.04446140000005,38.835186500000077],[116.0443729000001,38.835148900000036],[116.04428710000002,38.835157200000026],[116.04391690000011,38.835232400000052],[116.04339120000009,38.835313900000074],[116.04313910000008,38.835343200000068],[116.04276900000002,38.835378700000035],[116.04242560000012,38.835435100000041],[116.04145200000005,38.835673300000053],[116.04017260000001,38.835976200000061],[116.04008670000007,38.836047300000075],[116.04010820000008,38.836218600000052],[116.04016720000004,38.836369000000047],[116.04027990000009,38.836598800000047],[116.04034420000005,38.836841200000038],[116.04029060000005,38.837192200000061],[116.04021550000004,38.837647700000048],[116.04008140000008,38.837944300000061],[116.03988830000003,38.838220100000058],[116.03957180000009,38.838470800000039],[116.03918550000003,38.838809300000037],[116.03893340000002,38.83905580000004],[116.03859540000008,38.839415100000053],[116.03842380000003,38.839632400000028],[116.03838090000011,38.839799500000026]],[[116.03875640000001,38.82771050000008],[116.03879930000005,38.827827500000069],[116.03902460000006,38.827986300000077],[116.03930350000007,38.828153500000042],[116.03974340000002,38.828412600000036],[116.04000630000007,38.828542200000072],[116.04040320000001,38.828730200000052],[116.04090210000004,38.828914100000077],[116.04118640000002,38.829010200000027],[116.0414171000001,38.829081200000076],[116.04169070000012,38.829127200000073],[116.04180340000005,38.828951700000061],[116.04179260000001,38.82863830000008],[116.0421467000001,38.82722160000003],[116.04237200000011,38.826285400000074],[116.04247390000012,38.825938600000029],[116.04240950000008,38.825758900000039],[116.04213060000006,38.825608400000078],[116.04177120000008,38.825508100000036],[116.04143320000003,38.825366000000031],[116.04102550000005,38.825240700000052],[116.04093970000008,38.825228100000061],[116.04062320000003,38.825328400000046],[116.04027450000001,38.825671100000079],[116.03989360000003,38.826151700000025],[116.03963610000005,38.826481900000033],[116.03929280000011,38.826866300000063],[116.0390675000001,38.827163100000064],[116.03890660000002,38.827409600000067],[116.03875640000001,38.82771050000008]],[[116.03906480000001,38.821546100000035],[116.0390890000001,38.821805300000051],[116.03923920000011,38.822551300000043],[116.03927940000005,38.822749800000054],[116.0393706000001,38.822816700000033],[116.03958520000003,38.82282500000008],[116.03992310000001,38.82282500000008],[116.04067150000003,38.82281880000005],[116.0409638000001,38.822810400000037],[116.04108720000011,38.822770700000035],[116.04110870000011,38.822682900000075],[116.04113280000001,38.822536600000035],[116.04115960000001,38.822484400000064],[116.04124550000006,38.822467700000061],[116.0413688000001,38.822486500000025],[116.04158610000002,38.822507400000063],[116.04161290000002,38.82230050000004],[116.0416451000001,38.821968200000072],[116.04167460000008,38.821815700000059],[116.04167460000008,38.821736300000055],[116.04162900000006,38.821663200000046],[116.04154590000007,38.821631800000034],[116.04147610000007,38.821633900000052],[116.04130450000002,38.821671500000036],[116.04108990000009,38.821690300000057],[116.04099600000006,38.821341300000029],[116.04087260000006,38.821140700000058],[116.04076270000007,38.820988200000045],[116.04070100000001,38.820919200000048],[116.04061510000008,38.820904600000063],[116.04036030000009,38.820935900000052],[116.03986680000003,38.821027900000047],[116.03923920000011,38.821291200000076],[116.03908090000004,38.821433300000081],[116.03906480000001,38.821546100000035]],[[116.04004110000005,38.835773600000039],[116.04007600000011,38.835863400000051],[116.0401323000001,38.835909400000048],[116.04094770000006,38.835744300000044],[116.04221640000003,38.835416300000077],[116.04262140000003,38.835349400000041],[116.04302380000001,38.835293000000036],[116.04335640000011,38.835265900000024],[116.04387940000004,38.835165600000039],[116.04427370000008,38.835079900000039],[116.04441580000002,38.834990100000027],[116.04448820000005,38.834367500000042],[116.04445870000006,38.834129300000029],[116.04434880000008,38.833738600000061],[116.04418250000003,38.833500400000048],[116.04395450000004,38.833304000000055],[116.04375870000001,38.83311180000004],[116.04360310000004,38.832858900000076],[116.04357630000004,38.83263960000005],[116.04346630000009,38.832447300000069],[116.04326780000008,38.832495400000028],[116.04305860000011,38.832687600000042],[116.04280380000012,38.832879800000057],[116.04199110000002,38.833278900000039],[116.04176040000004,38.833331100000066],[116.04136620000008,38.833475300000032],[116.0410657000001,38.833803300000056],[116.04060980000008,38.834449000000063],[116.04027450000001,38.834885600000064],[116.04018330000008,38.835105000000055],[116.04008140000008,38.835545800000034],[116.04004110000005,38.835773600000039]],[[116.0402074000001,38.823777900000039],[116.0402074000001,38.823836400000062],[116.0402825000001,38.823888700000055],[116.04039790000002,38.823932500000069],[116.04030670000009,38.824960600000054],[116.04086460000008,38.825065100000074],[116.04127230000006,38.825169600000038],[116.04170140000008,38.825336800000059],[116.04206620000002,38.825474700000029],[116.04231300000004,38.825562400000024],[116.04259190000005,38.825499800000046],[116.04294060000007,38.823819700000058],[116.04303180000011,38.823130100000071],[116.04263480000009,38.823034000000064],[116.04230490000009,38.823000600000057],[116.04203400000006,38.823002600000052],[116.04170680000004,38.823038200000042],[116.04154320000009,38.823063200000036],[116.04128570000012,38.823044400000072],[116.0408887000001,38.82300680000003],[116.04061510000008,38.82299850000004],[116.04055610000012,38.823031900000046],[116.04051590000006,38.823130100000071],[116.0402074000001,38.823777900000039]],[[116.04311500000006,38.887274900000079],[116.04319810000004,38.887337500000058],[116.04371040000001,38.887237300000038],[116.04644090000011,38.886611000000073],[116.04800730000011,38.886239400000079],[116.04926260000002,38.885955400000057],[116.04944770000009,38.885871900000041],[116.04969440000002,38.885800900000049],[116.05058760000009,38.88561930000003],[116.05066540000007,38.885631800000056],[116.05090680000001,38.885652700000037],[116.05115890000002,38.885602600000027],[116.05188040000007,38.885429300000055],[116.05216470000005,38.885360400000025],[116.05241420000004,38.885276900000065],[116.05261530000007,38.885208000000034],[116.05289430000005,38.885132800000065],[116.05293720000009,38.885141200000078],[116.05299350000007,38.885243500000058],[116.05304990000002,38.885260200000062],[116.05309550000004,38.885230900000067],[116.05299890000003,38.885018000000059],[116.05290500000001,38.884819600000071],[116.0528594000001,38.884775800000057],[116.05269580000004,38.884740300000033],[116.05261530000007,38.884706900000026],[116.05256970000005,38.884612900000036],[116.05245980000007,38.884168200000033],[116.05242490000001,38.884007500000052],[116.05237660000012,38.883955300000025],[116.05218080000009,38.883936500000061],[116.05185630000005,38.883936500000061],[116.05146470000011,38.883963600000072],[116.05093360000001,38.884005400000035],[116.05051790000005,38.883982400000036],[116.05024700000001,38.883938600000079],[116.04982320000011,38.883886400000051],[116.0493967000001,38.883857100000057],[116.04894880000006,38.883853000000045],[116.04829970000003,38.88394900000003],[116.04729650000002,38.88415150000003],[116.04694780000011,38.884264300000041],[116.0466206000001,38.884414600000071],[116.0462692000001,38.884585800000025],[116.04518030000008,38.885341600000061],[116.04508370000008,38.885395900000049],[116.04481820000001,38.885542000000044],[116.0443944000001,38.885717400000033],[116.04408860000001,38.885874000000058],[116.0439143000001,38.885999300000037],[116.04380700000002,38.886170500000048],[116.04372650000005,38.886312400000065],[116.0433349000001,38.886872000000039],[116.0432115000001,38.887013900000056],[116.04311500000006,38.887274900000079]],[[116.0451508000001,38.837125300000025],[116.04519100000005,38.83730920000005],[116.04526340000007,38.837493000000052],[116.04533050000009,38.837618400000053],[116.04542970000011,38.837754200000063],[116.04551550000008,38.837867000000074],[116.04560670000001,38.838004900000044],[116.04568720000009,38.838075900000035],[116.04585350000002,38.83810520000003],[116.04604930000005,38.838082200000031],[116.04627730000004,38.837940100000026],[116.04642750000005,38.837764600000071],[116.04663130000006,38.837622600000032],[116.0469720000001,38.837457500000028],[116.04724560000011,38.837367700000073],[116.04744400000004,38.837284100000034],[116.04776050000009,38.83712950000006],[116.04792950000001,38.837023000000045],[116.04802340000003,38.836995800000068],[116.04815210000004,38.837020900000027],[116.04826480000008,38.83717340000004],[116.0482889000001,38.837275800000043],[116.04832110000007,38.837361400000077],[116.04837210000005,38.837401100000079],[116.04851420000011,38.837422000000061],[116.04863230000001,38.837411600000053],[116.04871810000009,38.837430400000073],[116.04872880000005,38.837455400000067],[116.0486671000001,38.83750770000006],[116.04857860000004,38.837585000000047],[116.0485437000001,38.837637200000074],[116.0485572,38.837839900000063],[116.04867250000007,38.83807390000004],[116.04870470000003,38.838255600000025],[116.04870470000003,38.838431100000037],[116.04865370000005,38.838581500000032],[116.04857060000006,38.838673500000027],[116.04826480000008,38.838673500000027],[116.04806630000007,38.838648400000068],[116.04755670000009,38.838610800000026],[116.04730460000007,38.838589900000045],[116.04708730000004,38.838608700000066],[116.04681100000005,38.838640000000055],[116.04640330000007,38.838744500000075],[116.0462156000001,38.838936700000033],[116.0462156000001,38.839093400000024],[116.04640070000005,38.839866400000062],[116.04642210000009,38.84053490000008],[116.04650260000005,38.840986200000032],[116.0466689000001,38.841224300000079],[116.04688350000004,38.841333000000077],[116.04725360000009,38.84119510000005],[116.0475272000001,38.841040500000076],[116.04773100000011,38.840990400000067],[116.04776320000008,38.841099000000042],[116.04774180000004,38.841512600000044],[116.04779000000008,38.841621300000043],[116.04784370000004,38.841713200000072],[116.04809050000006,38.841665200000079],[116.04825140000003,38.841587900000036],[116.0482836000001,38.841477100000077],[116.04825410000001,38.841197200000067],[116.04833450000001,38.841134500000067],[116.04853030000004,38.841111500000068],[116.04897560000006,38.841040500000076],[116.04906410000001,38.841103200000077],[116.04910430000007,38.841194100000052],[116.04913650000003,38.841214900000068],[116.04931090000002,38.84124520000006],[116.04958440000007,38.84109060000003],[116.04964880000011,38.840963200000033],[116.0497534000001,38.840931900000044],[116.04989020000005,38.840896400000076],[116.04996000000006,38.840794000000074],[116.05002160000004,38.840685300000075],[116.0500833000001,38.840649800000051],[116.05018260000008,38.840633100000048],[116.05033810000009,38.84063100000003],[116.05038370000011,38.840606000000037],[116.05039450000004,38.840482700000052],[116.05043740000008,38.840407500000026],[116.05060100000003,38.840376200000037],[116.05079140000009,38.840363600000046],[116.05096040000001,38.840342700000065],[116.05101410000009,38.84025500000007],[116.05113740000002,38.84019440000003],[116.05127160000006,38.840186000000074],[116.05133060000003,38.840213200000051],[116.05147810000005,38.840265400000078],[116.05155860000002,38.840317700000071],[116.05162560000008,38.840367800000024],[116.05181340000001,38.84033850000003],[116.05196090000004,38.840284200000042],[116.05208960000004,38.840267500000039],[116.05219960000011,38.840403300000048],[116.05233100000009,38.84039910000007],[116.0524812000001,38.840342700000065],[116.0527790000001,38.84030510000008],[116.05302300000005,38.840261200000043],[116.05329390000009,38.840175600000066],[116.05340120000005,38.84010040000004],[116.05346290000011,38.840018900000075],[116.05340660000002,38.83996250000007],[116.05300430000011,38.839699300000063],[116.05266360000007,38.839540500000055],[116.05237390000002,38.839379600000029],[116.05218620000005,38.83919990000004],[116.05203330000006,38.839128900000048],[116.05181070000003,38.839091300000064],[116.05150760000004,38.839087100000029],[116.05117500000006,38.839057900000057],[116.05092290000005,38.83897010000004],[116.0506117000001,38.838754900000026],[116.0504562000001,38.838635900000043],[116.05010210000012,38.838491700000077],[116.04986610000003,38.838422800000046],[116.04952810000009,38.838343400000042],[116.04928670000004,38.838163700000052],[116.04889780000008,38.838255600000025],[116.04884680000009,38.83812400000005],[116.04879050000011,38.837917200000049],[116.04874490000009,38.83773750000006],[116.04883610000002,38.837589200000025],[116.04890850000004,38.837501400000065],[116.04886830000009,38.837409500000035],[116.04873950000001,38.83726530000007],[116.04869660000008,38.837236100000041],[116.04847940000002,38.837150400000041],[116.04834790000007,38.837052200000073],[116.04826750000007,38.836939400000063],[116.04819240000006,38.836782700000072],[116.04806100000008,38.836630200000059],[116.04789470000003,38.836490200000071],[116.04774450000002,38.836458900000025],[116.04765860000009,38.836498600000027],[116.04758620000007,38.836640600000067],[116.04746550000004,38.836734600000057],[116.04728850000004,38.836720000000071],[116.04717050000011,38.836674100000039],[116.04710340000008,38.836623900000063],[116.04699070000004,38.836621800000046],[116.04689690000009,38.83665110000004],[116.04675740000005,38.836705400000028],[116.04662600000006,38.836703300000067],[116.04644090000011,38.836636500000054],[116.04629610000006,38.836632300000076],[116.04615120000005,38.836665700000026],[116.04601980000007,38.836661500000048],[116.04552360000002,38.836646900000062],[116.04538950000006,38.836680300000069],[116.04529960000002,38.836780600000054],[116.04521780000005,38.836958200000026],[116.0451508000001,38.837125300000025]],[[116.04787050000004,38.842045400000075],[116.04792420000001,38.842139400000065],[116.04841230000011,38.842536300000063],[116.04873420000001,38.842883100000051],[116.04912040000011,38.843284200000028],[116.04939940000008,38.84352240000004],[116.05006460000004,38.843969400000049],[116.05037570000002,38.844241000000068],[116.05091210000001,38.844617000000028],[116.05140570000003,38.844913700000063],[116.05178650000005,38.84509330000003],[116.0520709000001,38.845172700000035],[116.05238200000008,38.845172700000035],[116.05383570000004,38.844420700000057],[116.05466190000004,38.845264600000064],[116.05449560000011,38.84555290000003],[116.05458140000007,38.845807800000046],[116.05489790000001,38.846154500000068],[116.0550803000001,38.846321700000033],[116.05528150000009,38.84646790000005],[116.05543430000012,38.846541000000059],[116.05471010000008,38.847217800000067],[116.05469940000012,38.847288900000081],[116.0562202000001,38.847961500000054],[116.05652060000011,38.84808060000006],[116.05694710000012,38.848270700000057],[116.05709460000003,38.848350000000039],[116.05725020000011,38.848475400000041],[116.05729850000012,38.848479600000076],[116.05741920000003,38.84836260000003],[116.05791270000009,38.847687800000074],[116.05839820000006,38.847054900000046],[116.05847870000002,38.846979700000077],[116.05844650000006,38.846749900000077],[116.05841700000008,38.846607800000072],[116.05837400000007,38.846411500000045],[116.05835530000002,38.846252700000036],[116.05830030000004,38.846025000000054],[116.05820510000001,38.845908000000065],[116.05806960000007,38.845838100000037],[116.05779200000006,38.845738800000049],[116.05762030000005,38.845684500000061],[116.0573468,38.845588400000054],[116.05722610000009,38.845502800000077],[116.05707050000001,38.845321000000069],[116.05697120000002,38.845199900000068],[116.05679150000003,38.844625400000041],[116.0565984000001,38.844345500000031],[116.05627660000005,38.843919300000039],[116.05558450000001,38.84295000000003],[116.05537530000004,38.842644900000039],[116.05530560000011,38.842436000000077],[116.05533240000011,38.842227100000059],[116.05542360000004,38.842005700000072],[116.05535920000011,38.841830200000061],[116.0552090000001,38.84171740000005],[116.05492470000002,38.841562800000077],[116.05473700000005,38.841408200000046],[116.05463500000008,38.841370600000062],[116.05396180000002,38.841404000000068],[116.05318130000001,38.841531400000065],[116.05284060000008,38.841598300000044],[116.05265830000008,38.841546100000073],[116.05244370000003,38.841500100000076],[116.05204130000004,38.84142490000005],[116.05102750000003,38.841305800000043],[116.05077270000004,38.841387300000065],[116.05056610000008,38.841512600000044],[116.05043740000008,38.841577400000062],[116.0503811000001,38.841539800000078],[116.05034350000005,38.841473000000065],[116.05027650000011,38.841420700000072],[116.05000020000011,38.841404000000068],[116.0497481000001,38.841431200000045],[116.04946110000003,38.841500100000076],[116.04917140000009,38.84153770000006],[116.04889240000011,38.841562800000077],[116.04799660000003,38.841932600000064],[116.04787050000004,38.842045400000075]],[[116.05263680000007,38.88405970000008],[116.05265830000008,38.884132700000066],[116.05271460000006,38.884230900000034],[116.05284870000003,38.884416700000031],[116.05296130000011,38.884619200000031],[116.05318670000008,38.885001300000056],[116.05370430000005,38.884828000000027],[116.05374190000009,38.88469850000007],[116.05374190000009,38.884502300000065],[116.05362650000006,38.884228800000074],[116.05352730000004,38.884126500000036],[116.05337710000003,38.88405970000008],[116.05313840000008,38.884013700000025],[116.05298280000011,38.884001200000057],[116.05277090000004,38.884001200000057],[116.05266360000007,38.884028300000068],[116.05263680000007,38.88405970000008]],[[116.05295600000011,38.890335500000049],[116.05298280000011,38.890665400000046],[116.05311150000011,38.891174800000044],[116.05315450000001,38.891454500000066],[116.05316520000008,38.891751000000056],[116.05318130000001,38.891934700000036],[116.05385180000007,38.891930500000058],[116.05439360000003,38.891855400000054],[116.05482820000009,38.891784400000063],[116.05526800000007,38.891730100000075],[116.05543430000012,38.891625700000077],[116.0550535000001,38.890502600000048],[116.05480130000001,38.889880400000038],[116.05466190000004,38.889508800000044],[116.05456530000004,38.88918730000006],[116.05449560000011,38.888903400000061],[116.05444730000011,38.888728000000071],[116.05412010000009,38.888147600000025],[116.05400200000008,38.887872000000073],[116.05392160000008,38.887625700000058],[116.05383040000004,38.887362600000074],[116.05373380000003,38.887183100000072],[116.0535890000001,38.887087000000065],[116.05325640000001,38.887220600000035],[116.05310620000012,38.887542200000041],[116.05303640000011,38.88797640000007],[116.05302040000004,38.888995200000068],[116.05303110000011,38.889316700000052],[116.05300960000011,38.889655000000062],[116.05298280000011,38.889972300000068],[116.05295600000011,38.890335500000049]],[[116.05406640000001,38.887137100000075],[116.05409860000009,38.887333400000045],[116.05423810000002,38.887627800000075],[116.05431050000004,38.887811500000055],[116.05439360000003,38.888024400000063],[116.05442320000009,38.888098500000069],[116.05448750000005,38.888145500000064],[116.05461220000007,38.888158000000033],[116.05487240000002,38.88815180000006],[116.05514470000003,38.888137200000074],[116.05536860000007,38.888147600000025],[116.05549870000004,38.888164300000028],[116.05565030000002,38.88815070000004],[116.05602710000005,38.888025500000026],[116.05630610000003,38.887895000000071],[116.05679150000003,38.887546300000054],[116.0570785000001,38.887348000000031],[116.05728510000006,38.887166400000069],[116.0574031000001,38.887107900000046],[116.05753990000005,38.887070300000062],[116.05782150000005,38.887036900000055],[116.05868250000003,38.886988900000063],[116.05893460000004,38.886963800000046],[116.05915720000007,38.886913700000036],[116.06028380000009,38.886421000000041],[116.06039370000008,38.886339600000042],[116.06045810000001,38.886239400000079],[116.0604876000001,38.886229200000059],[116.06044200000008,38.886145400000032],[116.06038300000012,38.88601390000008],[116.06025700000009,38.88581970000007],[116.06015500000001,38.885725800000046],[116.06002630000012,38.88562550000006],[116.05992170000002,38.885479400000065],[116.05987070000003,38.885385400000075],[116.05979830000001,38.885214200000064],[116.05962850000003,38.884908300000063],[116.05948450000005,38.884965800000032],[116.05947380000009,38.885076400000059],[116.05949790000011,38.885168300000032],[116.05973390000008,38.885479400000065],[116.05972320000001,38.885581700000046],[116.05953010000007,38.885696500000051],[116.05916800000011,38.885859400000072],[116.05895070000008,38.886001400000055],[116.05895610000005,38.886128700000029],[116.0588676000001,38.886214300000063],[116.05877910000004,38.886087000000032],[116.05867980000005,38.88596380000007],[116.05865840000001,38.885775900000056],[116.05868520000001,38.88566730000008],[116.05876300000011,38.885531600000036],[116.05878980000011,38.885454300000049],[116.05894540000008,38.885212200000069],[116.05926990000012,38.884873900000059],[116.05930750000005,38.884757000000036],[116.05913850000002,38.884379100000046],[116.05888100000004,38.884153600000047],[116.05862620000005,38.884040900000059],[116.05826140000011,38.883901000000037],[116.05789390000007,38.883867600000031],[116.05734140000004,38.88385500000004],[116.05694440000002,38.883898900000077],[116.05662790000008,38.88396780000005],[116.05637310000009,38.884086800000034],[116.05608340000003,38.884308100000055],[116.05596010000011,38.884466800000041],[116.05582060000006,38.884654700000056],[116.05579380000006,38.884855100000038],[116.05583130000002,38.884999200000038],[116.05587960000003,38.88527270000003],[116.05580450000002,38.885412600000052],[116.05559260000007,38.88571950000005],[116.0554102000001,38.88596380000007],[116.05467260000012,38.886454400000048],[116.05445270000007,38.886629800000037],[116.05417910000006,38.886936700000035],[116.05406640000001,38.887137100000075]],[[116.05448750000005,38.88830420000005],[116.05449020000003,38.888373100000081],[116.05453580000005,38.888513000000046],[116.05456530000004,38.888619400000039],[116.05466190000004,38.888821900000039],[116.05470480000008,38.88889290000003],[116.05471550000004,38.888991100000055],[116.05472620000012,38.889126800000042],[116.0548040000001,38.889277100000072],[116.05484830000012,38.889293800000075],[116.05489120000004,38.889244700000063],[116.05522780000001,38.888906500000076],[116.05559660000006,38.888583900000071],[116.0557884000001,38.888371000000063],[116.05598550000002,38.888189400000044],[116.05599630000006,38.888133000000039],[116.05579510000007,38.888198800000055],[116.0555591000001,38.888255100000038],[116.05541960000005,38.888258300000075],[116.05534050000006,38.888229000000024],[116.0552828000001,38.888214400000038],[116.05512050000004,38.888220700000034],[116.05498640000008,38.888240500000052],[116.05461630000002,38.888275000000078],[116.05448750000005,38.88830420000005]],[[116.05971060000002,38.884875600000044],[116.05984120000005,38.885157900000024],[116.05991100000006,38.885304000000076],[116.0599539000001,38.88538340000008],[116.06005310000012,38.88552320000008],[116.0601309000001,38.885615100000052],[116.06024350000007,38.885717400000033],[116.06031600000006,38.885805100000027],[116.06039640000006,38.885911600000043],[116.06047420000004,38.886018100000058],[116.06052250000005,38.886091100000044],[116.06057610000005,38.886162100000035],[116.06063780000011,38.886185100000034],[116.06075850000002,38.886135000000024],[116.06098650000001,38.88601390000008],[116.0612440000001,38.885859400000072],[116.06143440000005,38.885757100000035],[116.06156590000001,38.885677700000031],[116.06161150000003,38.885594200000071],[116.06160880000004,38.885531600000036],[116.0615471000001,38.88541680000003],[116.06148270000006,38.885268500000052],[116.06143980000002,38.885122400000057],[116.06138620000002,38.884928200000047],[116.06132450000007,38.884752800000058],[116.06123330000003,38.884675600000037],[116.0611689000001,38.884652600000038],[116.06094090000011,38.884621300000049],[116.06066730000009,38.884617100000071],[116.06042060000004,38.88464010000007],[116.06001820000006,38.884752800000058],[116.05971060000002,38.884875600000044]],[[116.06226590000006,38.872266300000035],[116.0622767000001,38.872569100000078],[116.0623786000001,38.872807200000068],[116.06256900000005,38.873059900000044],[116.06271390000006,38.873222700000042],[116.06289090000007,38.873272900000075],[116.06345410000006,38.873289600000078],[116.06404960000009,38.873310400000037],[116.06424270000002,38.873435700000073],[116.06430710000006,38.87366540000005],[116.06428560000006,38.874116500000071],[116.06426950000002,38.874174900000071],[116.06406570000001,38.874204200000065],[116.06412200000011,38.87431070000008],[116.0641998000001,38.87444430000005],[116.06421590000002,38.874603000000036],[116.06412200000011,38.874717900000064],[116.0639450000001,38.874734600000068],[116.06377870000006,38.874872400000072],[116.06374380000011,38.875436200000024],[116.06373850000011,38.875883100000067],[116.06378670000004,38.876442700000041],[116.063894,38.876968900000065],[116.06412470000009,38.878008700000066],[116.06380280000008,38.87803800000006],[116.06363120000003,38.878150700000049],[116.06363650000003,38.878259300000025],[116.06387790000008,38.878468100000077],[116.06451630000004,38.878672700000038],[116.06496690000006,38.878781300000071],[116.06544430000008,38.878823100000034],[116.06608810000012,38.878781300000071],[116.06694640000001,38.878706100000045],[116.06782610000005,38.878643500000067],[116.0681373000001,38.878622600000028],[116.06834650000008,38.878572500000075],[116.06848060000004,38.878363700000079],[116.06869790000007,38.877332200000069],[116.06877300000008,38.87730090000008],[116.06863620000001,38.877891800000043],[116.06853960000001,38.878478500000028],[116.0685155000001,38.878587100000061],[116.06857450000007,38.878620500000068],[116.06877570000006,38.878595500000074],[116.06890170000008,38.878528600000038],[116.06912430000011,38.87831360000007],[116.06924770000001,38.878125700000055],[116.06932280000001,38.877691300000038],[116.06924240000001,38.877290400000049],[116.06911900000011,38.876943800000049],[116.06904920000011,38.876735000000053],[116.06898490000003,38.876517800000045],[116.06892590000007,38.876271400000064],[116.06891510000003,38.875991600000077],[116.06883470000002,38.875139700000034],[116.06890980000003,38.874692800000048],[116.06891510000003,38.874500700000056],[116.06888290000006,38.874312800000041],[116.0687435000001,38.874124800000061],[116.06857180000009,38.873974500000031],[116.06830890000003,38.873690500000066],[116.06815340000003,38.87348170000007],[116.06804610000006,38.873256100000049],[116.06803000000002,38.872888600000067],[116.06805680000002,38.872571200000039],[116.06813190000003,38.872241300000042],[116.06818560000011,38.871965600000067],[116.06825530000003,38.871706700000061],[116.06831430000011,38.87158560000006],[116.06842160000008,38.871451900000068],[116.06827680000004,38.871426900000074],[116.06818020000003,38.871167900000046],[116.0680354000001,38.870787900000039],[116.06774570000005,38.870353500000078],[116.06754720000004,38.870119600000066],[116.0672843000001,38.869869000000051],[116.06710730000009,38.86970610000003],[116.06697320000001,38.869580800000051],[116.06680690000007,38.869463900000028],[116.0665709000001,38.869367800000077],[116.06638310000005,38.869338600000049],[116.06629730000009,38.869346900000039],[116.06624360000001,38.86945970000005],[116.06620070000008,38.869676900000059],[116.06620070000008,38.869831400000066],[116.06612030000008,38.869881500000076],[116.06597010000007,38.869823100000076],[116.06594320000011,38.869664400000033],[116.06589500000007,38.869505600000025],[116.06568570000002,38.869372000000055],[116.06538000000012,38.869372000000055],[116.06520830000011,38.869610100000045],[116.06519760000003,38.869743700000072],[116.0650366000001,38.869910800000071],[116.06455920000008,38.870128000000079],[116.06436070000007,38.870244900000046],[116.06430710000006,38.870491300000026],[116.06446800000003,38.870779500000026],[116.06452170000011,38.871126200000049],[116.06438220000007,38.871410200000071],[116.0642534000001,38.871468600000071],[116.06395300000008,38.871489500000052],[116.06363120000003,38.871489500000052],[116.06324490000009,38.871443600000077],[116.06300890000011,38.871435200000064],[116.06277820000003,38.871589700000072],[116.06262000000004,38.871744300000046],[116.06241350000005,38.871907200000066],[116.06230620000008,38.872059600000057],[116.06226590000006,38.872266300000035]]]},"properties":{"FID":1,"osm_id":"8154639","code":8200,"fclass":"water","name":"白洋淀","Shape_Leng":0.70577533323399999,"Shape_Area":0.0016886194234099999}}]
}