{
  "type" : "FeatureCollection",
  "features" : [{"type":"Feature","id":0,"geometry":{"type":"Polygon","coordinates":[[[114.41216140000006,38.209867100000054],[114.41240200000004,38.209666800000036],[114.4123737000001,38.209388700000034],[114.41224630000011,38.209366500000044],[114.41235270000004,38.209151900000052],[114.41233150000005,38.209043500000064],[114.41245820000006,38.20876080000005],[114.41261300000008,38.208437400000037],[114.41276790000006,38.208089900000061],[114.41295960000002,38.207732700000065],[114.41330810000011,38.206418600000063],[114.41325690000008,38.206107100000054],[114.41312700000003,38.205701100000056],[114.4130957000001,38.205295100000058],[114.4132939000001,38.204894600000046],[114.41370440000003,38.20432720000008],[114.41442640000002,38.203937900000028],[114.41520510000009,38.203359400000068],[114.41584210000008,38.202313700000047],[114.41602620000003,38.20122340000006],[114.41618190000008,38.200778400000047],[114.41664910000009,38.200122000000079],[114.41714450000006,38.199699300000077],[114.41762590000008,38.199387800000068],[114.41823460000001,38.199054000000046],[114.41905570000006,38.199109600000043],[114.42035600000008,38.199164200000041],[114.42153310000003,38.199315700000056],[114.42219850000004,38.19936210000003],[114.42286390000004,38.199350500000037],[114.42374160000008,38.199042900000052],[114.42442110000002,38.198553400000037],[114.42505820000008,38.198464400000034],[114.42583200000001,38.198331100000075],[114.42645790000006,38.198100900000043],[114.42675450000002,38.197842300000048],[114.4268843000001,38.197645100000045],[114.4269895000001,38.19746740000005],[114.42717410000012,38.197035000000028],[114.42716150000001,38.196563800000035],[114.42713620000006,38.195660200000077],[114.42711100000008,38.194775900000025],[114.42701180000006,38.193891700000052],[114.42787540000006,38.193502300000034],[114.4317827000001,38.191888900000038],[114.43283030000009,38.191722000000027],[114.43341070000008,38.191677500000026],[114.43353810000008,38.191744300000039],[114.43373630000008,38.19197790000004],[114.43434500000001,38.192545400000029],[114.43427430000008,38.192634400000031],[114.43392030000007,38.192801300000042],[114.43377880000003,38.193046100000061],[114.43392030000007,38.193190700000059],[114.43407610000008,38.193213000000071],[114.43431670000007,38.193468900000028],[114.43443000000002,38.193646900000033],[114.43458570000007,38.193858300000045],[114.43464230000006,38.194392300000061],[114.43458570000007,38.19483740000004],[114.43377880000003,38.195304700000065],[114.43207990000008,38.196317100000044],[114.43120220000003,38.196962400000075],[114.43040940000003,38.197785700000054],[114.4300482000001,38.198453200000074],[114.42958840000006,38.19912080000006],[114.42905040000005,38.199843900000076],[114.42807360000006,38.200978700000064],[114.42746480000005,38.201757400000076],[114.42613410000001,38.203359400000068],[114.42535550000002,38.204093600000078],[114.42432200000007,38.204816700000038],[114.42365670000004,38.20521720000005],[114.4221136000001,38.206118300000071],[114.42133500000011,38.206563200000062],[114.42064130000006,38.207063800000071],[114.42008920000001,38.207631200000037],[114.41967860000011,38.208198500000037],[114.41932470000006,38.208643400000028],[114.41850360000001,38.209199600000034],[114.41625270000009,38.209811400000035],[114.41601200000002,38.209900400000038],[114.41557310000007,38.209844800000042],[114.4143557000001,38.209600100000046],[114.41394510000009,38.209644600000047],[114.41347790000009,38.209778100000051],[114.41323730000011,38.20998940000004],[114.4130292000001,38.20991470000007],[114.41301080000005,38.210067300000048],[114.41278430000011,38.210022800000047],[114.41264270000011,38.210000500000035],[114.41248700000006,38.209900400000038],[114.41216140000006,38.209867100000054]]]},"properties":{"FID":0,"osm_id":"1264680705","code":8202,"fclass":"riverbank","name":"滹沱河","Shape_Leng":0.066153909355699994,"Shape_Area":0.00014208702453999999}}]
}