{
"type": "FeatureCollection",
"name": "Hutuohe_poly",
"crs": { "type": "name", "properties": { "name": "urn:ogc:def:crs:OGC:1.3:CRS84" } },
"features": [
{ "type": "Feature", "properties": { "osm_id": "1264680705", "code": 8202, "fclass": "riverbank", "name": "滹沱河", "Shape_Leng": 0.066153909355699994, "Shape_Area": 0.00014208702454 }, "geometry": { "type": "Polygon", "coordinates": [ [ [ 114.412161400000059, 38.209867100000054 ], [ 114.412487, 38.209900400000038 ], [ 114.412642700000106, 38.210000500000035 ], [ 114.412784300000112, 38.210022800000047 ], [ 114.413010800000052, 38.210067300000048 ], [ 114.413029200000096, 38.20991470000007 ], [ 114.413237300000105, 38.20998940000004 ], [ 114.413477900000089, 38.209778100000051 ], [ 114.413945100000092, 38.209644600000047 ], [ 114.414355700000101, 38.209600100000046 ], [ 114.415573100000074, 38.209844800000042 ], [ 114.416012, 38.209900400000038 ], [ 114.416252700000086, 38.209811400000035 ], [ 114.4185036, 38.209199600000034 ], [ 114.419324700000061, 38.208643400000028 ], [ 114.419678600000111, 38.208198500000037 ], [ 114.4200892, 38.207631200000037 ], [ 114.420641300000057, 38.207063800000071 ], [ 114.421335000000113, 38.206563200000062 ], [ 114.422113600000102, 38.206118300000071 ], [ 114.423656700000038, 38.20521720000005 ], [ 114.424322, 38.204816700000038 ], [ 114.425355500000023, 38.204093600000078 ], [ 114.426134100000013, 38.203359400000068 ], [ 114.427464800000052, 38.201757400000076 ], [ 114.428073600000062, 38.200978700000064 ], [ 114.429050400000051, 38.199843900000076 ], [ 114.429588400000057, 38.19912080000006 ], [ 114.430048200000101, 38.198453200000074 ], [ 114.43040940000003, 38.197785700000054 ], [ 114.43120220000003, 38.196962400000075 ], [ 114.432079900000076, 38.196317100000044 ], [ 114.433778800000027, 38.195304700000065 ], [ 114.434585700000071, 38.19483740000004 ], [ 114.434642300000064, 38.194392300000061 ], [ 114.434585700000071, 38.193858300000045 ], [ 114.43443, 38.193646900000033 ], [ 114.434316700000068, 38.193468900000028 ], [ 114.434076100000084, 38.193213 ], [ 114.433920300000068, 38.193190700000059 ], [ 114.433778800000027, 38.193046100000061 ], [ 114.433920300000068, 38.192801300000042 ], [ 114.434274300000084, 38.192634400000031 ], [ 114.434345, 38.192545400000029 ], [ 114.433736300000078, 38.19197790000004 ], [ 114.433538100000078, 38.191744300000039 ], [ 114.433410700000081, 38.191677500000026 ], [ 114.432830300000091, 38.191722 ], [ 114.431782700000099, 38.191888900000038 ], [ 114.427875400000062, 38.193502300000034 ], [ 114.427011800000059, 38.193891700000052 ], [ 114.427111, 38.194775900000025 ], [ 114.427136200000064, 38.195660200000077 ], [ 114.427161500000011, 38.196563800000035 ], [ 114.427174100000116, 38.197035 ], [ 114.426989500000104, 38.19746740000005 ], [ 114.426884300000097, 38.197645100000045 ], [ 114.426754500000015, 38.197842300000048 ], [ 114.426457900000059, 38.198100900000043 ], [ 114.425832, 38.198331100000075 ], [ 114.42505820000008, 38.198464400000034 ], [ 114.424421100000018, 38.198553400000037 ], [ 114.423741600000085, 38.199042900000052 ], [ 114.422863900000038, 38.199350500000037 ], [ 114.422198500000036, 38.19936210000003 ], [ 114.421533100000033, 38.199315700000056 ], [ 114.420356, 38.199164200000041 ], [ 114.419055700000058, 38.199109600000043 ], [ 114.4182346, 38.199054 ], [ 114.417625900000075, 38.199387800000068 ], [ 114.417144500000063, 38.199699300000077 ], [ 114.416649100000086, 38.200122 ], [ 114.416181900000083, 38.200778400000047 ], [ 114.416026200000033, 38.20122340000006 ], [ 114.415842100000077, 38.202313700000047 ], [ 114.415205100000094, 38.203359400000068 ], [ 114.414426400000025, 38.203937900000028 ], [ 114.413704400000029, 38.20432720000008 ], [ 114.413293900000099, 38.204894600000046 ], [ 114.413095700000099, 38.205295100000058 ], [ 114.413127, 38.205701100000056 ], [ 114.413256900000079, 38.206107100000054 ], [ 114.413308100000108, 38.206418600000063 ], [ 114.412959600000022, 38.207732700000065 ], [ 114.412767900000063, 38.208089900000061 ], [ 114.412613, 38.208437400000037 ], [ 114.41245820000006, 38.20876080000005 ], [ 114.41233150000005, 38.209043500000064 ], [ 114.412352700000042, 38.209151900000052 ], [ 114.412246300000106, 38.209366500000044 ], [ 114.412373700000103, 38.209388700000034 ], [ 114.412402, 38.209666800000036 ], [ 114.412161400000059, 38.209867100000054 ] ] ] } }
]
}
