{
"type": "FeatureCollection",
"name": "Hutuohe_line",
"crs": { "type": "name", "properties": { "name": "urn:ogc:def:crs:OGC:1.3:CRS84" } },
"features": [
{ "type": "Feature", "properties": { "osm_id": "134668124", "code": 8101, "fclass": "river", "width": 0, "name": "滹沱河", "Shape_Leng": 0.018516199713799999 }, "geometry": { "type": "LineString", "coordinates": [ [ 115.021357800000033, 38.116809900000078 ], [ 115.023608900000113, 38.120322300000055 ], [ 115.0241962, 38.122452800000076 ], [ 115.024587700000097, 38.124673 ], [ 115.024799800000096, 38.126918800000055 ], [ 115.025615500000072, 38.127996800000062 ], [ 115.025974400000109, 38.12834330000004 ], [ 115.028633500000069, 38.129780600000061 ], [ 115.029742900000088, 38.130858500000045 ], [ 115.030411800000024, 38.131859500000076 ] ] } },
{ "type": "Feature", "properties": { "osm_id": "154210496", "code": 8101, "fclass": "river", "width": 0, "name": "滹沱河", "Shape_Leng": 0.25991646126099999 }, "geometry": { "type": "LineString", "coordinates": [ [ 113.64299010000002, 38.38823270000006 ], [ 113.649072400000023, 38.391326400000025 ], [ 113.652566400000069, 38.393253500000071 ], [ 113.656448700000055, 38.399541700000043 ], [ 113.657872200000043, 38.40298990000008 ], [ 113.660460400000034, 38.403294100000039 ], [ 113.665507400000024, 38.401063 ], [ 113.668095600000015, 38.397513400000037 ], [ 113.668225, 38.394673500000067 ], [ 113.670295600000031, 38.393355 ], [ 113.672236700000099, 38.391326400000025 ], [ 113.675989600000094, 38.391935 ], [ 113.681168500000013, 38.395526500000074 ], [ 113.682970100000034, 38.397408100000064 ], [ 113.6833176, 38.397583900000029 ], [ 113.685088900000096, 38.398479900000041 ], [ 113.68718350000006, 38.398599300000058 ], [ 113.689481700000101, 38.398456700000054 ], [ 113.691046800000095, 38.398451700000066 ], [ 113.69251040000006, 38.398492200000078 ], [ 113.693720100000064, 38.398047800000029 ], [ 113.694058700000028, 38.39700090000008 ], [ 113.693912800000021, 38.395353800000066 ], [ 113.693162, 38.392811700000038 ], [ 113.690807, 38.389927400000033 ], [ 113.691454, 38.388101600000027 ], [ 113.693657300000041, 38.386533100000065 ], [ 113.69561520000002, 38.385991 ], [ 113.702389200000084, 38.385667100000035 ], [ 113.704524400000082, 38.38617430000005 ], [ 113.705456100000106, 38.386970200000064 ], [ 113.705791800000043, 38.387900500000057 ], [ 113.7065301, 38.388519 ], [ 113.708018200000083, 38.390121100000044 ], [ 113.711785700000064, 38.39217560000003 ], [ 113.715588900000057, 38.393832400000065 ], [ 113.719730100000106, 38.39606370000007 ], [ 113.720848400000023, 38.397033100000044 ], [ 113.722320800000034, 38.397521300000051 ], [ 113.723605600000042, 38.397474700000032 ], [ 113.724712300000078, 38.397179400000027 ], [ 113.726075100000116, 38.396723100000031 ], [ 113.727041700000086, 38.396013 ], [ 113.727753400000097, 38.395999600000039 ], [ 113.728844300000105, 38.396262700000079 ], [ 113.730801800000108, 38.396172700000079 ], [ 113.736604100000022, 38.395023300000048 ], [ 113.737670300000104, 38.394439300000045 ], [ 113.738763800000015, 38.39437950000007 ], [ 113.740677900000037, 38.394425500000068 ], [ 113.74251890000005, 38.393841100000031 ], [ 113.74399440000002, 38.392666 ], [ 113.745962900000109, 38.391888700000038 ], [ 113.747363, 38.391558200000077 ], [ 113.74762910000004, 38.391846800000053 ], [ 113.747421500000087, 38.392330600000037 ], [ 113.748135500000103, 38.393071700000064 ], [ 113.750829900000099, 38.394905400000027 ], [ 113.752652100000091, 38.395036900000036 ], [ 113.754874700000073, 38.396086800000035 ], [ 113.753764800000113, 38.399106400000051 ], [ 113.750270700000101, 38.400729100000035 ], [ 113.744447300000047, 38.402909500000078 ], [ 113.744294900000114, 38.403148400000077 ], [ 113.743541400000026, 38.404329200000063 ], [ 113.744770800000083, 38.406154600000036 ], [ 113.744188500000064, 38.408436300000062 ], [ 113.745159100000023, 38.409044700000038 ], [ 113.748006100000111, 38.40929820000008 ], [ 113.750723700000094, 38.410160200000064 ], [ 113.756029500000068, 38.40929820000008 ], [ 113.759847100000115, 38.406915200000071 ], [ 113.7634058000001, 38.402605200000039 ], [ 113.763664600000084, 38.400424800000053 ], [ 113.762564700000098, 38.399055700000076 ], [ 113.762305800000036, 38.397635800000046 ], [ 113.760429400000021, 38.39464380000004 ], [ 113.761076500000058, 38.392818100000056 ], [ 113.762823500000081, 38.39048530000008 ], [ 113.765670500000056, 38.388507300000072 ], [ 113.766715700000077, 38.388221400000077 ], [ 113.77164520000008, 38.387696400000038 ], [ 113.776217400000064, 38.387848 ], [ 113.780552600000078, 38.389826 ], [ 113.783464300000105, 38.390789600000062 ], [ 113.785276100000033, 38.392209600000058 ], [ 113.788448, 38.393747500000075 ], [ 113.791561200000046, 38.395817800000032 ], [ 113.793636600000013, 38.396483200000034 ], [ 113.795617700000093, 38.396335300000032 ], [ 113.795995, 38.395522 ], [ 113.795617700000093, 38.393008100000031 ], [ 113.793542200000047, 38.389532900000063 ], [ 113.793164900000079, 38.388128 ], [ 113.794957300000078, 38.386131500000033 ], [ 113.797598700000094, 38.383469400000024 ], [ 113.798919500000011, 38.381029100000035 ], [ 113.799716500000045, 38.380503600000054 ], [ 113.80071190000001, 38.380437500000028 ] ] } },
{ "type": "Feature", "properties": { "osm_id": "154210499", "code": 8101, "fclass": "river", "width": 0, "name": "滹沱河", "Shape_Leng": 0.46225691276500003 }, "geometry": { "type": "LineString", "coordinates": [ [ 113.906453100000022, 38.311840600000039 ], [ 113.909542800000054, 38.310027400000024 ], [ 113.913148400000068, 38.306535 ], [ 113.914715200000046, 38.307262200000025 ], [ 113.917498500000079, 38.309174400000074 ], [ 113.918896100000097, 38.309136900000055 ], [ 113.920222100000046, 38.310758500000077 ], [ 113.922681800000078, 38.313578 ], [ 113.926158700000087, 38.316103300000066 ], [ 113.936838, 38.322751100000062 ], [ 113.961639700000092, 38.33553640000008 ], [ 113.972044600000117, 38.337914800000078 ], [ 113.983293900000035, 38.334093500000051 ], [ 113.986364200000025, 38.331790800000078 ], [ 113.997831900000051, 38.319897100000048 ], [ 114.000526300000047, 38.318148600000029 ], [ 114.00564410000004, 38.317001100000027 ], [ 114.010962300000074, 38.31367780000005 ], [ 114.014117700000043, 38.313225100000068 ], [ 114.018488100000013, 38.31369710000007 ], [ 114.024889500000086, 38.314353100000062 ], [ 114.028695700000071, 38.31428580000005 ], [ 114.029559400000039, 38.315077500000029 ], [ 114.030715200000031, 38.316533400000026 ], [ 114.03493160000005, 38.31836 ], [ 114.039620200000059, 38.319328 ], [ 114.044952400000057, 38.32119670000003 ], [ 114.049834, 38.323545100000047 ], [ 114.056056700000113, 38.326145900000029 ], [ 114.063985300000013, 38.328090100000054 ], [ 114.068266100000073, 38.32859510000003 ], [ 114.082310200000052, 38.327231600000061 ], [ 114.100720900000056, 38.325464100000033 ], [ 114.108831900000041, 38.325110600000073 ], [ 114.114475200000015, 38.325851300000068 ], [ 114.122049800000013, 38.325077 ], [ 114.12792920000004, 38.323797600000034 ], [ 114.135181900000021, 38.320565400000078 ], [ 114.142649200000051, 38.315228600000069 ], [ 114.152412400000117, 38.307534200000077 ], [ 114.157648100000074, 38.301859600000057 ], [ 114.161446100000035, 38.298727500000041 ], [ 114.165351400000077, 38.297329800000057 ], [ 114.175631800000019, 38.296577900000045 ], [ 114.181787900000018, 38.293018600000039 ], [ 114.184899300000097, 38.292311300000051 ], [ 114.187946300000021, 38.291418700000065 ], [ 114.190435400000069, 38.291553400000055 ], [ 114.194898600000101, 38.292395500000055 ], [ 114.197387700000036, 38.293608 ], [ 114.200241500000061, 38.295612100000028 ], [ 114.201808, 38.296875100000079 ], [ 114.202773500000035, 38.298677 ], [ 114.202773500000035, 38.300344100000075 ], [ 114.20264480000003, 38.301085 ], [ 114.203352900000027, 38.301809100000071 ], [ 114.210476900000117, 38.304587500000025 ], [ 114.216785400000049, 38.306490200000042 ], [ 114.224917900000037, 38.30788780000006 ], [ 114.232492400000069, 38.306372400000043 ], [ 114.254201200000011, 38.282719200000031 ], [ 114.262168400000064, 38.270818600000041 ], [ 114.278411800000072, 38.254021 ], [ 114.294719700000087, 38.250718300000074 ], [ 114.305480100000068, 38.250165400000071 ] ] } },
{ "type": "Feature", "properties": { "osm_id": "154210840", "code": 8101, "fclass": "river", "width": 0, "name": "滹沱河", "Shape_Leng": 0.026258913592 }, "geometry": { "type": "LineString", "coordinates": [ [ 113.636630900000114, 38.409393500000078 ], [ 113.637317900000085, 38.409121 ], [ 113.637657100000069, 38.408582800000033 ], [ 113.6384203, 38.407998 ], [ 113.638818900000047, 38.407413200000065 ], [ 113.638869800000066, 38.406522600000073 ], [ 113.63859, 38.405519200000072 ], [ 113.6385815000001, 38.404754900000057 ], [ 113.638089600000058, 38.404057100000045 ], [ 113.637275500000101, 38.402807700000039 ], [ 113.637470500000063, 38.402422200000046 ], [ 113.63823380000008, 38.401837300000068 ], [ 113.638445800000113, 38.401086300000031 ], [ 113.6376232, 38.399777 ], [ 113.637255200000027, 38.398796900000036 ], [ 113.63748750000002, 38.395549900000049 ], [ 113.637283900000057, 38.39374870000006 ], [ 113.637970700000096, 38.392293400000028 ], [ 113.640466600000082, 38.389957100000061 ], [ 113.641501900000094, 38.388486300000068 ], [ 113.64299010000002, 38.38823270000006 ] ] } },
{ "type": "Feature", "properties": { "osm_id": "154265746", "code": 8101, "fclass": "river", "width": 0, "name": "滹沱河", "Shape_Leng": 0.14889372784800001 }, "geometry": { "type": "LineString", "coordinates": [ [ 115.701707300000066, 38.289103700000055 ], [ 115.701920800000039, 38.289114500000039 ], [ 115.70405130000006, 38.28798850000004 ], [ 115.705514400000084, 38.28639830000003 ], [ 115.706977600000073, 38.285647400000073 ], [ 115.707371500000022, 38.283527200000037 ], [ 115.708890900000029, 38.282511200000044 ], [ 115.712042200000042, 38.281804400000055 ], [ 115.713674200000014, 38.279860700000029 ], [ 115.716150200000016, 38.28021410000008 ], [ 115.7224529, 38.280876800000044 ], [ 115.724084900000094, 38.28052340000005 ], [ 115.730556400000069, 38.282290300000057 ], [ 115.734157900000014, 38.283394600000065 ], [ 115.740123, 38.283394600000065 ], [ 115.74743860000001, 38.281539400000042 ], [ 115.7552607, 38.280744200000072 ], [ 115.758862200000067, 38.283703800000069 ], [ 115.761844800000063, 38.283924700000057 ], [ 115.77025320000007, 38.279766700000039 ], [ 115.774452700000097, 38.274137 ], [ 115.776649300000031, 38.269014100000049 ], [ 115.776972300000011, 38.26500690000006 ], [ 115.775680200000011, 38.261354500000039 ], [ 115.776843100000065, 38.256839500000069 ], [ 115.777812200000085, 38.252374900000063 ], [ 115.782076300000085, 38.24917860000005 ], [ 115.782076300000085, 38.247656400000039 ], [ 115.781430200000045, 38.241009400000053 ], [ 115.781236400000012, 38.235376700000074 ], [ 115.784402100000079, 38.228018 ], [ 115.787244800000053, 38.225226600000042 ], [ 115.790475100000094, 38.223501 ], [ 115.792865600000027, 38.220607900000061 ], [ 115.796935800000028, 38.217663900000048 ] ] } },
{ "type": "Feature", "properties": { "osm_id": "154265749", "code": 8101, "fclass": "river", "width": 0, "name": "滹沱河", "Shape_Leng": 0.30733342146300002 }, "geometry": { "type": "LineString", "coordinates": [ [ 115.796935800000028, 38.217663900000048 ], [ 115.801652100000069, 38.216801 ], [ 115.806239100000084, 38.21385680000003 ], [ 115.813604300000065, 38.211521800000071 ], [ 115.830660400000056, 38.20700370000003 ], [ 115.834924500000056, 38.205277600000045 ], [ 115.842289600000072, 38.203094500000077 ], [ 115.843840200000045, 38.201825300000053 ], [ 115.845907600000032, 38.19852510000004 ], [ 115.84810420000008, 38.196037200000035 ], [ 115.864449700000023, 38.184358200000077 ], [ 115.88538230000006, 38.168613900000025 ], [ 115.887643500000081, 38.167547300000024 ], [ 115.901663100000064, 38.168055200000026 ], [ 115.927893400000016, 38.170544100000029 ], [ 115.930994600000076, 38.170391700000039 ], [ 115.947856900000033, 38.171712300000024 ], [ 115.977769800000033, 38.17435340000003 ], [ 116.001480400000105, 38.176232600000048 ], [ 116.014789400000041, 38.176181800000052 ], [ 116.02777530000003, 38.176791200000025 ], [ 116.034752800000092, 38.178670300000078 ], [ 116.0413420000001, 38.181124500000067 ], [ 116.045987600000103, 38.18249910000003 ], [ 116.052156700000069, 38.183924300000058 ], [ 116.054699400000118, 38.184885700000052 ], [ 116.055718600000091, 38.185433900000078 ], [ 116.05639460000009, 38.185889200000076 ], [ 116.057016800000042, 38.186445800000058 ], [ 116.057242100000053, 38.186993900000061 ], [ 116.057360200000062, 38.187710700000025 ], [ 116.057285100000058, 38.188326300000028 ], [ 116.057231400000092, 38.189355100000057 ], [ 116.057242100000053, 38.190038100000038 ], [ 116.057628400000112, 38.191193400000031 ], [ 116.058454500000039, 38.192137800000069 ], [ 116.0593986, 38.192947300000071 ], [ 116.060739700000113, 38.193605 ], [ 116.064038900000014, 38.19484870000008 ], [ 116.066023700000073, 38.195898500000055 ], [ 116.068416200000115, 38.197053600000061 ], [ 116.070202600000016, 38.197778700000072 ], [ 116.073753800000077, 38.199262700000077 ], [ 116.075298800000041, 38.200105800000074 ], [ 116.07587280000007, 38.200569500000029 ], [ 116.076237600000013, 38.20075920000005 ], [ 116.076532600000064, 38.200906800000041 ], [ 116.077433800000108, 38.201168200000041 ], [ 116.078229100000044, 38.201371600000073 ], [ 116.0801083, 38.201592900000037 ] ] } },
{ "type": "Feature", "properties": { "osm_id": "159297677", "code": 8101, "fclass": "river", "width": 0, "name": "滹沱河", "Shape_Leng": 0.257754537655 }, "geometry": { "type": "LineString", "coordinates": [ [ 114.306565, 38.251170700000046 ], [ 114.312148200000024, 38.256344100000035 ], [ 114.313210400000116, 38.261028200000055 ], [ 114.317207300000064, 38.26401240000007 ], [ 114.320104100000094, 38.264113500000065 ], [ 114.32197090000011, 38.264298900000028 ], [ 114.324846200000025, 38.265124400000047 ], [ 114.326562900000113, 38.265714100000025 ], [ 114.327856400000087, 38.266486 ], [ 114.330167700000061, 38.268443300000058 ], [ 114.333021600000052, 38.269807900000046 ], [ 114.338407500000017, 38.270313300000055 ], [ 114.344415600000048, 38.269908900000075 ], [ 114.348728600000072, 38.270262700000046 ], [ 114.358067800000072, 38.271931500000051 ], [ 114.363388500000042, 38.269698600000027 ], [ 114.369803, 38.270777700000053 ], [ 114.378657700000076, 38.269729400000074 ], [ 114.379869800000051, 38.269585900000038 ], [ 114.397915700000112, 38.257590100000073 ], [ 114.403460000000109, 38.249941900000067 ], [ 114.407105600000023, 38.238388500000042 ], [ 114.408365600000025, 38.222265400000026 ], [ 114.4117132, 38.211041400000056 ], [ 114.413029200000096, 38.20991470000007 ], [ 114.431945400000018, 38.193717100000072 ], [ 114.43819950000011, 38.19175290000004 ], [ 114.442315500000063, 38.190940900000044 ], [ 114.445369300000038, 38.18894830000005 ], [ 114.447956700000077, 38.185649700000056 ], [ 114.457807900000034, 38.178254200000026 ], [ 114.458482100000083, 38.177748 ], [ 114.482343, 38.163584400000047 ], [ 114.494676900000059, 38.153141900000037 ], [ 114.496527700000115, 38.152374 ] ] } },
{ "type": "Feature", "properties": { "osm_id": "226352010", "code": 8101, "fclass": "river", "width": 0, "name": "滹沱河", "Shape_Leng": 0.122264879878 }, "geometry": { "type": "LineString", "coordinates": [ [ 113.546472000000108, 38.435094400000025 ], [ 113.546720600000071, 38.434880200000066 ], [ 113.546877800000061, 38.434655500000076 ], [ 113.546959800000081, 38.434426600000052 ], [ 113.547098900000037, 38.433817800000043 ], [ 113.54721, 38.43333350000006 ], [ 113.547116700000061, 38.432044400000052 ], [ 113.547015800000054, 38.43168170000007 ], [ 113.546860200000083, 38.431422700000041 ], [ 113.546720600000071, 38.43131070000004 ], [ 113.546283500000072, 38.43103780000007 ], [ 113.546118800000045, 38.430963100000042 ], [ 113.544409600000108, 38.43067110000004 ], [ 113.544096800000034, 38.430569200000036 ], [ 113.543853300000023, 38.43045230000007 ], [ 113.543609800000013, 38.430276800000058 ], [ 113.543233700000087, 38.42985120000003 ], [ 113.543062900000109, 38.429557300000056 ], [ 113.542980700000044, 38.429105600000071 ], [ 113.543003700000099, 38.428897200000051 ], [ 113.54312010000001, 38.428688700000066 ], [ 113.543324900000016, 38.428469500000062 ], [ 113.543734, 38.428128 ], [ 113.544028900000058, 38.427831600000047 ], [ 113.544115100000113, 38.427672100000052 ], [ 113.544147600000088, 38.427512600000057 ], [ 113.544191400000045, 38.427168900000026 ], [ 113.544359700000086, 38.426635500000032 ], [ 113.544488800000067, 38.426387 ], [ 113.544737300000065, 38.426146500000073 ], [ 113.545487800000046, 38.425758400000063 ], [ 113.546007800000098, 38.42541360000007 ], [ 113.546888200000012, 38.424929800000029 ], [ 113.547389300000077, 38.424770400000057 ], [ 113.54798750000009, 38.424692900000025 ], [ 113.548791200000096, 38.424637400000051 ], [ 113.549203, 38.424555600000076 ], [ 113.549915400000032, 38.424150300000065 ], [ 113.550509200000079, 38.423937700000067 ], [ 113.551018100000078, 38.423904400000026 ], [ 113.5518833000001, 38.423499100000072 ], [ 113.552434600000083, 38.423432600000069 ], [ 113.553253900000072, 38.423191200000076 ], [ 113.553622100000098, 38.423140200000034 ], [ 113.553893600000038, 38.423168400000066 ], [ 113.554165, 38.423273100000074 ], [ 113.554979200000048, 38.423379500000067 ], [ 113.556056500000068, 38.423226600000078 ], [ 113.557761300000038, 38.422701600000039 ], [ 113.558923400000026, 38.422435800000073 ], [ 113.56073850000007, 38.421492200000046 ], [ 113.565310400000044, 38.42011 ], [ 113.567558100000042, 38.419093200000077 ], [ 113.570908500000087, 38.419126400000039 ], [ 113.576203300000088, 38.420681 ], [ 113.576761100000112, 38.420907400000033 ], [ 113.577185200000031, 38.421246300000064 ], [ 113.578304900000035, 38.421984 ], [ 113.578975, 38.422302900000034 ], [ 113.580145500000071, 38.422442500000045 ], [ 113.581536500000084, 38.422389300000077 ], [ 113.5823593, 38.422236500000054 ], [ 113.583877600000051, 38.421645 ], [ 113.585429800000043, 38.421272900000076 ], [ 113.58732980000002, 38.42056180000003 ], [ 113.588407, 38.420176400000059 ], [ 113.589365500000099, 38.419837500000028 ], [ 113.590815900000052, 38.418966900000044 ], [ 113.591994900000032, 38.418089700000053 ], [ 113.5925717, 38.417325400000038 ], [ 113.59248690000004, 38.416521300000056 ], [ 113.592766800000049, 38.415637400000037 ], [ 113.593343600000026, 38.414813300000048 ], [ 113.593532400000072, 38.413892300000043 ], [ 113.594143, 38.41302840000003 ], [ 113.594439800000032, 38.412357300000053 ], [ 113.594965600000023, 38.411892100000046 ], [ 113.595245500000033, 38.411353800000029 ], [ 113.594982600000094, 38.410795700000051 ], [ 113.595126700000037, 38.409752300000036 ], [ 113.595423600000117, 38.40932040000007 ], [ 113.595991800000093, 38.409227400000077 ], [ 113.597569100000101, 38.408277100000078 ], [ 113.599070200000028, 38.407831800000054 ], [ 113.599918300000013, 38.407426400000077 ], [ 113.601300600000059, 38.406728700000031 ], [ 113.602920400000016, 38.406396400000062 ], [ 113.604625, 38.406276800000057 ], [ 113.605829300000096, 38.406283400000063 ], [ 113.60724550000009, 38.406569200000035 ], [ 113.609221500000103, 38.406469500000071 ], [ 113.610247700000059, 38.406276800000057 ], [ 113.610926100000029, 38.406462800000043 ], [ 113.611833600000068, 38.406828300000029 ], [ 113.612927600000035, 38.406888200000026 ], [ 113.613224400000036, 38.407094200000074 ], [ 113.613555100000099, 38.407679 ], [ 113.613894400000049, 38.407924900000069 ], [ 113.614784800000052, 38.408895100000052 ], [ 113.615471800000023, 38.40946660000003 ], [ 113.616006, 38.410450100000048 ], [ 113.617193300000054, 38.41125420000003 ], [ 113.618032900000117, 38.411333900000045 ], [ 113.618745300000114, 38.411054800000045 ], [ 113.619067500000028, 38.410795700000051 ], [ 113.619483100000025, 38.410084600000062 ], [ 113.62126400000011, 38.408895100000052 ], [ 113.622307100000057, 38.408170700000028 ], [ 113.623112800000058, 38.407426400000077 ], [ 113.62296020000008, 38.407207100000051 ], [ 113.623214600000097, 38.40654260000008 ], [ 113.623435100000052, 38.406024200000047 ], [ 113.623384200000032, 38.405505900000037 ], [ 113.624596900000029, 38.404828 ], [ 113.62575030000005, 38.404522300000053 ], [ 113.626929100000098, 38.404369400000064 ], [ 113.627208900000028, 38.40407040000008 ], [ 113.627607500000067, 38.404050400000074 ], [ 113.628141800000094, 38.404336200000046 ], [ 113.629244300000096, 38.404681800000048 ], [ 113.629625900000065, 38.405054 ], [ 113.630007600000113, 38.405233400000043 ], [ 113.630533400000104, 38.405991 ], [ 113.63088950000008, 38.406064100000037 ], [ 113.631474700000012, 38.406456200000036 ], [ 113.631898700000079, 38.406476100000077 ], [ 113.633238700000106, 38.407260300000075 ], [ 113.634900900000048, 38.408137500000066 ], [ 113.635401200000047, 38.408343500000058 ], [ 113.6355115, 38.40860930000008 ], [ 113.635452100000066, 38.409074500000031 ], [ 113.635859200000027, 38.409300500000029 ], [ 113.636630900000114, 38.409393500000078 ] ] } },
{ "type": "Feature", "properties": { "osm_id": "226352012", "code": 8101, "fclass": "river", "width": 0, "name": "滹沱河", "Shape_Leng": 0.176457679788 }, "geometry": { "type": "LineString", "coordinates": [ [ 113.80071190000001, 38.380437500000028 ], [ 113.801655200000027, 38.381768600000044 ], [ 113.801655200000027, 38.383321500000079 ], [ 113.800334500000076, 38.386131500000033 ], [ 113.799936900000034, 38.387002300000063 ], [ 113.800609, 38.38900330000007 ], [ 113.802221300000042, 38.389606900000047 ], [ 113.804013700000041, 38.390346300000033 ], [ 113.80948520000004, 38.392416600000047 ], [ 113.811938, 38.393008100000031 ], [ 113.814202100000102, 38.391751200000044 ], [ 113.816654900000117, 38.38990270000005 ], [ 113.81673580000006, 38.386017 ], [ 113.818258600000036, 38.384578600000054 ], [ 113.81759820000002, 38.38169460000006 ], [ 113.817126600000051, 38.379624 ], [ 113.820805700000051, 38.375778400000058 ], [ 113.821937800000114, 38.373411700000077 ], [ 113.825805600000081, 38.371488800000066 ], [ 113.830333800000062, 38.370379400000047 ], [ 113.840466000000106, 38.369712200000038 ], [ 113.844186200000081, 38.369712200000038 ], [ 113.848260800000048, 38.36999 ], [ 113.8507409, 38.368045400000028 ], [ 113.8507409, 38.365823100000057 ], [ 113.8502095, 38.362489400000072 ], [ 113.851981, 38.359850100000074 ], [ 113.856232700000078, 38.359294500000033 ], [ 113.857773200000111, 38.359489300000064 ], [ 113.862113400000112, 38.357621600000073 ], [ 113.867814700000054, 38.357021700000075 ], [ 113.869812200000069, 38.354982600000028 ], [ 113.869659, 38.353123800000049 ], [ 113.873303600000099, 38.348237900000072 ], [ 113.873062400000094, 38.344846100000041 ], [ 113.871822300000076, 38.339288200000055 ], [ 113.873062400000094, 38.335258500000066 ], [ 113.87625120000007, 38.334563700000047 ], [ 113.877668400000061, 38.33261820000007 ], [ 113.87593860000004, 38.329589 ], [ 113.877540400000044, 38.326451300000031 ], [ 113.87921730000005, 38.32619040000003 ], [ 113.880070700000033, 38.327213200000074 ], [ 113.880451100000073, 38.329227900000035 ], [ 113.881946700000071, 38.329690800000037 ], [ 113.883337400000073, 38.327754300000038 ], [ 113.884931800000118, 38.325947700000029 ], [ 113.889812300000017, 38.323689700000045 ], [ 113.892563600000017, 38.322511800000029 ], [ 113.893925600000102, 38.320587700000033 ], [ 113.896341100000086, 38.317883700000039 ], [ 113.897812400000021, 38.317516200000057 ], [ 113.899317500000052, 38.316597700000045 ], [ 113.900464300000067, 38.31597910000005 ], [ 113.902757800000018, 38.315538600000025 ], [ 113.905194700000038, 38.314648200000079 ], [ 113.905565, 38.314273300000025 ], [ 113.906078600000114, 38.312923700000056 ], [ 113.906453100000022, 38.311840600000039 ] ] } },
{ "type": "Feature", "properties": { "osm_id": "457482825", "code": 8101, "fclass": "river", "width": 0, "name": "滹沱河", "Shape_Leng": 0.0014790659552599999 }, "geometry": { "type": "LineString", "coordinates": [ [ 114.305480100000068, 38.250165400000071 ], [ 114.306565, 38.251170700000046 ] ] } },
{ "type": "Feature", "properties": { "osm_id": "563146007", "code": 8101, "fclass": "river", "width": 0, "name": "滹沱河", "Shape_Leng": 0.079848217372399999 }, "geometry": { "type": "LineString", "coordinates": [ [ 114.565800600000102, 38.115606400000047 ], [ 114.576435600000082, 38.115278600000067 ], [ 114.588903500000015, 38.110045100000036 ], [ 114.59115, 38.109401800000057 ], [ 114.594248100000073, 38.108982500000025 ], [ 114.59981520000008, 38.109693200000038 ], [ 114.603374900000063, 38.109904200000074 ], [ 114.626013100000023, 38.109143 ], [ 114.631834900000058, 38.105956900000081 ], [ 114.6417662, 38.105531 ], [ 114.643578600000069, 38.105660300000068 ] ] } },
{ "type": "Feature", "properties": { "osm_id": "563146008", "code": 8101, "fclass": "river", "width": 0, "name": "滹沱河", "Shape_Leng": 0.33713081422000002 }, "geometry": { "type": "LineString", "coordinates": [ [ 114.740449900000044, 38.074243100000047 ], [ 114.741861800000038, 38.074024500000064 ], [ 114.742920400000116, 38.073805 ], [ 114.743920800000069, 38.074750600000073 ], [ 114.7463639, 38.074959600000057 ], [ 114.747603400000116, 38.074785600000041 ], [ 114.748854800000117, 38.074998500000049 ], [ 114.749598600000013, 38.074981 ], [ 114.750390300000049, 38.075430600000061 ], [ 114.751315700000077, 38.075366 ], [ 114.752253100000075, 38.075482500000078 ], [ 114.752813400000036, 38.075216500000067 ], [ 114.753362400000015, 38.074411800000064 ], [ 114.754136400000107, 38.074276800000064 ], [ 114.7553689, 38.074351 ], [ 114.757519400000092, 38.073618900000042 ], [ 114.760806400000092, 38.072142400000075 ], [ 114.761682900000096, 38.072219400000051 ], [ 114.763071200000013, 38.073189200000058 ], [ 114.764063800000031, 38.073440900000037 ], [ 114.765875, 38.073125900000036 ], [ 114.767272600000069, 38.072560200000055 ], [ 114.769034800000099, 38.071728500000063 ], [ 114.770969900000068, 38.070940900000039 ], [ 114.772167700000068, 38.071170800000061 ], [ 114.773768200000063, 38.071163700000056 ], [ 114.774801900000057, 38.071480500000064 ], [ 114.776062300000035, 38.071674800000039 ], [ 114.777567400000066, 38.073367900000051 ], [ 114.778700600000093, 38.073593800000026 ], [ 114.779416800000035, 38.073341300000038 ], [ 114.780074400000103, 38.072120200000029 ], [ 114.780683, 38.071477300000026 ], [ 114.78098650000004, 38.070603800000072 ], [ 114.782154200000036, 38.070389700000078 ], [ 114.78387680000003, 38.07081 ], [ 114.786742200000049, 38.070914 ], [ 114.790560500000083, 38.070763300000067 ], [ 114.801543800000104, 38.069079200000033 ], [ 114.804696900000067, 38.066593900000044 ], [ 114.810475100000076, 38.066522600000042 ], [ 114.815051, 38.065218800000025 ], [ 114.819479400000091, 38.06172 ], [ 114.821931100000029, 38.058594700000071 ], [ 114.824500500000113, 38.05612270000006 ], [ 114.825642600000037, 38.053920300000073 ], [ 114.826061700000082, 38.052294400000051 ], [ 114.825188700000012, 38.04891420000007 ], [ 114.823287800000116, 38.047892800000056 ], [ 114.821299600000089, 38.046717400000034 ], [ 114.820251900000017, 38.045702400000039 ], [ 114.819986800000038, 38.044982700000048 ], [ 114.820303900000113, 38.044745300000045 ], [ 114.821887200000106, 38.043133 ], [ 114.823750500000074, 38.042421600000068 ], [ 114.825271900000075, 38.04214 ], [ 114.8268663, 38.041938100000039 ], [ 114.830501600000048, 38.042544200000066 ], [ 114.831589700000109, 38.042750200000057 ], [ 114.835372500000062, 38.043392700000027 ], [ 114.837890300000026, 38.043631900000037 ], [ 114.840835, 38.043559800000025 ], [ 114.846224800000073, 38.043528500000036 ], [ 114.850301700000045, 38.042954 ], [ 114.852640600000086, 38.04246390000003 ], [ 114.854850700000043, 38.042345600000033 ], [ 114.85768320000011, 38.042362500000024 ], [ 114.860494100000096, 38.042480800000078 ], [ 114.862618400000088, 38.042818800000077 ], [ 114.867446400000063, 38.043866500000036 ], [ 114.869871100000069, 38.044255200000066 ], [ 114.872875200000067, 38.04449180000006 ], [ 114.875235500000031, 38.044914200000051 ], [ 114.876887800000077, 38.045488800000044 ], [ 114.878883300000098, 38.046435100000053 ], [ 114.881200800000101, 38.048716300000081 ], [ 114.88459110000008, 38.051791600000058 ], [ 114.890942600000017, 38.056455 ], [ 114.894418700000074, 38.058279700000071 ], [ 114.8976159, 38.059580700000026 ], [ 114.900040600000011, 38.060408500000051 ], [ 114.901607, 38.060949200000039 ], [ 114.903516700000068, 38.061641900000041 ], [ 114.904997300000105, 38.062233200000037 ], [ 114.90649940000003, 38.06258790000004 ], [ 114.908216, 38.062824500000033 ], [ 114.90978240000004, 38.062824500000033 ], [ 114.912979600000085, 38.062571100000071 ], [ 114.914395800000079, 38.062571100000071 ], [ 114.915790500000071, 38.063094800000044 ], [ 114.917786100000058, 38.064649 ], [ 114.918494200000055, 38.065679600000067 ], [ 114.920361, 38.06667630000004 ], [ 114.921155000000113, 38.066794500000071 ], [ 114.923472400000037, 38.066946600000051 ], [ 114.926197500000058, 38.066237 ], [ 114.92923380000002, 38.066203300000041 ], [ 114.930950400000029, 38.066346900000042 ], [ 114.933407300000113, 38.06705640000007 ], [ 114.933922300000063, 38.067520900000034 ], [ 114.936947800000098, 38.071879300000035 ], [ 114.937849, 38.072808400000042 ], [ 114.938406900000018, 38.073923200000024 ], [ 114.938707300000033, 38.07486920000008 ], [ 114.939243800000099, 38.07572220000003 ], [ 114.940123500000027, 38.076220500000034 ], [ 114.941561200000024, 38.076803200000029 ], [ 114.943932300000029, 38.077284600000041 ], [ 114.945294800000056, 38.077977100000055 ], [ 114.946560800000043, 38.079058200000077 ], [ 114.947354800000085, 38.079564900000037 ], [ 114.948878300000047, 38.08025740000005 ], [ 114.950788000000102, 38.080814800000041 ], [ 114.952032500000087, 38.081456600000024 ], [ 114.952826500000015, 38.082284200000061 ], [ 114.953277100000037, 38.082959800000026 ], [ 114.953963700000031, 38.083550900000034 ], [ 114.95512240000005, 38.083973200000059 ], [ 114.9572468, 38.084159 ], [ 114.958834600000046, 38.08404070000006 ], [ 114.95982170000002, 38.083686100000079 ], [ 114.962675500000046, 38.08282470000006 ], [ 114.964606700000104, 38.082807800000069 ], [ 114.967074400000115, 38.083348300000068 ], [ 114.968533500000035, 38.084260300000039 ], [ 114.969906800000103, 38.084530500000028 ], [ 114.97160190000011, 38.084547400000076 ], [ 114.972438800000077, 38.084648800000025 ], [ 114.974091, 38.085071 ], [ 114.974970800000051, 38.085628300000053 ], [ 114.975678900000048, 38.086540300000024 ], [ 114.976429900000085, 38.087435400000061 ], [ 114.977159500000084, 38.088195400000075 ], [ 114.980099200000041, 38.090120700000057 ], [ 114.981687, 38.090796200000057 ], [ 114.982974500000068, 38.090965100000062 ], [ 114.984133200000088, 38.090813100000048 ], [ 114.984970100000055, 38.090770900000052 ], [ 114.985828400000059, 38.090889100000027 ], [ 114.986729600000103, 38.091345100000069 ], [ 114.987351900000021, 38.092003700000078 ], [ 114.987846200000035, 38.092423300000064 ], [ 114.98887, 38.09270870000006 ], [ 114.98942790000001, 38.093008500000053 ], [ 114.989846300000067, 38.09347710000003 ], [ 114.990152100000046, 38.093899300000032 ], [ 114.990849500000081, 38.095284 ], [ 114.9916488, 38.096373200000073 ], [ 114.992040400000064, 38.096926300000064 ], [ 114.993698000000109, 38.098408 ], [ 114.995913500000029, 38.100628500000028 ], [ 114.999432600000091, 38.103587700000048 ], [ 115.001685600000087, 38.106019100000026 ], [ 115.003252, 38.107032100000026 ], [ 115.004046, 38.107386700000063 ], [ 115.004786200000012, 38.107825700000035 ], [ 115.008155100000067, 38.110695900000053 ], [ 115.011899500000027, 38.113532300000031 ], [ 115.013026, 38.114021800000046 ], [ 115.014613900000086, 38.114477700000066 ], [ 115.017778900000053, 38.115364 ], [ 115.019656400000031, 38.115870500000028 ], [ 115.021357800000033, 38.116809900000078 ] ] } },
{ "type": "Feature", "properties": { "osm_id": "643715049", "code": 8101, "fclass": "river", "width": 0, "name": "滹沱河", "Shape_Leng": 0.29228545371600001 }, "geometry": { "type": "LineString", "coordinates": [ [ 115.32193390000009, 38.219388200000026 ], [ 115.32577050000009, 38.220452 ], [ 115.327876800000013, 38.221023400000036 ], [ 115.3341206, 38.223505500000044 ], [ 115.337179900000024, 38.22417530000007 ], [ 115.33928620000006, 38.224569300000041 ], [ 115.345128800000111, 38.226440700000069 ], [ 115.34904060000008, 38.228272600000025 ], [ 115.350444800000105, 38.228942400000051 ], [ 115.354256300000088, 38.22975 ], [ 115.357766900000115, 38.230301500000053 ], [ 115.359321600000044, 38.230459100000076 ], [ 115.361177200000043, 38.230301500000053 ], [ 115.363810200000103, 38.229818900000055 ], [ 115.37069340000005, 38.228312 ], [ 115.371859400000062, 38.227878700000076 ], [ 115.373000400000024, 38.227258200000051 ], [ 115.373940700000048, 38.226618 ], [ 115.374768200000062, 38.226194400000054 ], [ 115.375871500000017, 38.226056600000049 ], [ 115.377025000000117, 38.226302800000042 ], [ 115.382478900000024, 38.227760500000045 ], [ 115.385513100000026, 38.228834 ], [ 115.390164600000048, 38.230094700000052 ], [ 115.392170700000065, 38.230872700000077 ], [ 115.392659600000115, 38.231128800000079 ], [ 115.39385070000003, 38.231926600000065 ], [ 115.399016300000085, 38.236318900000072 ], [ 115.402276100000108, 38.238465700000063 ], [ 115.405059500000107, 38.239933 ], [ 115.40660170000001, 38.240602600000045 ], [ 115.408419600000116, 38.241016200000047 ], [ 115.410049500000014, 38.241282100000035 ], [ 115.41571660000011, 38.242532700000027 ], [ 115.419966900000077, 38.243103800000029 ], [ 115.423816100000067, 38.243389400000069 ], [ 115.426862700000015, 38.243724200000031 ], [ 115.428893900000048, 38.24397040000008 ], [ 115.430385900000033, 38.244226400000059 ], [ 115.43230410000001, 38.244935400000031 ], [ 115.433934100000101, 38.245733 ], [ 115.441080600000078, 38.249829100000056 ], [ 115.44225920000008, 38.250794 ], [ 115.442886, 38.251483200000052 ], [ 115.446308900000076, 38.254870200000028 ], [ 115.448540600000115, 38.256041800000048 ], [ 115.452164, 38.257341300000064 ], [ 115.457116400000018, 38.259005100000024 ], [ 115.460050300000034, 38.259763200000066 ], [ 115.463272500000016, 38.260924900000077 ], [ 115.465704800000026, 38.261978200000044 ], [ 115.46747270000003, 38.262805200000059 ], [ 115.46905240000001, 38.263573 ], [ 115.473754100000065, 38.266851100000054 ], [ 115.476186400000074, 38.26924310000004 ], [ 115.481841, 38.274647100000038 ], [ 115.484260800000015, 38.276782900000057 ], [ 115.48648, 38.277944300000058 ], [ 115.489188100000092, 38.278800600000068 ], [ 115.491758400000094, 38.279066300000068 ], [ 115.497325200000091, 38.278967900000055 ], [ 115.499970600000097, 38.27840690000005 ], [ 115.501525300000026, 38.278032900000028 ], [ 115.509374, 38.276920700000062 ], [ 115.510339400000021, 38.27696990000004 ], [ 115.511630800000034, 38.27715690000008 ], [ 115.514025500000116, 38.277373400000045 ], [ 115.519354100000101, 38.277038800000071 ], [ 115.521498, 38.276802600000053 ], [ 115.523667100000011, 38.27665490000004 ], [ 115.526187200000095, 38.276438400000075 ], [ 115.532343200000014, 38.27665490000004 ], [ 115.535001200000011, 38.276930500000049 ], [ 115.536769100000015, 38.27712740000004 ], [ 115.542649300000107, 38.278525 ], [ 115.544467300000065, 38.279007300000046 ], [ 115.546862, 38.279528900000059 ], [ 115.5487051, 38.279696200000046 ], [ 115.550548100000015, 38.279735600000038 ], [ 115.552052600000025, 38.279489500000068 ], [ 115.55734480000001, 38.278403 ], [ 115.561065700000086, 38.27652930000005 ], [ 115.564906600000086, 38.274659500000041 ], [ 115.569241, 38.273648800000046 ], [ 115.573596900000098, 38.273177100000055 ], [ 115.579283200000077, 38.272991800000057 ], [ 115.584433100000069, 38.273193900000024 ], [ 115.58788770000001, 38.273581400000069 ], [ 115.589969100000076, 38.273935100000074 ], [ 115.591921800000023, 38.274120400000072 ], [ 115.592823, 38.274086700000055 ], [ 115.595262200000093, 38.27383240000006 ] ] } },
{ "type": "Feature", "properties": { "osm_id": "857210035", "code": 8101, "fclass": "river", "width": 0, "name": "滹沱河", "Shape_Leng": 0.0790833255313 }, "geometry": { "type": "LineString", "coordinates": [ [ 114.497533200000021, 38.151969300000076 ], [ 114.497759200000019, 38.151877800000079 ], [ 114.497939, 38.151774 ], [ 114.498202000000106, 38.151597200000026 ], [ 114.503298300000097, 38.146220800000037 ], [ 114.510558, 38.140266200000042 ], [ 114.524056700000074, 38.134155300000032 ], [ 114.539754800000082, 38.124211400000036 ], [ 114.5460749, 38.122276900000031 ], [ 114.547576900000081, 38.122479500000054 ], [ 114.548510300000089, 38.122462600000063 ], [ 114.549207700000011, 38.122217900000066 ], [ 114.550162500000056, 38.121323200000063 ], [ 114.55145, 38.120470700000055 ], [ 114.551932800000031, 38.119533800000056 ], [ 114.565800600000102, 38.115606400000047 ] ] } },
{ "type": "Feature", "properties": { "osm_id": "857210036", "code": 8101, "fclass": "river", "width": 0, "name": "滹沱河", "Shape_Leng": 0.0010838876047799999 }, "geometry": { "type": "LineString", "coordinates": [ [ 114.496527700000115, 38.152374 ], [ 114.497533200000021, 38.151969300000076 ] ] } },
{ "type": "Feature", "properties": { "osm_id": "968940020", "code": 8101, "fclass": "river", "width": 0, "name": "滹沱河", "Shape_Leng": 0.000134551402776 }, "geometry": { "type": "LineString", "coordinates": [ [ 114.643578600000069, 38.105660300000068 ], [ 114.643712400000027, 38.105646100000058 ] ] } },
{ "type": "Feature", "properties": { "osm_id": "1029108925", "code": 8101, "fclass": "river", "width": 0, "name": "滹沱河", "Shape_Leng": 0.12070758221199999 }, "geometry": { "type": "LineString", "coordinates": [ [ 115.030411800000024, 38.131859500000076 ], [ 115.032433, 38.135964700000045 ], [ 115.034767500000044, 38.139301800000055 ], [ 115.035730100000023, 38.140623400000038 ], [ 115.036888300000101, 38.141714 ], [ 115.038177100000098, 38.142381200000045 ], [ 115.041766200000097, 38.144369900000072 ], [ 115.043887, 38.145216700000049 ], [ 115.046431900000016, 38.145768400000065 ], [ 115.049058500000115, 38.146409900000037 ], [ 115.054376800000114, 38.148257300000068 ], [ 115.056432300000097, 38.149181 ], [ 115.060461800000098, 38.152721800000052 ], [ 115.061799600000086, 38.154363900000078 ], [ 115.062680500000056, 38.155287500000043 ], [ 115.064116100000092, 38.15617270000007 ], [ 115.064356800000041, 38.156652600000029 ], [ 115.064450700000066, 38.156701100000078 ], [ 115.064559300000042, 38.156716900000049 ], [ 115.064710800000057, 38.156661 ], [ 115.064934900000026, 38.15661620000003 ], [ 115.065308600000094, 38.156739300000027 ], [ 115.066357500000095, 38.156710600000054 ], [ 115.069303900000023, 38.157365700000071 ], [ 115.076465700000085, 38.158879300000081 ], [ 115.07831090000002, 38.158434800000066 ], [ 115.080050800000095, 38.158567 ], [ 115.080843, 38.160375100000067 ], [ 115.084297600000014, 38.160324500000058 ], [ 115.08623440000008, 38.160034100000075 ], [ 115.088074200000051, 38.159143400000062 ], [ 115.090316500000085, 38.158738500000027 ], [ 115.091024600000083, 38.157641800000079 ], [ 115.091582500000072, 38.157025900000065 ], [ 115.092172600000026, 38.156831900000043 ], [ 115.09297730000003, 38.15679810000006 ], [ 115.093503, 38.156975300000056 ], [ 115.093964300000039, 38.157439300000078 ], [ 115.094375500000069, 38.157455600000048 ], [ 115.095509300000117, 38.157329600000025 ], [ 115.097188500000016, 38.157598600000028 ], [ 115.100644200000033, 38.157745400000067 ], [ 115.107407, 38.157561800000053 ], [ 115.108739, 38.158042 ], [ 115.109300400000052, 38.157994200000076 ], [ 115.110294200000112, 38.157725800000037 ], [ 115.11166, 38.157724700000074 ], [ 115.11209980000001, 38.157528900000045 ], [ 115.112236300000063, 38.157296300000041 ], [ 115.112350100000072, 38.156658 ], [ 115.112759800000049, 38.156377600000042 ], [ 115.113336400000094, 38.156574500000033 ], [ 115.113981200000012, 38.156675900000039 ], [ 115.114724700000011, 38.157135200000027 ], [ 115.115300500000103, 38.157185600000048 ], [ 115.116097800000034, 38.157242600000075 ], [ 115.116431600000055, 38.157570700000065 ], [ 115.116811, 38.157696 ], [ 115.117215700000088, 38.158044400000051 ], [ 115.119241500000044, 38.158443200000079 ], [ 115.11990650000007, 38.158169600000065 ], [ 115.120695200000114, 38.158093100000031 ], [ 115.121097600000098, 38.158228100000031 ], [ 115.121639800000025, 38.158214200000032 ], [ 115.122265600000105, 38.158018100000049 ], [ 115.122607, 38.157463300000074 ], [ 115.12245530000007, 38.156938400000058 ], [ 115.122508400000015, 38.156574500000033 ], [ 115.123191200000065, 38.156300100000067 ], [ 115.123934600000098, 38.156252300000062 ], [ 115.125414, 38.156485 ], [ 115.126210600000036, 38.156312 ], [ 115.127720300000078, 38.156831 ], [ 115.128489700000046, 38.15690150000006 ], [ 115.129522400000042, 38.157241 ], [ 115.130626500000062, 38.157253400000059 ], [ 115.131354200000033, 38.15698610000004 ], [ 115.131999, 38.156443200000069 ], [ 115.132500500000106, 38.155343100000039 ], [ 115.133212100000037, 38.15461490000007 ], [ 115.133376700000099, 38.154438 ], [ 115.133591300000035, 38.15421020000008 ], [ 115.133634500000085, 38.154087900000036 ] ] } },
{ "type": "Feature", "properties": { "osm_id": "1029108926", "code": 8101, "fclass": "river", "width": 0, "name": "滹沱河", "Shape_Leng": 0.21823087121199999 }, "geometry": { "type": "LineString", "coordinates": [ [ 115.133634500000085, 38.154087900000036 ], [ 115.134348500000101, 38.153537300000039 ], [ 115.134813200000053, 38.15344250000004 ], [ 115.135518700000034, 38.153469600000051 ], [ 115.136026400000105, 38.15333430000004 ], [ 115.136706200000049, 38.153192200000035 ], [ 115.137626800000021, 38.15344250000004 ], [ 115.138401300000055, 38.154024400000026 ], [ 115.138590600000043, 38.15436950000003 ], [ 115.138900300000046, 38.154484500000081 ], [ 115.139932900000076, 38.15457930000008 ], [ 115.140268500000047, 38.154660500000034 ], [ 115.140690100000029, 38.154680800000051 ], [ 115.141774300000066, 38.154389800000047 ], [ 115.141875500000083, 38.154372100000046 ], [ 115.142084, 38.154335700000047 ], [ 115.142497, 38.154471 ], [ 115.143968400000063, 38.154545400000075 ], [ 115.145551700000055, 38.154721400000028 ], [ 115.146541200000115, 38.155005500000073 ], [ 115.147418900000048, 38.155201700000077 ], [ 115.148683700000106, 38.155140900000049 ], [ 115.1490751, 38.154972200000032 ], [ 115.1498712, 38.154877 ], [ 115.150748800000088, 38.155100300000072 ], [ 115.15129950000005, 38.155357400000071 ], [ 115.1518072, 38.155458900000042 ], [ 115.152366500000085, 38.155492700000025 ], [ 115.152727900000059, 38.155492700000025 ], [ 115.152986, 38.15558070000003 ], [ 115.153261400000019, 38.155756600000075 ], [ 115.153614200000106, 38.155885100000035 ], [ 115.154061600000091, 38.156000100000028 ], [ 115.154423, 38.15631140000005 ], [ 115.155068300000039, 38.15664970000006 ], [ 115.155687900000089, 38.156879700000047 ], [ 115.156204100000082, 38.1569 ], [ 115.156780600000047, 38.156724100000076 ], [ 115.158269200000063, 38.156216700000073 ], [ 115.159181300000114, 38.156176100000039 ], [ 115.159878300000059, 38.156034 ], [ 115.160334300000045, 38.155993400000057 ], [ 115.16079040000011, 38.156135500000062 ], [ 115.160885, 38.156379 ], [ 115.161539, 38.156622600000048 ], [ 115.161952, 38.156541400000037 ], [ 115.162442500000111, 38.156555 ], [ 115.163010400000076, 38.156615900000077 ], [ 115.163440600000058, 38.156365500000049 ], [ 115.1641634, 38.156128700000068 ], [ 115.164903400000071, 38.156006900000079 ], [ 115.165376600000059, 38.156034 ], [ 115.166022000000112, 38.155959600000074 ], [ 115.167123300000071, 38.155925700000068 ], [ 115.167915000000107, 38.156121900000073 ], [ 115.168920800000024, 38.156619100000057 ], [ 115.169592, 38.15693710000005 ], [ 115.170684700000038, 38.157173900000032 ], [ 115.17160540000009, 38.157207700000072 ], [ 115.172164700000053, 38.157058900000038 ], [ 115.173395200000073, 38.156693500000074 ], [ 115.174436300000025, 38.156263900000056 ], [ 115.17542590000005, 38.156077800000048 ], [ 115.176191700000118, 38.156077800000048 ], [ 115.176965900000027, 38.15598 ], [ 115.177507300000116, 38.155673300000046 ], [ 115.178168100000107, 38.155322700000056 ], [ 115.179083700000092, 38.155266300000051 ], [ 115.180644200000074, 38.155166200000053 ], [ 115.181742900000017, 38.155034700000044 ], [ 115.18328740000004, 38.154684100000054 ], [ 115.184179200000017, 38.154609 ], [ 115.184792200000061, 38.154546400000072 ], [ 115.185230100000012, 38.154508800000031 ], [ 115.185683900000072, 38.15469040000005 ], [ 115.186273100000108, 38.154972100000066 ], [ 115.186981700000047, 38.155078500000059 ], [ 115.18782560000011, 38.155034700000044 ], [ 115.188120200000071, 38.154671600000029 ], [ 115.188319200000024, 38.154321 ], [ 115.188988000000109, 38.154245900000035 ], [ 115.189959300000055, 38.154245900000035 ], [ 115.191336700000079, 38.154421200000058 ], [ 115.193096200000014, 38.154890700000067 ], [ 115.194887600000015, 38.155422900000076 ], [ 115.197698100000025, 38.156086500000072 ], [ 115.198780900000088, 38.156418300000041 ], [ 115.199226700000054, 38.156574800000044 ], [ 115.200118400000065, 38.157319800000039 ], [ 115.201153400000067, 38.15789570000004 ], [ 115.202670300000023, 38.159233 ], [ 115.206268900000055, 38.16111520000004 ], [ 115.209465900000055, 38.162833 ], [ 115.211234500000046, 38.165085100000056 ], [ 115.212606800000117, 38.165941200000077 ], [ 115.214391400000068, 38.166475600000069 ], [ 115.215979500000117, 38.167161300000032 ], [ 115.217450400000075, 38.168444500000078 ], [ 115.218155700000011, 38.170749400000034 ], [ 115.221581100000094, 38.174725400000057 ], [ 115.225117400000045, 38.178669500000069 ], [ 115.227192800000012, 38.179390200000057 ], [ 115.229167400000051, 38.179556500000047 ], [ 115.23046690000001, 38.179325400000039 ], [ 115.235162, 38.18077610000006 ], [ 115.236814200000026, 38.182209500000056 ], [ 115.237670600000115, 38.183777500000076 ], [ 115.237962800000105, 38.184506100000078 ], [ 115.238758700000062, 38.184561500000029 ], [ 115.240259800000103, 38.184133900000063 ], [ 115.241831500000103, 38.184387300000026 ], [ 115.242869200000086, 38.18603440000004 ], [ 115.245236800000043, 38.187515200000064 ], [ 115.246224100000063, 38.188315 ], [ 115.245932, 38.190065 ], [ 115.245680100000072, 38.191680400000052 ], [ 115.247201400000108, 38.193137300000046 ], [ 115.250767900000028, 38.195235600000046 ], [ 115.253271500000096, 38.196023400000058 ], [ 115.254969100000039, 38.196890400000029 ], [ 115.255785100000026, 38.197682200000031 ], [ 115.256722100000047, 38.19813350000004 ], [ 115.258324, 38.198339300000043 ], [ 115.259472500000015, 38.198671900000079 ], [ 115.261165100000085, 38.199439900000073 ], [ 115.262233, 38.200144500000079 ], [ 115.263049100000103, 38.200397900000041 ], [ 115.263754300000073, 38.200421600000027 ], [ 115.264923, 38.200136600000064 ], [ 115.266132, 38.199812 ], [ 115.267391300000099, 38.200223700000038 ], [ 115.268217500000105, 38.200405800000055 ], [ 115.269889900000067, 38.199946600000033 ], [ 115.271381, 38.199637800000062 ], [ 115.272640300000035, 38.199717 ], [ 115.274463800000035, 38.200120800000036 ], [ 115.275229500000023, 38.200508700000057 ], [ 115.275521700000013, 38.200928300000044 ], [ 115.275975100000096, 38.20115 ], [ 115.276509, 38.201229200000057 ], [ 115.277103500000067, 38.201047100000039 ], [ 115.277546700000016, 38.200896700000044 ], [ 115.277899400000024, 38.200833300000056 ], [ 115.278393, 38.20100750000006 ], [ 115.27925950000008, 38.201458800000069 ], [ 115.281052800000111, 38.202179300000068 ], [ 115.282402800000114, 38.20290760000006 ], [ 115.282936800000016, 38.203422200000034 ], [ 115.283561400000053, 38.203936800000065 ], [ 115.284528600000044, 38.205076900000051 ], [ 115.28534470000011, 38.205789400000072 ], [ 115.286281600000052, 38.20631190000006 ], [ 115.287248800000043, 38.206422700000076 ], [ 115.289243600000077, 38.206446500000027 ], [ 115.29060370000002, 38.206699800000024 ], [ 115.292155200000025, 38.206414800000061 ], [ 115.293001500000059, 38.205955600000038 ], [ 115.294371700000056, 38.205417300000079 ], [ 115.295107200000075, 38.205425200000036 ], [ 115.296003800000108, 38.205781500000057 ], [ 115.296900500000106, 38.206375200000025 ], [ 115.297081800000115, 38.206969 ], [ 115.297595600000022, 38.207760600000029 ], [ 115.298169900000062, 38.208243500000037 ], [ 115.2988348, 38.208441400000027 ], [ 115.299661, 38.208322700000053 ], [ 115.300416600000062, 38.208433500000069 ], [ 115.301061400000094, 38.208710600000074 ], [ 115.301635600000054, 38.209336 ], [ 115.302340900000104, 38.209811 ], [ 115.30357, 38.210119700000064 ], [ 115.305212200000028, 38.210293900000067 ], [ 115.306300300000089, 38.210594700000058 ], [ 115.307197, 38.210879700000078 ], [ 115.30855710000003, 38.211924600000032 ], [ 115.309715700000083, 38.212771600000053 ], [ 115.311206700000071, 38.214069800000061 ], [ 115.312456000000111, 38.215067200000078 ], [ 115.315518800000063, 38.216492 ], [ 115.317281800000046, 38.217481500000076 ], [ 115.318823300000076, 38.218035500000042 ], [ 115.320334500000058, 38.218842900000027 ], [ 115.32193390000009, 38.219388200000026 ] ] } },
{ "type": "Feature", "properties": { "osm_id": "1074334465", "code": 8101, "fclass": "river", "width": 0, "name": "滹沱河", "Shape_Leng": 0.112723432911 }, "geometry": { "type": "LineString", "coordinates": [ [ 115.595262200000093, 38.27383240000006 ], [ 115.597412, 38.274338700000044 ], [ 115.602364100000045, 38.273410900000044 ], [ 115.605402900000058, 38.273543500000073 ], [ 115.607935200000043, 38.27319 ], [ 115.610974, 38.271643800000049 ], [ 115.6137314, 38.271732100000065 ], [ 115.614575500000115, 38.271378700000071 ], [ 115.616826500000116, 38.272218100000032 ], [ 115.617895700000076, 38.273145900000031 ], [ 115.622341400000096, 38.273013300000059 ], [ 115.625661500000092, 38.271997200000044 ], [ 115.626843300000019, 38.272218100000032 ], [ 115.627237200000081, 38.272925 ], [ 115.634834200000114, 38.276370800000052 ], [ 115.637141400000019, 38.278977200000043 ], [ 115.642206100000067, 38.280920900000069 ], [ 115.643613, 38.282069400000069 ], [ 115.649746800000116, 38.284366400000067 ], [ 115.65638720000004, 38.286045 ], [ 115.660213800000065, 38.28631 ], [ 115.663140100000078, 38.287723400000061 ], [ 115.667585700000018, 38.288297600000078 ], [ 115.673494500000061, 38.288386 ], [ 115.677377400000069, 38.28798850000004 ], [ 115.68092270000011, 38.288165100000072 ], [ 115.682554600000117, 38.288430100000028 ], [ 115.684918100000118, 38.287590900000055 ], [ 115.686437500000011, 38.286928400000079 ], [ 115.689251200000058, 38.287149200000044 ], [ 115.691502200000059, 38.287193400000035 ], [ 115.69397820000006, 38.288474300000075 ], [ 115.694991200000118, 38.289313500000048 ], [ 115.696229200000062, 38.289534400000036 ], [ 115.698311300000114, 38.289004400000067 ], [ 115.700618600000098, 38.289048500000035 ], [ 115.701559700000075, 38.289096200000074 ] ] } },
{ "type": "Feature", "properties": { "osm_id": "1074334466", "code": 8101, "fclass": "river", "width": 0, "name": "滹沱河", "Shape_Leng": 0.000147790425932 }, "geometry": { "type": "LineString", "coordinates": [ [ 115.701559700000075, 38.289096200000074 ], [ 115.701707300000066, 38.289103700000055 ] ] } },
{ "type": "Feature", "properties": { "osm_id": "1132435524", "code": 8101, "fclass": "river", "width": 0, "name": "滹沱河", "Shape_Leng": 0.0155320159836 }, "geometry": { "type": "LineString", "coordinates": [ [ 114.643712400000027, 38.105646100000058 ], [ 114.647966600000018, 38.105039800000043 ], [ 114.651989900000103, 38.10428840000003 ], [ 114.65640970000004, 38.10246230000007 ], [ 114.657844600000089, 38.100588900000048 ] ] } },
{ "type": "Feature", "properties": { "osm_id": "1132435525", "code": 8101, "fclass": "river", "width": 0, "name": "滹沱河", "Shape_Leng": 0.00041578285195099999 }, "geometry": { "type": "LineString", "coordinates": [ [ 114.657844600000089, 38.100588900000048 ], [ 114.658221900000058, 38.100414200000046 ] ] } },
{ "type": "Feature", "properties": { "osm_id": "1383492740", "code": 8101, "fclass": "river", "width": 0, "name": "滹沱河", "Shape_Leng": 0.056416556059 }, "geometry": { "type": "LineString", "coordinates": [ [ 114.658221900000058, 38.100414200000046 ], [ 114.662398400000029, 38.101107800000079 ], [ 114.667332200000033, 38.099509900000044 ], [ 114.669579000000113, 38.098474900000042 ], [ 114.672280800000067, 38.097965200000033 ], [ 114.67491670000004, 38.097574100000031 ], [ 114.6781304000001, 38.097980800000073 ], [ 114.68028680000009, 38.098825800000043 ], [ 114.682103, 38.100255 ], [ 114.684282, 38.101237200000071 ], [ 114.6867803, 38.102131500000041 ], [ 114.689408400000048, 38.102262 ], [ 114.691931700000055, 38.101675300000068 ], [ 114.693277600000101, 38.100926900000047 ], [ 114.694869500000095, 38.100018400000067 ], [ 114.696933100000024, 38.099310500000058 ], [ 114.701299600000084, 38.097686200000055 ], [ 114.702136500000051, 38.09677430000005 ], [ 114.702415400000064, 38.095963700000027 ], [ 114.702951900000016, 38.094427 ], [ 114.704217900000117, 38.09354890000003 ], [ 114.706084700000019, 38.093126700000028 ], [ 114.70859530000007, 38.091488600000048 ], [ 114.708864700000049, 38.090965600000061 ] ] } },
{ "type": "Feature", "properties": { "osm_id": "1383492741", "code": 8101, "fclass": "river", "width": 0, "name": "滹沱河", "Shape_Leng": 0.00038688464687600002 }, "geometry": { "type": "LineString", "coordinates": [ [ 114.708864700000049, 38.090965600000061 ], [ 114.709063, 38.090633400000058 ] ] } },
{ "type": "Feature", "properties": { "osm_id": "1383492742", "code": 8101, "fclass": "river", "width": 0, "name": "滹沱河", "Shape_Leng": 0.039599078469099998 }, "geometry": { "type": "LineString", "coordinates": [ [ 114.709063, 38.090633400000058 ], [ 114.709560800000077, 38.089799800000037 ], [ 114.710955600000034, 38.087165200000072 ], [ 114.7112131, 38.085729700000059 ], [ 114.710998500000073, 38.084294100000079 ], [ 114.710762500000101, 38.083449600000051 ], [ 114.711926600000083, 38.08238810000006 ], [ 114.713007400000038, 38.08183530000008 ], [ 114.714251200000035, 38.081098200000042 ], [ 114.715221400000019, 38.08041460000004 ], [ 114.716470200000117, 38.079581800000028 ], [ 114.718594500000108, 38.078889300000071 ], [ 114.720568600000092, 38.077386 ], [ 114.72196340000005, 38.076355600000056 ], [ 114.724645800000076, 38.075966100000073 ], [ 114.72715160000007, 38.075645200000054 ], [ 114.727878300000043, 38.075568400000066 ], [ 114.729194800000073, 38.075565500000039 ], [ 114.730327400000078, 38.075505200000066 ], [ 114.73156890000007, 38.075284300000078 ], [ 114.732177200000024, 38.074801600000058 ], [ 114.73271370000009, 38.074092200000052 ], [ 114.735059800000045, 38.073613300000034 ], [ 114.736369300000092, 38.073703800000033 ], [ 114.737305600000013, 38.073855700000024 ], [ 114.7384, 38.07443 ], [ 114.739646500000049, 38.074327900000071 ] ] } },
{ "type": "Feature", "properties": { "osm_id": "1383492743", "code": 8101, "fclass": "river", "width": 0, "name": "滹沱河", "Shape_Leng": 0.00080832285014499996 }, "geometry": { "type": "LineString", "coordinates": [ [ 114.739646500000049, 38.074327900000071 ], [ 114.740188100000069, 38.074283600000058 ], [ 114.740449900000044, 38.074243100000047 ] ] } }
]
}
