{
  "type" : "FeatureCollection",
  "features" : [{"type":"Feature","id":0,"geometry":{"type":"LineString","coordinates":[[118.57818230000009,36.172207000000071],[118.5776049000001,36.171918500000061],[118.57668390000003,36.172129300000051],[118.5759690000001,36.172617600000024],[118.57565290000002,36.173216800000034],[118.57537790000003,36.173782700000061],[118.57466310000007,36.174060200000042],[118.57400320000011,36.174437500000067],[118.57323340000005,36.174315400000069],[118.57290350000005,36.174115700000073],[118.57184500000005,36.174015800000063],[118.5701954000001,36.173893700000065],[118.56921940000007,36.17419330000007],[118.56847700000003,36.174459700000057],[118.56779600000004,36.174715700000036],[118.56730860000005,36.174437500000067],[118.56674490000012,36.173638500000038],[118.56637380000006,36.173227900000029],[118.56594760000007,36.172817300000077],[118.56574140000009,36.172306900000024],[118.56575520000001,36.17186300000003],[118.56605760000002,36.171175000000062],[118.56604390000007,36.170708900000079],[118.56570020000004,36.17014290000003],[118.56516410000006,36.169110800000055],[118.56477910000001,36.168345100000067],[118.56405060000009,36.168034400000067],[118.56350610000004,36.168098500000042],[118.56339070000001,36.16811210000003],[118.56270340000003,36.168533800000034],[118.56227720000004,36.168622600000049],[118.56169990000001,36.16850050000005],[118.5606001000001,36.168411700000036],[118.55950040000005,36.168156500000066],[118.5583319000001,36.167845700000044],[118.55675100000008,36.168689100000051],[118.5562546000001,36.168561900000043],[118.5558850000001,36.168467200000066],[118.55477150000002,36.16842280000003],[118.55283320000001,36.168567100000075],[118.55148600000007,36.168400600000041],[118.54997390000005,36.168034400000067],[118.54877790000012,36.167446200000029],[118.54754070000001,36.167468400000075],[118.54694960000006,36.168300700000032],[118.54664710000009,36.169676800000047],[118.54615230000002,36.170964100000049],[118.54617980000012,36.171829700000046],[118.54635850000011,36.173316700000044],[118.54722450000008,36.174459700000057],[118.54787060000001,36.175957700000026],[118.54842050000002,36.177289300000041],[118.54910780000012,36.178665200000069],[118.54930030000003,36.179508500000054],[118.54964390000009,36.180362900000034],[118.54932780000001,36.180884400000025],[118.54855800000007,36.181195100000025],[118.54782940000007,36.181206200000076],[118.54666090000001,36.181261600000028],[118.54615380000007,36.181317900000067],[118.54556120000007,36.181383700000026],[118.54440640000007,36.182005100000026],[118.54337540000006,36.182271400000047],[118.54226190000009,36.182149300000049],[118.54063980000001,36.182193700000028],[118.53944380000007,36.182471100000043],[118.53757430000007,36.182837200000051],[118.53516860000002,36.183613900000068],[118.53369770000006,36.184146500000054],[118.53269420000004,36.184845500000051],[118.53126450000002,36.185600000000079],[118.53013730000009,36.185844100000054],[118.52848770000003,36.185877300000072],[118.52831230000004,36.185773700000027],[118.52771780000012,36.18542240000005],[118.52586200000007,36.184568100000035],[118.52472100000011,36.183980100000042],[118.52437740000005,36.183469700000046],[118.52330510000002,36.183292100000074],[118.52271400000006,36.183403100000078],[118.52144930000009,36.183835800000054],[118.52047330000005,36.184057700000039],[118.51956600000005,36.184068800000034],[118.51828750000004,36.183858000000043],[118.5176689000001,36.183580600000028],[118.51727030000006,36.182060500000034],[118.51672040000005,36.181261600000028],[118.51619800000003,36.181006400000058],[118.51508450000006,36.181383700000026],[118.51339370000005,36.182171500000038],[118.51129040000001,36.183436400000062],[118.50893970000004,36.184079900000029],[118.50745510000002,36.184412800000075],[118.50509060000002,36.184213100000079],[118.50301490000004,36.183846900000049],[118.49975690000008,36.183281000000079],[118.49212740000007,36.182071600000029],[118.48690360000001,36.181394800000078],[118.4823947000001,36.180806700000062],[118.47729470000002,36.180074400000024],[118.47395420000009,36.179741500000034],[118.47109490000003,36.179430800000034],[118.46984390000011,36.179375300000061],[118.46905890000005,36.179870100000073],[118.46884040000009,36.180007800000055],[118.46855170000003,36.180751200000032],[118.46864790000006,36.181283800000074],[118.46903280000004,36.182071600000029],[118.46961020000003,36.18380250000007],[118.47108110000011,36.185844100000054],[118.47171350000008,36.188784200000043],[118.47167220000006,36.190515000000062],[118.47106740000004,36.19185740000006],[118.47002260000011,36.192778200000078],[118.46921150000003,36.192966800000079],[118.46829050000008,36.192800400000067],[118.46743960000003,36.192442100000051],[118.46555130000002,36.19410460000006],[118.46274030000006,36.196251800000027],[118.4619249000001,36.197308100000043],[118.46203220000007,36.198849200000041],[118.46304070000008,36.200269100000071],[118.46434970000007,36.201394600000071],[118.46574440000006,36.202520100000072],[118.46818850000011,36.205831400000079],[118.46922060000009,36.207229600000062],[118.46917760000008,36.210294100000056],[118.46894160000011,36.213375800000051],[118.46907040000008,36.217409500000031],[118.46902740000007,36.220040800000049],[118.46975700000007,36.22158150000007],[118.47117320000007,36.223399100000051],[118.47261090000006,36.224818500000026],[118.47304000000008,36.225424400000065],[118.47321170000009,36.226791800000058],[118.4733404000001,36.22812470000008],[118.47364080000011,36.229180500000041],[118.47439190000011,36.229976700000066],[118.47606560000008,36.230149800000049],[118.47836150000001,36.230184400000041],[118.47988500000008,36.229803600000025],[118.48127980000004,36.228782400000057],[118.48278180000011,36.227466900000024],[118.48391910000009,36.226463000000024],[118.48531380000009,36.225995600000033],[118.48724500000003,36.22604750000005],[118.49029200000007,36.226705300000049],[118.49336040000003,36.227432300000032],[118.4955920000001,36.22795160000004],[118.49745890000008,36.228661300000056],[118.49868190000007,36.229647900000032],[118.49964750000004,36.231257600000049],[118.50061310000001,36.235221100000047],[118.50166460000003,36.239028700000063],[118.50267310000004,36.241520900000069],[118.50355280000008,36.243078400000059],[118.50550550000003,36.250848400000052],[118.50672860000009,36.256143400000042],[118.5077371000001,36.259776900000077],[118.50853100000006,36.263635200000067],[118.50876700000003,36.266316900000049],[118.50898160000008,36.27100530000007],[118.50943220000011,36.274292200000048],[118.50981850000005,36.27640260000004],[118.50992580000002,36.27802870000005],[118.50889580000012,36.279948700000034],[118.50823060000005,36.281851500000073],[118.50863830000003,36.283131500000025],[118.50981850000005,36.283857900000044],[118.51183550000007,36.284186600000055],[118.51550480000003,36.284930300000042],[118.51767200000006,36.286106500000074],[118.51822990000005,36.287991800000043],[118.51790800000003,36.289444600000024],[118.51715700000011,36.291762200000051],[118.51473230000011,36.294477500000028],[118.5124148000001,36.296933300000035],[118.51136340000005,36.298541600000078],[118.51125610000008,36.301135700000032],[118.51198570000008,36.302864900000031],[118.51533310000002,36.305718200000058],[118.52016110000011,36.309833600000047],[118.52305790000003,36.31211600000006],[118.52389470000003,36.31339550000007],[118.52406640000004,36.315366600000061],[118.52393760000007,36.317164700000035],[118.52295060000006,36.317977300000052],[118.52078330000006,36.31837500000006],[118.51812260000008,36.317994600000077],[118.51507560000005,36.317510500000026],[118.51284400000009,36.317683400000078],[118.51121320000004,36.31813290000008],[118.5108699000001,36.319550600000071],[118.5115780000001,36.321106600000064],[118.51363790000005,36.324166700000035],[118.51451770000006,36.325670700000046],[118.51737160000005,36.329456600000071],[118.52056880000009,36.334227600000077],[118.52243560000011,36.337235300000032],[118.52340120000008,36.339223000000061],[118.52389470000003,36.341400900000053],[118.52447410000002,36.343198400000063],[118.52561130000004,36.344926800000053],[118.52822920000006,36.34672420000004],[118.53123320000009,36.348003100000028],[118.53355070000009,36.349126500000068],[118.53406560000008,36.350751000000059],[118.53303570000003,36.352029900000048],[118.53114740000001,36.352755700000046],[118.52537530000006,36.353412400000025],[118.52213520000009,36.353809900000044],[118.52078330000006,36.354604800000061],[118.52003230000003,36.355883600000027],[118.52020400000004,36.357266100000061],[118.52166310000007,36.35866580000004],[118.52597610000009,36.362242800000047],[118.53209800000002,36.366466500000058],[118.53481670000008,36.368342200000029],[118.53490250000004,36.37316270000008],[118.53194130000008,36.377309100000048],[118.53119030000005,36.382422700000063],[118.53070840000009,36.384154400000057],[118.52591170000005,36.401388300000065],[118.52498700000001,36.404098000000033],[118.52443800000003,36.405195700000036],[118.52350510000008,36.407061100000078],[118.52266820000011,36.409081600000036],[118.52235420000011,36.41073300000005],[118.5207663000001,36.412356200000033],[118.51141080000002,36.416034300000035],[118.50729090000004,36.421007200000076],[118.50814920000005,36.432195100000058],[118.50810310000008,36.433171300000026],[118.5076342000001,36.443105200000048],[118.50911240000005,36.451603300000045],[118.50979440000003,36.453673400000071],[118.51049720000003,36.454630300000076],[118.51104110000006,36.455396500000063],[118.51153250000004,36.455935600000032],[118.5118030000001,36.456334200000072],[118.51220590000003,36.456322200000045],[118.51296580000007,36.45686500000005],[118.51363350000008,36.45748210000005],[118.51438410000003,36.458186000000069],[118.51475360000006,36.458384100000046],[118.51499840000008,36.458441500000049],[118.51522640000007,36.45841930000006],[118.51612370000009,36.458909900000037],[118.51625120000006,36.459012100000052],[118.51619720000008,36.459151700000064],[118.51627440000004,36.459279000000038],[118.51652100000001,36.459344700000031],[118.51685670000006,36.459354900000051],[118.51715420000005,36.459387800000059],[118.5174257000001,36.459544900000026],[118.51784930000008,36.459594200000026],[118.5183899000001,36.459819300000049],[118.51895080000008,36.460099600000035],[118.51983010000004,36.460431800000038],[118.52092190000008,36.460826100000077],[118.52264960000002,36.461270400000046],[118.52302540000005,36.461311300000034],[118.5233578000001,36.461452500000064],[118.52353730000004,36.461599700000079],[118.52425500000004,36.461747000000059],[118.52421780000009,36.462107500000059],[118.52488570000003,36.462289200000043],[118.52617740000005,36.462588500000038],[118.5277023000001,36.462757000000067],[118.52866690000008,36.462965300000064],[118.52978590000009,36.463463300000058],[118.5322675000001,36.464567600000066],[118.53297580000003,36.464906900000074],[118.53349220000007,36.465220700000032],[118.53437150000002,36.465858000000026],[118.53475520000006,36.466302600000063],[118.53520810000009,36.466568000000052],[118.53717670000003,36.46840960000003],[118.54037590000007,36.474434300000041],[118.53096540000001,36.492417700000033],[118.53180010000005,36.496087900000077],[118.53467200000011,36.499821000000054],[118.53492840000001,36.500392400000067],[118.54505640000002,36.506049800000028],[118.55449780000004,36.515845800000079],[118.55737760000011,36.522688300000027],[118.55844600000012,36.525226700000076],[118.56119260000003,36.52702000000005],[118.56250320000004,36.531444800000031],[118.56411080000009,36.545088400000054],[118.56397590000006,36.552266700000075],[118.56604540000001,36.559534800000051],[118.56664550000005,36.560687700000074],[118.56558460000008,36.564338500000076],[118.56627750000007,36.564364700000056],[118.56584480000004,36.566104100000075],[118.56473960000005,36.567980300000045],[118.56308080000008,36.570184100000063],[118.56269900000007,36.570712000000071],[118.56164580000006,36.572168300000044],[118.56105930000001,36.572979300000043],[118.55949210000006,36.574900700000057],[118.55876400000011,36.575659800000039],[118.55730950000009,36.576493000000028],[118.55701030000012,36.576750400000037],[118.55670450000002,36.577505200000076],[118.5565418000001,36.578103700000042],[118.55650090000006,36.578910400000041],[118.55692170000009,36.580234200000064],[118.55704680000008,36.581268500000078],[118.55697590000011,36.582102100000043],[118.55731460000004,36.584023200000047],[118.55809800000009,36.586488300000042],[118.5579504000001,36.586990100000037],[118.55852190000007,36.587516000000051],[118.55930340000009,36.588149800000053],[118.5595264000001,36.588646800000049],[118.56021380000004,36.589360300000067],[118.56154720000006,36.590247100000056],[118.56200410000008,36.591316000000063],[118.56207090000009,36.591908100000069],[118.5621526000001,36.592380000000048],[118.56230830000004,36.592945000000043],[118.56267080000009,36.593455300000073],[118.56361670000001,36.594482400000061],[118.56399820000001,36.59561860000008],[118.56449940000005,36.596045100000026],[118.5666824000001,36.59748680000007],[118.56935750000002,36.599805500000059],[118.57066390000011,36.601088900000036],[118.57147070000008,36.60211350000003],[118.57256080000002,36.603497800000071],[118.57380880000005,36.605561100000045],[118.57388770000011,36.606156100000078],[118.57388770000011,36.608536300000026],[118.57337500000006,36.609958400000039],[118.57178320000003,36.611422700000048],[118.56648350000012,36.616605500000048],[118.5649701000001,36.618803100000036],[118.5649691000001,36.620351000000028],[118.56810080000002,36.626881400000059],[118.56784270000003,36.627739600000041],[118.5685390000001,36.62952990000008],[118.56926280000005,36.630588400000079],[118.5700197000001,36.630919300000073],[118.57049760000007,36.631558100000063],[118.57084290000012,36.632905600000072],[118.5718475000001,36.635740700000042],[118.57244720000006,36.637656900000025],[118.57316900000001,36.639895100000047],[118.57302800000002,36.640569000000028],[118.57251810000002,36.641311200000075],[118.57188610000003,36.642389200000025],[118.57051760000002,36.643733600000076],[118.56844880000006,36.646210100000076],[118.56664810000007,36.648139900000047],[118.56654160000005,36.648334700000078],[118.56601630000011,36.64929520000004],[118.56558380000001,36.650341900000058],[118.56519580000008,36.651630900000043],[118.56505320000008,36.652116900000067],[118.5652070000001,36.652742700000033],[118.56561920000001,36.653406800000027],[118.56633910000005,36.654035400000055],[118.56716400000005,36.654766600000073],[118.56822720000002,36.656122200000027],[118.56940080000004,36.657878200000027],[118.57138630000009,36.659756300000026],[118.57273000000009,36.661425100000031],[118.57433300000002,36.66370930000005],[118.57637590000002,36.666829600000028],[118.5765636000001,36.66739240000004],[118.5765967000001,36.668135100000029],[118.57629880000002,36.668970700000045],[118.57616580000001,36.66973790000003],[118.57464760000005,36.671980500000075],[118.5736548000001,36.67281760000003],[118.57278670000005,36.673942100000033],[118.57213750000005,36.675282400000071],[118.57184670000004,36.676148000000069],[118.57121310000002,36.677448900000059],[118.57060510000008,36.677990000000079],[118.57059680000009,36.67906940000006],[118.57056040000009,36.68062580000003],[118.57101680000005,36.682350300000053],[118.57218110000008,36.684650000000033],[118.57331130000011,36.686177200000031],[118.57497920000003,36.687375900000063],[118.5764372000001,36.688218000000063],[118.5786581000001,36.688596500000074],[118.58138320000012,36.688347000000078],[118.5819901000001,36.688487800000075],[118.58245130000012,36.688617300000033],[118.58320200000003,36.688594900000055],[118.58424650000006,36.688355700000045],[118.58460380000008,36.688046100000065],[118.58500990000005,36.687907700000039],[118.58606070000008,36.687858900000037],[118.5867684000001,36.688019700000041],[118.58856340000011,36.686979400000041],[118.58871820000002,36.686457300000029],[118.59023760000002,36.686419000000058],[118.5911033000001,36.686490700000036],[118.5918478000001,36.687023300000078],[118.59378030000005,36.687877400000048],[118.59544940000001,36.688320300000044],[118.59617390000005,36.688438200000064],[118.59654620000003,36.688403500000049],[118.59721410000009,36.688091900000074],[118.59833500000002,36.688057400000048],[118.59979380000004,36.689215800000056],[118.60030460000007,36.68941790000008],[118.60153040000012,36.68938060000005],[118.60257710000008,36.689566200000058],[118.60960110000008,36.691410800000028],[118.61346190000006,36.695272800000055],[118.61473650000005,36.696978300000069],[118.61578960000008,36.698087200000032],[118.61749750000001,36.698981200000048],[118.61963060000005,36.700520800000049],[118.62020020000011,36.700554300000078],[118.62115740000002,36.700537700000041],[118.62248000000011,36.699801600000058],[118.62367230000007,36.698874100000069],[118.62659270000006,36.696709800000065],[118.63105120000012,36.693929300000036],[118.63162080000006,36.693677100000059],[118.6328797000001,36.69345880000003],[118.63306020000005,36.693312300000059],[118.63334010000005,36.693068600000061],[118.63384370000006,36.692936800000041],[118.63505400000008,36.69286290000008],[118.63590060000001,36.692843900000071],[118.63671070000009,36.692909000000043],[118.63720000000001,36.692839700000036],[118.63785920000009,36.692678600000079],[118.63846910000007,36.692724100000078],[118.63914880000004,36.692853600000035],[118.64008950000004,36.693574000000069],[118.64064550000001,36.694399400000066],[118.64140880000002,36.695658700000024],[118.64188720000004,36.696671500000036],[118.64292360000002,36.69783810000007],[118.64356650000002,36.698856900000067],[118.64417590000005,36.700179400000025],[118.64441280000005,36.701060700000028],[118.64466710000011,36.70173090000003],[118.64473090000001,36.702615000000037],[118.64490350000005,36.703247400000066],[118.64562480000006,36.704915000000028],[118.64688250000006,36.706924500000071],[118.64843660000008,36.708752300000072],[118.64898430000005,36.709541800000068],[118.64977610000005,36.71033140000003],[118.65221980000001,36.712256000000025],[118.65277150000009,36.712699100000066],[118.6534802000001,36.713072400000044],[118.65462100000002,36.713371500000051],[118.65696990000004,36.713829800000042],[118.66010360000007,36.714543500000048],[118.66111520000004,36.715062100000068],[118.66205700000012,36.716389400000025],[118.66244070000005,36.717122900000049],[118.66254530000003,36.717828500000053],[118.66221380000002,36.718693700000074],[118.65994320000004,36.72134090000003],[118.6585573000001,36.724426600000072],[118.65940420000004,36.727558400000078],[118.66327310000008,36.730103900000074],[118.66619890000004,36.733528600000056],[118.67245460000004,36.736212700000067],[118.67538040000011,36.740686000000039],[118.67665080000006,36.744989400000065],[118.6771576000001,36.748410800000045],[118.6774104000001,36.749664500000051],[118.67797610000002,36.750262400000054],[118.67925180000009,36.751226700000075],[118.68028690000006,36.752316400000041],[118.68150250000008,36.753001100000063],[118.68185150000011,36.753386800000044],[118.68173110000009,36.754081100000064],[118.68155060000004,36.754823600000066],[118.68187560000001,36.755739700000049],[118.68242920000012,36.756501400000047],[118.6834156000001,36.757247800000073],[118.68515850000006,36.75896490000008],[118.6861123000001,36.759625300000039],[118.68687780000005,36.760521500000038],[118.68928010000002,36.763295200000073],[118.69004550000011,36.763814100000047],[118.69125850000012,36.764219700000069],[118.69221230000005,36.76459710000006],[118.69324860000006,36.765285700000049],[118.69518240000002,36.766742400000055],[118.69714810000005,36.767954700000075],[118.69880070000011,36.76918100000006],[118.69986190000009,36.770226100000059],[118.70212330000004,36.77139660000006],[118.7065070000001,36.773417100000074],[118.70932510000011,36.774545800000055],[118.71097770000006,36.775785900000074],[118.71146480000004,36.776580100000047],[118.71370880000006,36.778071000000068],[118.71664870000006,36.779589700000031],[118.7195190000001,36.780592800000079],[118.72242410000001,36.781317300000069],[118.72452900000008,36.782487700000047],[118.72745140000006,36.784215300000028],[118.73047830000007,36.787057400000037],[118.73115670000004,36.788158000000067],[118.73310500000002,36.789829700000041],[118.73536650000005,36.791445700000054],[118.73790630000008,36.792643800000064],[118.74128100000007,36.793855700000051],[118.74342070000012,36.794719400000076],[118.74448180000002,36.795652700000062],[118.74629100000004,36.797644700000035],[118.74749130000009,36.799344100000042],[118.74863060000007,36.800580400000058],[118.74935260000007,36.801363800000047],[118.75018760000012,36.802951700000051],[118.75318600000003,36.806693300000063],[118.75781810000001,36.815823500000079],[118.76065510000001,36.821518600000047],[118.76446600000008,36.826630300000033],[118.76841420000005,36.828828800000053],[118.7740447000001,36.832236300000034],[118.78382940000006,36.839105800000027],[118.78884190000008,36.844765800000062],[118.79138250000005,36.858474600000079],[118.79292750000002,36.865341700000045],[118.79559250000011,36.868431800000053],[118.80557890000011,36.880474800000059],[118.81696440000007,36.881408500000077],[118.82503250000002,36.882369700000027],[118.8305256000001,36.887930400000073],[118.82958150000002,36.893765300000041],[118.82618100000002,36.899300600000061],[118.82388660000004,36.901118000000054],[118.82204290000004,36.904115000000047],[118.82147710000004,36.907727600000044],[118.82279620000008,36.912372300000072],[118.82416150000006,36.913588600000026],[118.8261414000001,36.914264400000036],[118.82769320000011,36.915453400000047],[118.83088860000009,36.917487000000051],[118.83310050000011,36.919913800000074],[118.83623770000008,36.922739300000046],[118.84019950000004,36.931280800000025],[118.84140040000011,36.933868000000075],[118.84247570000002,36.936951200000067],[118.84392160000004,36.940368300000046],[118.84518550000007,36.943799400000046],[118.84491300000002,36.946113400000058],[118.84262010000009,36.955650100000071],[118.84113250000007,36.957298300000048],[118.83945200000005,36.966835100000026],[118.84466620000001,36.974206800000047],[118.84568390000004,36.979920400000026],[118.84365770000011,36.98815970000004],[118.84434440000007,36.995563600000025],[118.8473484000001,37.000704800000051],[118.85484220000001,37.003755600000034],[118.8562472000001,37.005356400000039],[118.85646170000007,37.006778700000041],[118.85513140000012,37.007926700000041],[118.85281390000011,37.008406500000035],[118.84955240000011,37.007635400000026],[118.84416650000003,37.004962300000045],[118.84223530000008,37.004825200000028],[118.83985350000012,37.006144600000027],[118.83856600000001,37.008869100000027],[118.83805100000006,37.013049900000055],[118.83860890000005,37.016973500000063],[118.83972470000003,37.02046850000005],[118.84105510000006,37.022387300000048],[118.84358710000004,37.023483800000065],[118.84588310000004,37.023209700000052],[118.84811470000011,37.022438700000066],[118.85083980000002,37.020691300000067],[118.8523848000001,37.020177300000057],[118.85406920000003,37.02010880000006],[118.85547280000003,37.020363800000041],[118.8568246000001,37.021074700000042],[118.85776880000003,37.021545900000035],[118.85826420000001,37.021941900000058],[118.85995930000001,37.025359700000024],[118.85990650000008,37.026880200000051],[118.86004510000009,37.029668000000072],[118.85998080000002,37.030575900000031],[118.86041880000005,37.031678800000066],[118.86118240000008,37.032665800000075],[118.86202810000009,37.033186200000046],[118.8630922000001,37.033419400000071],[118.8646030000001,37.033494500000074],[118.86616060000006,37.032974100000047],[118.86800600000004,37.031586600000026],[118.86870140000008,37.031370500000037],[118.86940070000003,37.031432400000028],[118.87120320000008,37.033213900000078],[118.87354200000004,37.038198400000056],[118.87457200000006,37.042617300000074],[118.87486440000009,37.043107600000042],[118.87627330000009,37.043345400000078],[118.87743470000009,37.043711500000029],[118.87850950000006,37.044056000000069],[118.87925860000007,37.044148200000052],[118.87993640000002,37.043919000000074],[118.88043000000005,37.042874200000028],[118.8793356000001,37.040150900000071],[118.8793356000001,37.039705600000048],[118.88000080000006,37.039345900000058],[118.88229680000006,37.03900340000007],[118.88416360000008,37.039380200000039],[118.88626640000007,37.040013900000076],[118.88912030000006,37.04119570000006],[118.89100860000008,37.042377500000043],[118.89188830000001,37.043216800000039],[118.89233900000011,37.044090200000028],[118.89193130000001,37.045083600000055],[118.89090130000011,37.045186400000034],[118.88830490000009,37.045135000000073],[118.88564420000012,37.045323400000029],[118.88515060000009,37.045837200000051],[118.88581580000005,37.046916100000033],[118.88796160000004,37.048988400000042],[118.89118020000001,37.050769400000036],[118.89364790000002,37.052293600000041],[118.89427020000005,37.052841600000079],[118.89551470000004,37.053235500000028],[118.89738150000005,37.05337250000008],[118.89911960000006,37.052550500000052],[118.89978480000002,37.052345000000059],[118.90034270000001,37.052413500000057],[118.90083620000007,37.05289300000004],[118.90081470000007,37.054262900000026],[118.90075040000011,37.054999300000077],[118.90167300000007,37.055444500000078],[118.90311070000007,37.056026800000041],[118.9035272000001,37.056786800000054],[118.90360240000007,37.057232000000056],[118.90343070000006,37.057617300000061],[118.90296050000006,37.058218600000032],[118.90176960000008,37.059605600000054],[118.90163900000005,37.060459800000046],[118.90199490000009,37.061660400000051],[118.90257430000008,37.063954900000056],[118.90349690000005,37.064057600000069],[118.90697310000007,37.06383500000004],[118.90890430000002,37.063886400000058],[118.91068530000007,37.06422880000008],[118.91098570000008,37.065187700000024],[118.90997720000007,37.066454700000065],[118.90765970000007,37.06799570000004],[118.90472000000011,37.068903100000057],[118.9034951000001,37.069200700000067],[118.90278880000005,37.069510800000046],[118.90270110000006,37.069945500000074],[118.90277810000009,37.070435500000031],[118.90474150000011,37.071916400000077],[118.90793870000005,37.073910900000044],[118.90939590000005,37.074953200000039],[118.91013620000001,37.075218600000028],[118.91072820000011,37.075169300000027],[118.91154360000007,37.074741200000062],[118.91288280000003,37.07409720000004],[118.91353910000009,37.073097700000062],[118.91594240000006,37.071317200000067],[118.91655930000002,37.071248700000069],[118.91693830000008,37.071456400000045],[118.91757310000003,37.07203190000007],[118.91886060000002,37.073559900000078],[118.9205558000001,37.074655600000028],[118.92083290000005,37.074996000000056],[118.92095270000004,37.07526340000004],[118.92079180000007,37.075802700000054],[118.92004080000004,37.07686410000008],[118.91954730000009,37.07706950000005],[118.9182813000001,37.077831400000036],[118.91804520000005,37.078036800000064],[118.9180004000001,37.078325800000073],[118.91826870000011,37.078711000000055],[118.91922540000007,37.079106700000068],[118.92214370000011,37.08009960000004],[118.92594170000007,37.081417700000031],[118.92711650000001,37.081824300000051],[118.9272916000001,37.082014900000047],[118.92738280000003,37.082237400000054],[118.92746520000003,37.08273580000008],[118.92757250000011,37.083899900000063],[118.92725410000003,37.08442430000008],[118.92719510000006,37.084749500000044],[118.92728280000006,37.085033900000042],[118.92766710000001,37.085198800000057],[118.92833960000007,37.085265000000049],[118.92907260000004,37.085305800000071],[118.92954120000002,37.085256500000071],[118.93044240000006,37.085033900000042],[118.93107350000002,37.08478800000006],[118.93142220000004,37.084728100000063],[118.93169230000001,37.084738700000059],[118.93310320000012,37.085624500000051],[118.93362350000007,37.086056700000029],[118.93404190000001,37.08618510000008],[118.93437800000004,37.086204500000065],[118.93491090000009,37.086035300000049],[118.93551530000002,37.085733800000071],[118.93621450000001,37.085658700000067],[118.93649700000003,37.085669600000074],[118.93676170000003,37.085774300000026],[118.93695290000005,37.085990500000037],[118.93705140000009,37.086322000000052],[118.93714610000006,37.086910600000067],[118.93703530000005,37.087357600000075],[118.93709510000008,37.08760170000005],[118.9371622000001,37.087736500000062],[118.93731960000002,37.08787760000007],[118.93755110000006,37.087937600000032],[118.93776300000002,37.08796540000003],[118.93797940000002,37.087952500000029],[118.93812780000007,37.087854200000038],[118.93837990000009,37.087505400000055],[118.93890750000003,37.087109400000031],[118.94022170000005,37.08655310000006],[118.94096020000006,37.086482600000068],[118.94216370000004,37.086536000000024],[118.9424729000001,37.086555400000066],[118.94275720000007,37.086452700000052],[118.94297910000012,37.086279200000035],[118.94307370000001,37.086144600000068],[118.94311850000008,37.085966800000051],[118.94308980000005,37.08574660000005],[118.94297900000004,37.085466100000076],[118.94249980000006,37.084980600000051],[118.94193840000003,37.084820000000036],[118.94169510000006,37.084740900000043],[118.94156290000001,37.084550400000069],[118.94160580000005,37.08429360000008],[118.94174340000006,37.084180300000071],[118.94192770000006,37.084105300000033],[118.94330090000005,37.083899900000063],[118.94542520000005,37.08378010000007],[118.94725990000006,37.083827100000065],[118.94771930000002,37.084000600000024],[118.94809670000006,37.084297900000024],[118.94918570000004,37.085132300000055],[118.94960220000007,37.085494100000062],[118.94990260000009,37.085596800000076],[118.95022640000002,37.085620200000051],[118.95084140000006,37.085519800000043],[118.95129740000004,37.085327200000052],[118.95151380000004,37.085106600000074],[118.95184460000007,37.084638200000029],[118.95257600000002,37.084118100000069],[118.95330370000011,37.083457100000032],[118.95355580000012,37.083204600000045],[118.95370790000004,37.082907000000034],[118.95445890000008,37.081760100000054],[118.95558540000002,37.08104540000005],[118.95638820000011,37.080829400000027],[118.95696220000002,37.080897900000025],[118.95801010000002,37.080514700000037],[118.95989660000009,37.079669600000045],[118.96100350000006,37.079222200000061],[118.96193150000011,37.079093900000032],[118.96337460000007,37.079021100000034],[118.96482110000011,37.079224500000066],[118.96609780000006,37.079258800000048],[118.96765540000001,37.079226600000027],[118.96898390000001,37.079036200000075],[118.96972600000004,37.078738600000065],[118.97065940000005,37.078079600000081],[118.97176260000003,37.077615300000048],[118.97257800000011,37.077683800000045],[118.97333100000003,37.077968300000066],[118.97608820000005,37.078293600000052],[118.97711100000004,37.07855260000008],[118.97814290000008,37.079111000000069],[118.98426360000008,37.082907000000034],[118.98789000000011,37.084447600000033],[118.99248190000003,37.085183700000073],[118.99778200000003,37.084276500000044],[118.99941270000011,37.082581800000071],[119.0008504000001,37.081623200000024],[119.00447680000002,37.081537600000047],[119.01132180000002,37.082804300000078],[119.01602100000002,37.085217900000032],[119.01893920000009,37.086707200000035],[119.02432510000006,37.08749460000007],[119.02695690000007,37.088505000000055],[119.02855230000011,37.08982240000006],[119.03063370000007,37.091910600000062],[119.03419560000009,37.093570900000032],[119.03614830000004,37.094033000000024],[119.03695730000004,37.094307300000025],[119.03850860000011,37.093930300000068],[119.04112650000002,37.093091600000037],[119.04533220000008,37.091499900000031],[119.05003140000008,37.090164800000025],[119.05777760000001,37.088316200000065],[119.06483720000006,37.088607200000069],[119.06966520000003,37.087631500000043],[119.07284090000007,37.086193600000058],[119.07565190000003,37.084824200000071],[119.07998630000009,37.084841400000073],[119.08494300000007,37.085098100000039],[119.0862734000001,37.084704400000078],[119.08809730000007,37.084653100000025],[119.0901358000001,37.085303500000066],[119.09260340000003,37.085389100000043],[119.1062290000001,37.082444800000076],[119.11515540000005,37.081006900000034],[119.1175535000001,37.08068250000008]]},"properties":{"FID":0,"osm_id":"244942446","code":8101,"fclass":"river","width":0,"name":"弥河","Shape_Leng":1.74284027468}}]
}