{
"type": "FeatureCollection",
"name": "Liyunhe_Hangou",
"crs": { "type": "name", "properties": { "name": "urn:ogc:def:crs:OGC:1.3:CRS84" } },
"features": [
{ "type": "Feature", "properties": { "osm_id": "121193158", "code": 8101, "fclass": "river", "width": 180, "name": "邗沟", "Shape_Leng": 0.193568412893 }, "geometry": { "type": "LineString", "coordinates": [ [ 119.012339100000077, 33.588959300000056 ], [ 119.013569700000062, 33.589579400000048 ], [ 119.014822800000047, 33.590210900000045 ], [ 119.02013850000003, 33.592367300000035 ], [ 119.02032040000006, 33.59244110000003 ], [ 119.02236280000011, 33.59309410000003 ], [ 119.026272, 33.594190100000048 ], [ 119.028262600000062, 33.594652 ], [ 119.029010900000117, 33.594825700000058 ], [ 119.030362800000034, 33.59490530000005 ], [ 119.03079670000011, 33.59474350000005 ], [ 119.034208100000114, 33.593292800000029 ], [ 119.037813, 33.591005 ], [ 119.038845600000059, 33.590395200000046 ], [ 119.040643500000101, 33.589333300000078 ], [ 119.04363150000006, 33.587985400000036 ], [ 119.04399090000004, 33.587795400000061 ], [ 119.051717600000075, 33.583711900000026 ], [ 119.064939600000116, 33.576928500000065 ], [ 119.069647600000053, 33.573872400000027 ], [ 119.078745700000013, 33.566864 ], [ 119.088749400000097, 33.559263300000055 ], [ 119.0904187000001, 33.557995300000073 ], [ 119.096083500000077, 33.552988400000061 ], [ 119.097003800000039, 33.551068300000054 ], [ 119.096784600000092, 33.548618600000054 ], [ 119.096807500000068, 33.546907900000065 ], [ 119.097678100000053, 33.545355100000052 ], [ 119.100570300000072, 33.542891100000077 ], [ 119.103979900000013, 33.539826100000028 ], [ 119.105991800000083, 33.536771100000067 ], [ 119.1081388, 33.533326800000054 ], [ 119.108626600000093, 33.532720200000028 ], [ 119.109816400000113, 33.531240800000035 ], [ 119.112048, 33.529380600000025 ], [ 119.11616790000005, 33.527663400000051 ], [ 119.122703600000023, 33.525498500000026 ], [ 119.124681900000041, 33.525205800000037 ], [ 119.128799200000117, 33.525090800000044 ], [ 119.129995200000053, 33.524343400000078 ], [ 119.130539100000078, 33.521216800000047 ], [ 119.131509100000017, 33.518433300000027 ], [ 119.132889500000033, 33.517146100000048 ], [ 119.133022800000049, 33.51645620000005 ], [ 119.131477, 33.514837400000033 ], [ 119.130486900000051, 33.512309600000037 ], [ 119.1306806, 33.508838900000057 ], [ 119.130406000000107, 33.506947 ], [ 119.130212300000039, 33.506466800000055 ], [ 119.129501900000037, 33.504706 ], [ 119.129191200000037, 33.502428500000065 ], [ 119.129812600000037, 33.500468500000068 ], [ 119.129692700000078, 33.497891800000048 ], [ 119.129378, 33.495594500000038 ], [ 119.129186600000025, 33.494502100000034 ], [ 119.128799800000024, 33.492165700000044 ], [ 119.128179500000101, 33.489530400000035 ], [ 119.128230300000041, 33.487342100000035 ], [ 119.129347500000108, 33.483645400000057 ], [ 119.130230400000073, 33.479173700000047 ] ] } }
]
}
