{
"type": "FeatureCollection",
"name": "Mihe_Juyangshui",
"crs": { "type": "name", "properties": { "name": "urn:ogc:def:crs:OGC:1.3:CRS84" } },
"features": [
{ "type": "Feature", "properties": { "osm_id": "244942446", "code": 8101, "fclass": "river", "width": 0, "name": "弥河", "Shape_Leng": 1.74284027468 }, "geometry": { "type": "LineString", "coordinates": [ [ 118.578182300000094, 36.172207 ], [ 118.577604900000097, 36.171918500000061 ], [ 118.576683900000035, 36.172129300000051 ], [ 118.5759690000001, 36.172617600000024 ], [ 118.575652900000023, 36.173216800000034 ], [ 118.575377900000035, 36.173782700000061 ], [ 118.574663100000066, 36.174060200000042 ], [ 118.574003200000107, 36.174437500000067 ], [ 118.573233400000049, 36.174315400000069 ], [ 118.572903500000052, 36.174115700000073 ], [ 118.571845, 36.174015800000063 ], [ 118.570195400000102, 36.173893700000065 ], [ 118.569219400000065, 36.17419330000007 ], [ 118.568477, 36.174459700000057 ], [ 118.567796, 36.174715700000036 ], [ 118.567308600000047, 36.174437500000067 ], [ 118.566744900000117, 36.173638500000038 ], [ 118.566373800000065, 36.173227900000029 ], [ 118.565947600000072, 36.172817300000077 ], [ 118.565741400000093, 36.172306900000024 ], [ 118.565755200000012, 36.171863 ], [ 118.566057600000022, 36.171175 ], [ 118.566043900000068, 36.170708900000079 ], [ 118.565700200000038, 36.17014290000003 ], [ 118.565164100000061, 36.169110800000055 ], [ 118.56477910000001, 36.168345100000067 ], [ 118.564050600000087, 36.168034400000067 ], [ 118.563506100000041, 36.168098500000042 ], [ 118.563390700000014, 36.16811210000003 ], [ 118.562703400000032, 36.168533800000034 ], [ 118.56227720000004, 36.168622600000049 ], [ 118.5616999, 36.16850050000005 ], [ 118.560600100000102, 36.168411700000036 ], [ 118.559500400000047, 36.168156500000066 ], [ 118.558331900000098, 36.167845700000044 ], [ 118.556751, 36.168689100000051 ], [ 118.556254600000102, 36.168561900000043 ], [ 118.555885000000103, 36.168467200000066 ], [ 118.554771500000015, 36.16842280000003 ], [ 118.5528332, 36.168567100000075 ], [ 118.551486, 36.168400600000041 ], [ 118.549973900000055, 36.168034400000067 ], [ 118.548777900000118, 36.167446200000029 ], [ 118.547540700000013, 36.167468400000075 ], [ 118.546949600000062, 36.168300700000032 ], [ 118.546647100000087, 36.169676800000047 ], [ 118.546152300000017, 36.170964100000049 ], [ 118.546179800000118, 36.171829700000046 ], [ 118.54635850000011, 36.173316700000044 ], [ 118.547224500000084, 36.174459700000057 ], [ 118.54787060000001, 36.175957700000026 ], [ 118.54842050000002, 36.177289300000041 ], [ 118.549107800000115, 36.178665200000069 ], [ 118.549300300000027, 36.179508500000054 ], [ 118.549643900000092, 36.180362900000034 ], [ 118.549327800000015, 36.180884400000025 ], [ 118.548558, 36.181195100000025 ], [ 118.547829400000069, 36.181206200000076 ], [ 118.5466609, 36.181261600000028 ], [ 118.54615380000007, 36.181317900000067 ], [ 118.545561200000066, 36.181383700000026 ], [ 118.544406400000071, 36.182005100000026 ], [ 118.543375400000059, 36.182271400000047 ], [ 118.542261900000085, 36.182149300000049 ], [ 118.5406398, 36.182193700000028 ], [ 118.539443800000072, 36.182471100000043 ], [ 118.537574300000074, 36.182837200000051 ], [ 118.53516860000002, 36.183613900000068 ], [ 118.533697700000062, 36.184146500000054 ], [ 118.532694200000037, 36.184845500000051 ], [ 118.53126450000002, 36.1856 ], [ 118.530137300000092, 36.185844100000054 ], [ 118.528487700000028, 36.185877300000072 ], [ 118.528312300000039, 36.185773700000027 ], [ 118.527717800000119, 36.18542240000005 ], [ 118.525862, 36.184568100000035 ], [ 118.524721000000113, 36.183980100000042 ], [ 118.524377400000049, 36.183469700000046 ], [ 118.523305100000016, 36.183292100000074 ], [ 118.522714, 36.183403100000078 ], [ 118.521449300000086, 36.183835800000054 ], [ 118.520473300000049, 36.184057700000039 ], [ 118.519566, 36.184068800000034 ], [ 118.518287500000042, 36.183858 ], [ 118.517668900000103, 36.183580600000028 ], [ 118.517270300000064, 36.182060500000034 ], [ 118.516720400000054, 36.181261600000028 ], [ 118.516198, 36.181006400000058 ], [ 118.515084500000057, 36.181383700000026 ], [ 118.513393700000051, 36.182171500000038 ], [ 118.5112904, 36.183436400000062 ], [ 118.508939700000042, 36.184079900000029 ], [ 118.507455100000016, 36.184412800000075 ], [ 118.505090600000017, 36.184213100000079 ], [ 118.503014900000039, 36.183846900000049 ], [ 118.499756900000079, 36.183281 ], [ 118.492127400000072, 36.182071600000029 ], [ 118.4869036, 36.181394800000078 ], [ 118.4823947000001, 36.180806700000062 ], [ 118.477294700000016, 36.180074400000024 ], [ 118.473954200000094, 36.179741500000034 ], [ 118.471094900000026, 36.179430800000034 ], [ 118.469843900000114, 36.179375300000061 ], [ 118.46905890000005, 36.179870100000073 ], [ 118.46884040000009, 36.180007800000055 ], [ 118.468551700000035, 36.180751200000032 ], [ 118.468647900000065, 36.181283800000074 ], [ 118.469032800000036, 36.182071600000029 ], [ 118.469610200000034, 36.18380250000007 ], [ 118.471081100000106, 36.185844100000054 ], [ 118.471713500000078, 36.188784200000043 ], [ 118.471672200000057, 36.190515 ], [ 118.471067400000038, 36.19185740000006 ], [ 118.470022600000107, 36.192778200000078 ], [ 118.469211500000029, 36.192966800000079 ], [ 118.46829050000008, 36.192800400000067 ], [ 118.467439600000034, 36.192442100000051 ], [ 118.465551300000016, 36.19410460000006 ], [ 118.462740300000064, 36.196251800000027 ], [ 118.461924900000099, 36.197308100000043 ], [ 118.462032200000067, 36.198849200000041 ], [ 118.463040700000079, 36.200269100000071 ], [ 118.464349700000071, 36.201394600000071 ], [ 118.465744400000062, 36.202520100000072 ], [ 118.46818850000011, 36.205831400000079 ], [ 118.469220600000085, 36.207229600000062 ], [ 118.46917760000008, 36.210294100000056 ], [ 118.468941600000107, 36.213375800000051 ], [ 118.469070400000078, 36.217409500000031 ], [ 118.469027400000073, 36.220040800000049 ], [ 118.469757, 36.22158150000007 ], [ 118.471173200000067, 36.223399100000051 ], [ 118.472610900000063, 36.224818500000026 ], [ 118.47304, 36.225424400000065 ], [ 118.473211700000093, 36.226791800000058 ], [ 118.473340400000097, 36.22812470000008 ], [ 118.473640800000112, 36.229180500000041 ], [ 118.474391900000114, 36.229976700000066 ], [ 118.476065600000084, 36.230149800000049 ], [ 118.4783615, 36.230184400000041 ], [ 118.479885, 36.229803600000025 ], [ 118.481279800000038, 36.228782400000057 ], [ 118.482781800000112, 36.227466900000024 ], [ 118.483919100000094, 36.226463 ], [ 118.485313800000085, 36.225995600000033 ], [ 118.487245, 36.22604750000005 ], [ 118.490292, 36.226705300000049 ], [ 118.493360400000029, 36.227432300000032 ], [ 118.495592000000102, 36.22795160000004 ], [ 118.497458900000083, 36.228661300000056 ], [ 118.498681900000065, 36.229647900000032 ], [ 118.499647500000037, 36.231257600000049 ], [ 118.50061310000001, 36.235221100000047 ], [ 118.501664600000026, 36.239028700000063 ], [ 118.502673100000038, 36.241520900000069 ], [ 118.50355280000008, 36.243078400000059 ], [ 118.505505500000027, 36.250848400000052 ], [ 118.506728600000088, 36.256143400000042 ], [ 118.507737100000099, 36.259776900000077 ], [ 118.508531, 36.263635200000067 ], [ 118.508767, 36.266316900000049 ], [ 118.508981600000084, 36.27100530000007 ], [ 118.509432200000106, 36.274292200000048 ], [ 118.509818500000051, 36.27640260000004 ], [ 118.509925800000019, 36.27802870000005 ], [ 118.508895800000118, 36.279948700000034 ], [ 118.508230600000047, 36.281851500000073 ], [ 118.50863830000003, 36.283131500000025 ], [ 118.509818500000051, 36.283857900000044 ], [ 118.511835500000075, 36.284186600000055 ], [ 118.515504800000031, 36.284930300000042 ], [ 118.517672, 36.286106500000074 ], [ 118.518229900000051, 36.287991800000043 ], [ 118.517908, 36.289444600000024 ], [ 118.517157000000111, 36.291762200000051 ], [ 118.514732300000105, 36.294477500000028 ], [ 118.512414800000101, 36.296933300000035 ], [ 118.51136340000005, 36.298541600000078 ], [ 118.511256100000082, 36.301135700000032 ], [ 118.511985700000082, 36.302864900000031 ], [ 118.515333100000021, 36.305718200000058 ], [ 118.520161100000109, 36.309833600000047 ], [ 118.523057900000026, 36.312116 ], [ 118.523894700000028, 36.31339550000007 ], [ 118.524066400000038, 36.315366600000061 ], [ 118.523937600000068, 36.317164700000035 ], [ 118.522950600000058, 36.317977300000052 ], [ 118.520783300000062, 36.318375 ], [ 118.518122600000083, 36.317994600000077 ], [ 118.515075600000046, 36.317510500000026 ], [ 118.512844, 36.317683400000078 ], [ 118.511213200000043, 36.31813290000008 ], [ 118.510869900000102, 36.319550600000071 ], [ 118.5115780000001, 36.321106600000064 ], [ 118.513637900000049, 36.324166700000035 ], [ 118.514517700000056, 36.325670700000046 ], [ 118.517371600000047, 36.329456600000071 ], [ 118.520568800000092, 36.334227600000077 ], [ 118.522435600000108, 36.337235300000032 ], [ 118.52340120000008, 36.339223 ], [ 118.523894700000028, 36.341400900000053 ], [ 118.52447410000002, 36.343198400000063 ], [ 118.525611300000037, 36.344926800000053 ], [ 118.528229200000055, 36.34672420000004 ], [ 118.531233200000088, 36.348003100000028 ], [ 118.533550700000092, 36.349126500000068 ], [ 118.534065600000076, 36.350751 ], [ 118.533035700000028, 36.352029900000048 ], [ 118.5311474, 36.352755700000046 ], [ 118.525375300000064, 36.353412400000025 ], [ 118.522135200000093, 36.353809900000044 ], [ 118.520783300000062, 36.354604800000061 ], [ 118.520032300000025, 36.355883600000027 ], [ 118.520204, 36.357266100000061 ], [ 118.521663100000069, 36.35866580000004 ], [ 118.525976100000094, 36.362242800000047 ], [ 118.532098, 36.366466500000058 ], [ 118.534816700000079, 36.368342200000029 ], [ 118.534902500000044, 36.37316270000008 ], [ 118.531941300000085, 36.377309100000048 ], [ 118.531190300000048, 36.382422700000063 ], [ 118.530708400000094, 36.384154400000057 ], [ 118.525911700000051, 36.401388300000065 ], [ 118.524987, 36.404098 ], [ 118.524438, 36.405195700000036 ], [ 118.523505100000079, 36.407061100000078 ], [ 118.522668200000112, 36.409081600000036 ], [ 118.522354200000109, 36.410733 ], [ 118.520766300000105, 36.412356200000033 ], [ 118.511410800000021, 36.416034300000035 ], [ 118.507290900000044, 36.421007200000076 ], [ 118.508149200000048, 36.432195100000058 ], [ 118.508103100000085, 36.433171300000026 ], [ 118.507634200000098, 36.443105200000048 ], [ 118.509112400000049, 36.451603300000045 ], [ 118.509794400000033, 36.453673400000071 ], [ 118.510497200000032, 36.454630300000076 ], [ 118.511041100000057, 36.455396500000063 ], [ 118.511532500000044, 36.455935600000032 ], [ 118.5118030000001, 36.456334200000072 ], [ 118.512205900000026, 36.456322200000045 ], [ 118.512965800000075, 36.456865 ], [ 118.513633500000083, 36.45748210000005 ], [ 118.514384100000029, 36.458186 ], [ 118.514753600000063, 36.458384100000046 ], [ 118.514998400000081, 36.458441500000049 ], [ 118.515226400000074, 36.45841930000006 ], [ 118.516123700000094, 36.458909900000037 ], [ 118.516251200000056, 36.459012100000052 ], [ 118.516197200000079, 36.459151700000064 ], [ 118.516274400000043, 36.459279 ], [ 118.516521, 36.459344700000031 ], [ 118.516856700000062, 36.459354900000051 ], [ 118.51715420000005, 36.459387800000059 ], [ 118.517425700000103, 36.459544900000026 ], [ 118.51784930000008, 36.459594200000026 ], [ 118.518389900000102, 36.459819300000049 ], [ 118.518950800000084, 36.460099600000035 ], [ 118.519830100000036, 36.460431800000038 ], [ 118.520921900000076, 36.460826100000077 ], [ 118.522649600000022, 36.461270400000046 ], [ 118.523025400000051, 36.461311300000034 ], [ 118.523357800000099, 36.461452500000064 ], [ 118.523537300000044, 36.461599700000079 ], [ 118.524255, 36.461747 ], [ 118.524217800000088, 36.462107500000059 ], [ 118.524885700000027, 36.462289200000043 ], [ 118.526177400000051, 36.462588500000038 ], [ 118.527702300000101, 36.462757 ], [ 118.528666900000076, 36.462965300000064 ], [ 118.529785900000093, 36.463463300000058 ], [ 118.532267500000103, 36.464567600000066 ], [ 118.532975800000031, 36.464906900000074 ], [ 118.533492200000069, 36.465220700000032 ], [ 118.53437150000002, 36.465858 ], [ 118.534755200000063, 36.466302600000063 ], [ 118.535208100000091, 36.466568 ], [ 118.537176700000032, 36.46840960000003 ], [ 118.540375900000072, 36.474434300000041 ], [ 118.530965400000014, 36.492417700000033 ], [ 118.531800100000055, 36.496087900000077 ], [ 118.534672000000114, 36.499821 ], [ 118.534928400000013, 36.500392400000067 ], [ 118.545056400000021, 36.506049800000028 ], [ 118.554497800000036, 36.515845800000079 ], [ 118.557377600000109, 36.522688300000027 ], [ 118.558446000000117, 36.525226700000076 ], [ 118.561192600000027, 36.52702 ], [ 118.562503200000037, 36.531444800000031 ], [ 118.564110800000094, 36.545088400000054 ], [ 118.563975900000059, 36.552266700000075 ], [ 118.5660454, 36.559534800000051 ], [ 118.56664550000005, 36.560687700000074 ], [ 118.565584600000079, 36.564338500000076 ], [ 118.566277500000069, 36.564364700000056 ], [ 118.565844800000036, 36.566104100000075 ], [ 118.564739600000053, 36.567980300000045 ], [ 118.56308080000008, 36.570184100000063 ], [ 118.562699, 36.570712 ], [ 118.561645800000065, 36.572168300000044 ], [ 118.561059300000011, 36.572979300000043 ], [ 118.559492100000057, 36.574900700000057 ], [ 118.55876400000011, 36.575659800000039 ], [ 118.557309500000088, 36.576493 ], [ 118.557010300000115, 36.576750400000037 ], [ 118.556704500000023, 36.577505200000076 ], [ 118.556541800000105, 36.578103700000042 ], [ 118.55650090000006, 36.578910400000041 ], [ 118.556921700000089, 36.580234200000064 ], [ 118.55704680000008, 36.581268500000078 ], [ 118.556975900000111, 36.582102100000043 ], [ 118.557314600000041, 36.584023200000047 ], [ 118.558098, 36.586488300000042 ], [ 118.557950400000095, 36.586990100000037 ], [ 118.558521900000073, 36.587516 ], [ 118.55930340000009, 36.588149800000053 ], [ 118.559526400000095, 36.588646800000049 ], [ 118.560213800000042, 36.589360300000067 ], [ 118.561547200000064, 36.590247100000056 ], [ 118.562004100000081, 36.591316 ], [ 118.562070900000094, 36.591908100000069 ], [ 118.562152600000104, 36.59238 ], [ 118.562308300000041, 36.592945 ], [ 118.562670800000092, 36.593455300000073 ], [ 118.563616700000011, 36.594482400000061 ], [ 118.563998200000015, 36.59561860000008 ], [ 118.564499400000045, 36.596045100000026 ], [ 118.566682400000104, 36.59748680000007 ], [ 118.569357500000024, 36.599805500000059 ], [ 118.570663900000113, 36.601088900000036 ], [ 118.571470700000077, 36.60211350000003 ], [ 118.572560800000019, 36.603497800000071 ], [ 118.573808800000052, 36.605561100000045 ], [ 118.573887700000114, 36.606156100000078 ], [ 118.573887700000114, 36.608536300000026 ], [ 118.573375, 36.609958400000039 ], [ 118.571783200000027, 36.611422700000048 ], [ 118.566483500000118, 36.616605500000048 ], [ 118.564970100000096, 36.618803100000036 ], [ 118.564969100000098, 36.620351 ], [ 118.568100800000025, 36.626881400000059 ], [ 118.567842700000028, 36.627739600000041 ], [ 118.568539000000101, 36.62952990000008 ], [ 118.569262800000047, 36.630588400000079 ], [ 118.570019700000103, 36.630919300000073 ], [ 118.570497600000067, 36.631558100000063 ], [ 118.570842900000116, 36.632905600000072 ], [ 118.571847500000104, 36.635740700000042 ], [ 118.572447200000056, 36.637656900000025 ], [ 118.573169, 36.639895100000047 ], [ 118.573028, 36.640569 ], [ 118.572518100000025, 36.641311200000075 ], [ 118.571886100000029, 36.642389200000025 ], [ 118.570517600000017, 36.643733600000076 ], [ 118.568448800000056, 36.646210100000076 ], [ 118.566648100000066, 36.648139900000047 ], [ 118.56654160000005, 36.648334700000078 ], [ 118.566016300000115, 36.64929520000004 ], [ 118.565583800000013, 36.650341900000058 ], [ 118.565195800000083, 36.651630900000043 ], [ 118.565053200000079, 36.652116900000067 ], [ 118.5652070000001, 36.652742700000033 ], [ 118.565619200000015, 36.653406800000027 ], [ 118.56633910000005, 36.654035400000055 ], [ 118.567164, 36.654766600000073 ], [ 118.568227200000024, 36.656122200000027 ], [ 118.569400800000039, 36.657878200000027 ], [ 118.571386300000086, 36.659756300000026 ], [ 118.57273, 36.661425100000031 ], [ 118.574333, 36.66370930000005 ], [ 118.576375900000016, 36.666829600000028 ], [ 118.5765636000001, 36.66739240000004 ], [ 118.576596700000096, 36.668135100000029 ], [ 118.576298800000018, 36.668970700000045 ], [ 118.576165800000012, 36.66973790000003 ], [ 118.574647600000048, 36.671980500000075 ], [ 118.573654800000099, 36.67281760000003 ], [ 118.572786700000051, 36.673942100000033 ], [ 118.572137500000053, 36.675282400000071 ], [ 118.571846700000037, 36.676148 ], [ 118.571213100000023, 36.677448900000059 ], [ 118.57060510000008, 36.67799 ], [ 118.570596800000089, 36.67906940000006 ], [ 118.57056040000009, 36.68062580000003 ], [ 118.571016800000052, 36.682350300000053 ], [ 118.57218110000008, 36.68465 ], [ 118.573311300000114, 36.686177200000031 ], [ 118.57497920000003, 36.687375900000063 ], [ 118.5764372000001, 36.688218 ], [ 118.578658100000098, 36.688596500000074 ], [ 118.581383200000118, 36.688347 ], [ 118.581990100000098, 36.688487800000075 ], [ 118.582451300000116, 36.688617300000033 ], [ 118.583202, 36.688594900000055 ], [ 118.584246500000063, 36.688355700000045 ], [ 118.584603800000082, 36.688046100000065 ], [ 118.585009900000045, 36.687907700000039 ], [ 118.586060700000075, 36.687858900000037 ], [ 118.586768400000096, 36.688019700000041 ], [ 118.588563400000112, 36.686979400000041 ], [ 118.588718200000017, 36.686457300000029 ], [ 118.590237600000023, 36.686419 ], [ 118.5911033000001, 36.686490700000036 ], [ 118.591847800000096, 36.687023300000078 ], [ 118.593780300000049, 36.687877400000048 ], [ 118.5954494, 36.688320300000044 ], [ 118.596173900000053, 36.688438200000064 ], [ 118.596546200000034, 36.688403500000049 ], [ 118.597214100000087, 36.688091900000074 ], [ 118.598335, 36.688057400000048 ], [ 118.599793800000043, 36.689215800000056 ], [ 118.600304600000072, 36.68941790000008 ], [ 118.601530400000115, 36.68938060000005 ], [ 118.602577100000076, 36.689566200000058 ], [ 118.609601100000077, 36.691410800000028 ], [ 118.613461900000061, 36.695272800000055 ], [ 118.614736500000049, 36.696978300000069 ], [ 118.615789600000085, 36.698087200000032 ], [ 118.617497500000013, 36.698981200000048 ], [ 118.61963060000005, 36.700520800000049 ], [ 118.620200200000113, 36.700554300000078 ], [ 118.621157400000016, 36.700537700000041 ], [ 118.62248000000011, 36.699801600000058 ], [ 118.623672300000067, 36.698874100000069 ], [ 118.62659270000006, 36.696709800000065 ], [ 118.631051200000115, 36.693929300000036 ], [ 118.631620800000064, 36.693677100000059 ], [ 118.632879700000103, 36.69345880000003 ], [ 118.633060200000045, 36.693312300000059 ], [ 118.633340100000055, 36.693068600000061 ], [ 118.633843700000057, 36.692936800000041 ], [ 118.635054, 36.69286290000008 ], [ 118.635900600000014, 36.692843900000071 ], [ 118.636710700000094, 36.692909 ], [ 118.6372, 36.692839700000036 ], [ 118.637859200000094, 36.692678600000079 ], [ 118.638469100000066, 36.692724100000078 ], [ 118.639148800000044, 36.692853600000035 ], [ 118.640089500000045, 36.693574 ], [ 118.6406455, 36.694399400000066 ], [ 118.641408800000022, 36.695658700000024 ], [ 118.641887200000042, 36.696671500000036 ], [ 118.642923600000017, 36.69783810000007 ], [ 118.64356650000002, 36.698856900000067 ], [ 118.64417590000005, 36.700179400000025 ], [ 118.644412800000055, 36.701060700000028 ], [ 118.644667100000106, 36.70173090000003 ], [ 118.644730900000013, 36.702615 ], [ 118.644903500000055, 36.703247400000066 ], [ 118.645624800000064, 36.704915 ], [ 118.646882500000061, 36.706924500000071 ], [ 118.648436600000082, 36.708752300000072 ], [ 118.648984300000052, 36.709541800000068 ], [ 118.649776100000054, 36.71033140000003 ], [ 118.652219800000012, 36.712256 ], [ 118.652771500000085, 36.712699100000066 ], [ 118.653480200000104, 36.713072400000044 ], [ 118.654621, 36.713371500000051 ], [ 118.656969900000036, 36.713829800000042 ], [ 118.66010360000007, 36.714543500000048 ], [ 118.66111520000004, 36.715062100000068 ], [ 118.662057000000118, 36.716389400000025 ], [ 118.662440700000047, 36.717122900000049 ], [ 118.662545300000033, 36.717828500000053 ], [ 118.662213800000018, 36.718693700000074 ], [ 118.659943200000043, 36.72134090000003 ], [ 118.658557300000098, 36.724426600000072 ], [ 118.65940420000004, 36.727558400000078 ], [ 118.663273100000083, 36.730103900000074 ], [ 118.66619890000004, 36.733528600000056 ], [ 118.672454600000037, 36.736212700000067 ], [ 118.675380400000108, 36.740686 ], [ 118.676650800000061, 36.744989400000065 ], [ 118.677157600000101, 36.748410800000045 ], [ 118.677410400000099, 36.749664500000051 ], [ 118.677976100000024, 36.750262400000054 ], [ 118.679251800000088, 36.751226700000075 ], [ 118.680286900000056, 36.752316400000041 ], [ 118.681502500000079, 36.753001100000063 ], [ 118.681851500000107, 36.753386800000044 ], [ 118.681731100000093, 36.754081100000064 ], [ 118.681550600000037, 36.754823600000066 ], [ 118.681875600000012, 36.755739700000049 ], [ 118.682429200000115, 36.756501400000047 ], [ 118.683415600000103, 36.757247800000073 ], [ 118.685158500000057, 36.75896490000008 ], [ 118.686112300000104, 36.759625300000039 ], [ 118.686877800000048, 36.760521500000038 ], [ 118.689280100000019, 36.763295200000073 ], [ 118.69004550000011, 36.763814100000047 ], [ 118.691258500000117, 36.764219700000069 ], [ 118.692212300000051, 36.76459710000006 ], [ 118.693248600000061, 36.765285700000049 ], [ 118.695182400000022, 36.766742400000055 ], [ 118.697148100000049, 36.767954700000075 ], [ 118.698800700000106, 36.769181 ], [ 118.699861900000087, 36.770226100000059 ], [ 118.702123300000039, 36.77139660000006 ], [ 118.706507000000101, 36.773417100000074 ], [ 118.709325100000115, 36.774545800000055 ], [ 118.710977700000058, 36.775785900000074 ], [ 118.711464800000044, 36.776580100000047 ], [ 118.713708800000063, 36.778071 ], [ 118.716648700000064, 36.779589700000031 ], [ 118.719519000000105, 36.780592800000079 ], [ 118.722424100000012, 36.781317300000069 ], [ 118.724529, 36.782487700000047 ], [ 118.727451400000064, 36.784215300000028 ], [ 118.730478300000073, 36.787057400000037 ], [ 118.731156700000042, 36.788158 ], [ 118.733105, 36.789829700000041 ], [ 118.735366500000055, 36.791445700000054 ], [ 118.737906300000077, 36.792643800000064 ], [ 118.741281, 36.793855700000051 ], [ 118.743420700000115, 36.794719400000076 ], [ 118.744481800000017, 36.795652700000062 ], [ 118.746291, 36.797644700000035 ], [ 118.747491300000092, 36.799344100000042 ], [ 118.74863060000007, 36.800580400000058 ], [ 118.749352600000066, 36.801363800000047 ], [ 118.750187600000118, 36.802951700000051 ], [ 118.753186, 36.806693300000063 ], [ 118.7578181, 36.815823500000079 ], [ 118.7606551, 36.821518600000047 ], [ 118.764466, 36.826630300000033 ], [ 118.768414200000052, 36.828828800000053 ], [ 118.774044700000104, 36.832236300000034 ], [ 118.783829400000059, 36.839105800000027 ], [ 118.788841900000079, 36.844765800000062 ], [ 118.791382500000054, 36.858474600000079 ], [ 118.792927500000019, 36.865341700000045 ], [ 118.795592500000112, 36.868431800000053 ], [ 118.805578900000114, 36.880474800000059 ], [ 118.816964400000074, 36.881408500000077 ], [ 118.82503250000002, 36.882369700000027 ], [ 118.830525600000101, 36.887930400000073 ], [ 118.829581500000018, 36.893765300000041 ], [ 118.826181, 36.899300600000061 ], [ 118.823886600000037, 36.901118 ], [ 118.822042900000042, 36.904115 ], [ 118.821477100000038, 36.907727600000044 ], [ 118.822796200000084, 36.912372300000072 ], [ 118.824161500000059, 36.913588600000026 ], [ 118.826141400000097, 36.914264400000036 ], [ 118.827693200000112, 36.915453400000047 ], [ 118.830888600000094, 36.917487 ], [ 118.833100500000114, 36.919913800000074 ], [ 118.836237700000083, 36.922739300000046 ], [ 118.84019950000004, 36.931280800000025 ], [ 118.841400400000111, 36.933868 ], [ 118.842475700000023, 36.936951200000067 ], [ 118.843921600000044, 36.940368300000046 ], [ 118.845185500000071, 36.943799400000046 ], [ 118.844913, 36.946113400000058 ], [ 118.84262010000009, 36.955650100000071 ], [ 118.841132500000072, 36.957298300000048 ], [ 118.839452, 36.966835100000026 ], [ 118.8446662, 36.974206800000047 ], [ 118.84568390000004, 36.979920400000026 ], [ 118.843657700000108, 36.98815970000004 ], [ 118.844344400000068, 36.995563600000025 ], [ 118.847348400000101, 37.000704800000051 ], [ 118.8548422, 37.003755600000034 ], [ 118.856247200000098, 37.005356400000039 ], [ 118.856461700000068, 37.006778700000041 ], [ 118.855131400000118, 37.007926700000041 ], [ 118.852813900000115, 37.008406500000035 ], [ 118.849552400000107, 37.007635400000026 ], [ 118.844166500000028, 37.004962300000045 ], [ 118.842235300000084, 37.004825200000028 ], [ 118.839853500000117, 37.006144600000027 ], [ 118.838566, 37.008869100000027 ], [ 118.838051, 37.013049900000055 ], [ 118.838608900000054, 37.016973500000063 ], [ 118.839724700000033, 37.02046850000005 ], [ 118.841055100000062, 37.022387300000048 ], [ 118.843587100000036, 37.023483800000065 ], [ 118.845883100000037, 37.023209700000052 ], [ 118.84811470000011, 37.022438700000066 ], [ 118.850839800000017, 37.020691300000067 ], [ 118.852384800000095, 37.020177300000057 ], [ 118.854069200000026, 37.02010880000006 ], [ 118.85547280000003, 37.020363800000041 ], [ 118.856824600000095, 37.021074700000042 ], [ 118.857768800000031, 37.021545900000035 ], [ 118.8582642, 37.021941900000058 ], [ 118.859959300000014, 37.025359700000024 ], [ 118.859906500000079, 37.026880200000051 ], [ 118.860045100000093, 37.029668 ], [ 118.859980800000017, 37.030575900000031 ], [ 118.860418800000048, 37.031678800000066 ], [ 118.861182400000075, 37.032665800000075 ], [ 118.862028100000089, 37.033186200000046 ], [ 118.863092200000096, 37.033419400000071 ], [ 118.864603000000102, 37.033494500000074 ], [ 118.866160600000057, 37.032974100000047 ], [ 118.868006, 37.031586600000026 ], [ 118.868701400000077, 37.031370500000037 ], [ 118.869400700000028, 37.031432400000028 ], [ 118.871203200000082, 37.033213900000078 ], [ 118.873542, 37.038198400000056 ], [ 118.874572, 37.042617300000074 ], [ 118.874864400000092, 37.043107600000042 ], [ 118.876273300000094, 37.043345400000078 ], [ 118.877434700000094, 37.043711500000029 ], [ 118.878509500000064, 37.044056 ], [ 118.879258600000071, 37.044148200000052 ], [ 118.87993640000002, 37.043919 ], [ 118.88043, 37.042874200000028 ], [ 118.879335600000104, 37.040150900000071 ], [ 118.879335600000104, 37.039705600000048 ], [ 118.880000800000062, 37.039345900000058 ], [ 118.882296800000063, 37.03900340000007 ], [ 118.884163600000079, 37.039380200000039 ], [ 118.886266400000068, 37.040013900000076 ], [ 118.889120300000059, 37.04119570000006 ], [ 118.891008600000077, 37.042377500000043 ], [ 118.8918883, 37.043216800000039 ], [ 118.892339000000106, 37.044090200000028 ], [ 118.89193130000001, 37.045083600000055 ], [ 118.89090130000011, 37.045186400000034 ], [ 118.888304900000094, 37.045135 ], [ 118.885644200000115, 37.045323400000029 ], [ 118.885150600000088, 37.045837200000051 ], [ 118.885815800000046, 37.046916100000033 ], [ 118.88796160000004, 37.048988400000042 ], [ 118.8911802, 37.050769400000036 ], [ 118.893647900000019, 37.052293600000041 ], [ 118.894270200000051, 37.052841600000079 ], [ 118.895514700000035, 37.053235500000028 ], [ 118.897381500000051, 37.05337250000008 ], [ 118.899119600000063, 37.052550500000052 ], [ 118.89978480000002, 37.052345 ], [ 118.90034270000001, 37.052413500000057 ], [ 118.900836200000072, 37.052893 ], [ 118.900814700000069, 37.054262900000026 ], [ 118.900750400000106, 37.054999300000077 ], [ 118.901673, 37.055444500000078 ], [ 118.90311070000007, 37.056026800000041 ], [ 118.903527200000099, 37.056786800000054 ], [ 118.903602400000068, 37.057232 ], [ 118.903430700000058, 37.057617300000061 ], [ 118.902960500000063, 37.058218600000032 ], [ 118.90176960000008, 37.059605600000054 ], [ 118.901639, 37.060459800000046 ], [ 118.901994900000091, 37.061660400000051 ], [ 118.902574300000083, 37.063954900000056 ], [ 118.90349690000005, 37.064057600000069 ], [ 118.906973100000073, 37.063835 ], [ 118.908904300000017, 37.063886400000058 ], [ 118.910685300000068, 37.06422880000008 ], [ 118.910985700000083, 37.065187700000024 ], [ 118.909977200000071, 37.066454700000065 ], [ 118.907659700000067, 37.06799570000004 ], [ 118.904720000000111, 37.068903100000057 ], [ 118.9034951000001, 37.069200700000067 ], [ 118.902788800000053, 37.069510800000046 ], [ 118.902701100000058, 37.069945500000074 ], [ 118.902778100000091, 37.070435500000031 ], [ 118.904741500000114, 37.071916400000077 ], [ 118.907938700000045, 37.073910900000044 ], [ 118.90939590000005, 37.074953200000039 ], [ 118.910136200000011, 37.075218600000028 ], [ 118.910728200000108, 37.075169300000027 ], [ 118.911543600000073, 37.074741200000062 ], [ 118.912882800000034, 37.07409720000004 ], [ 118.913539100000094, 37.073097700000062 ], [ 118.915942400000063, 37.071317200000067 ], [ 118.916559300000017, 37.071248700000069 ], [ 118.916938300000083, 37.071456400000045 ], [ 118.917573100000027, 37.07203190000007 ], [ 118.918860600000016, 37.073559900000078 ], [ 118.920555800000102, 37.074655600000028 ], [ 118.92083290000005, 37.074996 ], [ 118.920952700000043, 37.07526340000004 ], [ 118.920791800000075, 37.075802700000054 ], [ 118.920040800000038, 37.07686410000008 ], [ 118.91954730000009, 37.07706950000005 ], [ 118.918281300000103, 37.077831400000036 ], [ 118.918045200000051, 37.078036800000064 ], [ 118.918000400000096, 37.078325800000073 ], [ 118.918268700000112, 37.078711 ], [ 118.919225400000073, 37.079106700000068 ], [ 118.922143700000106, 37.08009960000004 ], [ 118.925941700000067, 37.081417700000031 ], [ 118.927116500000011, 37.081824300000051 ], [ 118.927291600000103, 37.082014900000047 ], [ 118.927382800000032, 37.082237400000054 ], [ 118.927465200000029, 37.08273580000008 ], [ 118.92757250000011, 37.083899900000063 ], [ 118.927254100000027, 37.08442430000008 ], [ 118.927195100000063, 37.084749500000044 ], [ 118.927282800000057, 37.085033900000042 ], [ 118.9276671, 37.085198800000057 ], [ 118.928339600000072, 37.085265 ], [ 118.92907260000004, 37.085305800000071 ], [ 118.929541200000017, 37.085256500000071 ], [ 118.930442400000061, 37.085033900000042 ], [ 118.931073500000025, 37.084788 ], [ 118.931422200000043, 37.084728100000063 ], [ 118.9316923, 37.084738700000059 ], [ 118.933103200000119, 37.085624500000051 ], [ 118.933623500000067, 37.086056700000029 ], [ 118.934041900000011, 37.08618510000008 ], [ 118.934378, 37.086204500000065 ], [ 118.934910900000091, 37.086035300000049 ], [ 118.93551530000002, 37.085733800000071 ], [ 118.9362145, 37.085658700000067 ], [ 118.936497, 37.085669600000074 ], [ 118.936761700000034, 37.085774300000026 ], [ 118.936952900000051, 37.085990500000037 ], [ 118.937051400000087, 37.086322 ], [ 118.937146100000064, 37.086910600000067 ], [ 118.937035300000048, 37.087357600000075 ], [ 118.937095100000079, 37.08760170000005 ], [ 118.937162200000103, 37.087736500000062 ], [ 118.937319600000023, 37.08787760000007 ], [ 118.937551100000064, 37.087937600000032 ], [ 118.937763, 37.08796540000003 ], [ 118.937979400000017, 37.087952500000029 ], [ 118.938127800000075, 37.087854200000038 ], [ 118.938379900000086, 37.087505400000055 ], [ 118.938907500000028, 37.087109400000031 ], [ 118.940221700000052, 37.08655310000006 ], [ 118.940960200000063, 37.086482600000068 ], [ 118.942163700000037, 37.086536 ], [ 118.942472900000098, 37.086555400000066 ], [ 118.942757200000074, 37.086452700000052 ], [ 118.942979100000116, 37.086279200000035 ], [ 118.943073700000014, 37.086144600000068 ], [ 118.943118500000082, 37.085966800000051 ], [ 118.943089800000052, 37.08574660000005 ], [ 118.942979, 37.085466100000076 ], [ 118.942499800000064, 37.084980600000051 ], [ 118.941938400000026, 37.08482 ], [ 118.941695100000061, 37.084740900000043 ], [ 118.9415629, 37.084550400000069 ], [ 118.941605800000048, 37.08429360000008 ], [ 118.941743400000064, 37.084180300000071 ], [ 118.941927700000065, 37.084105300000033 ], [ 118.943300900000054, 37.083899900000063 ], [ 118.945425200000045, 37.08378010000007 ], [ 118.947259900000063, 37.083827100000065 ], [ 118.947719300000017, 37.084000600000024 ], [ 118.948096700000065, 37.084297900000024 ], [ 118.949185700000044, 37.085132300000055 ], [ 118.949602200000072, 37.085494100000062 ], [ 118.949902600000087, 37.085596800000076 ], [ 118.95022640000002, 37.085620200000051 ], [ 118.950841400000058, 37.085519800000043 ], [ 118.951297400000044, 37.085327200000052 ], [ 118.951513800000043, 37.085106600000074 ], [ 118.951844600000072, 37.084638200000029 ], [ 118.952576, 37.084118100000069 ], [ 118.953303700000106, 37.083457100000032 ], [ 118.953555800000117, 37.083204600000045 ], [ 118.95370790000004, 37.082907 ], [ 118.954458900000077, 37.081760100000054 ], [ 118.955585400000018, 37.08104540000005 ], [ 118.956388200000106, 37.080829400000027 ], [ 118.956962200000021, 37.080897900000025 ], [ 118.958010100000024, 37.080514700000037 ], [ 118.959896600000093, 37.079669600000045 ], [ 118.961003500000061, 37.079222200000061 ], [ 118.961931500000105, 37.079093900000032 ], [ 118.963374600000066, 37.079021100000034 ], [ 118.964821100000108, 37.079224500000066 ], [ 118.966097800000057, 37.079258800000048 ], [ 118.967655400000012, 37.079226600000027 ], [ 118.968983900000012, 37.079036200000075 ], [ 118.969726, 37.078738600000065 ], [ 118.970659400000045, 37.078079600000081 ], [ 118.971762600000034, 37.077615300000048 ], [ 118.972578000000112, 37.077683800000045 ], [ 118.973331, 37.077968300000066 ], [ 118.976088200000049, 37.078293600000052 ], [ 118.977111, 37.07855260000008 ], [ 118.97814290000008, 37.079111 ], [ 118.984263600000077, 37.082907 ], [ 118.987890000000107, 37.084447600000033 ], [ 118.99248190000003, 37.085183700000073 ], [ 118.997782, 37.084276500000044 ], [ 118.999412700000107, 37.082581800000071 ], [ 119.000850400000104, 37.081623200000024 ], [ 119.00447680000002, 37.081537600000047 ], [ 119.011321800000019, 37.082804300000078 ], [ 119.016021, 37.085217900000032 ], [ 119.018939200000091, 37.086707200000035 ], [ 119.024325100000055, 37.08749460000007 ], [ 119.026956900000073, 37.088505 ], [ 119.028552300000115, 37.08982240000006 ], [ 119.030633700000067, 37.091910600000062 ], [ 119.034195600000089, 37.093570900000032 ], [ 119.036148300000036, 37.094033 ], [ 119.03695730000004, 37.094307300000025 ], [ 119.038508600000114, 37.093930300000068 ], [ 119.041126500000018, 37.093091600000037 ], [ 119.045332200000075, 37.091499900000031 ], [ 119.05003140000008, 37.090164800000025 ], [ 119.0577776, 37.088316200000065 ], [ 119.064837200000056, 37.088607200000069 ], [ 119.069665200000031, 37.087631500000043 ], [ 119.072840900000074, 37.086193600000058 ], [ 119.075651900000025, 37.084824200000071 ], [ 119.079986300000087, 37.084841400000073 ], [ 119.084943, 37.085098100000039 ], [ 119.086273400000096, 37.084704400000078 ], [ 119.088097300000072, 37.084653100000025 ], [ 119.090135800000098, 37.085303500000066 ], [ 119.09260340000003, 37.085389100000043 ], [ 119.106229, 37.082444800000076 ], [ 119.115155400000049, 37.081006900000034 ], [ 119.117553500000099, 37.08068250000008 ] ] } }
]
}
