{
"type": "FeatureCollection",
"name": "Sihe_Sishui",
"crs": { "type": "name", "properties": { "name": "urn:ogc:def:crs:OGC:1.3:CRS84" } },
"features": [
{ "type": "Feature", "properties": { "osm_id": "291138965", "code": 8101, "fclass": "river", "width": 0, "name": "泗河", "Shape_Leng": 0.25268303007499998 }, "geometry": { "type": "LineString", "coordinates": [ [ 117.57875660000002, 35.694383800000026 ], [ 117.578437800000074, 35.693454 ], [ 117.578263900000024, 35.690829200000053 ], [ 117.578481300000021, 35.687827600000048 ], [ 117.578731400000038, 35.684332400000073 ], [ 117.578672, 35.683858200000032 ], [ 117.578602700000033, 35.683304100000043 ], [ 117.578671400000076, 35.683011700000066 ], [ 117.57913910000002, 35.681020900000078 ], [ 117.5815209000001, 35.676611100000059 ], [ 117.583602300000052, 35.672497400000054 ], [ 117.584246100000087, 35.671312 ], [ 117.583559400000013, 35.670056900000077 ], [ 117.583270300000095, 35.66970230000004 ], [ 117.582846, 35.669148200000052 ], [ 117.582641200000012, 35.668713 ], [ 117.582474900000079, 35.668377400000054 ], [ 117.582339, 35.667886600000031 ], [ 117.582316700000092, 35.667549400000041 ], [ 117.582363700000087, 35.666940900000043 ], [ 117.582437500000083, 35.666063100000031 ], [ 117.582589800000051, 35.665307600000062 ], [ 117.5826968, 35.66497860000004 ], [ 117.583035100000075, 35.664660500000025 ], [ 117.583334100000116, 35.664516800000058 ], [ 117.583600300000057, 35.66446940000003 ], [ 117.583753900000033, 35.66458190000003 ], [ 117.583921, 35.664667400000042 ], [ 117.584503600000062, 35.665053800000067 ], [ 117.58475210000006, 35.66536810000008 ], [ 117.584956, 35.665570800000069 ], [ 117.585098100000096, 35.665631800000028 ], [ 117.585225100000116, 35.66563560000003 ], [ 117.585433400000056, 35.665546800000072 ], [ 117.5857052, 35.665489600000058 ], [ 117.586047600000029, 35.665464 ], [ 117.586315900000045, 35.665407400000049 ], [ 117.586483, 35.665354600000057 ], [ 117.586533100000111, 35.665307100000064 ], [ 117.586557300000095, 35.665230800000074 ], [ 117.586520600000085, 35.664844600000038 ], [ 117.586456200000043, 35.664251900000068 ], [ 117.586134300000026, 35.66332790000007 ], [ 117.586005600000021, 35.662194700000043 ], [ 117.585962700000096, 35.660625700000026 ], [ 117.585962700000096, 35.659579600000029 ], [ 117.585984100000019, 35.658673 ], [ 117.585854300000051, 35.657679700000074 ], [ 117.585596800000076, 35.657165400000054 ], [ 117.585428600000114, 35.656932500000039 ], [ 117.585138700000016, 35.65674480000007 ], [ 117.584813600000075, 35.65659 ], [ 117.584328600000049, 35.656464100000051 ], [ 117.5837735, 35.656441800000039 ], [ 117.582528900000057, 35.656450600000028 ], [ 117.581574100000012, 35.65659 ], [ 117.5803188000001, 35.656407 ], [ 117.579870800000094, 35.656108400000051 ], [ 117.579567800000063, 35.65565730000003 ], [ 117.579610700000103, 35.655073200000061 ], [ 117.579771600000072, 35.654175300000077 ], [ 117.58005060000005, 35.65370450000006 ], [ 117.579913800000099, 35.653179300000033 ], [ 117.579439, 35.651699400000041 ], [ 117.579449400000044, 35.65126360000005 ], [ 117.579546300000061, 35.650949600000047 ], [ 117.580407300000047, 35.650145400000042 ], [ 117.580806600000074, 35.649842500000034 ], [ 117.581010500000048, 35.649676900000031 ], [ 117.581102000000101, 35.649354200000062 ], [ 117.580900800000109, 35.647922200000039 ], [ 117.580828100000076, 35.647763200000043 ], [ 117.580860600000051, 35.647379500000056 ], [ 117.581048, 35.646778 ], [ 117.581069800000023, 35.646294100000034 ], [ 117.581005100000084, 35.646119800000065 ], [ 117.580822700000112, 35.64596720000003 ], [ 117.580471700000089, 35.645821100000035 ], [ 117.576617300000066, 35.644454400000029 ], [ 117.575971, 35.644072900000026 ], [ 117.575807, 35.643774500000063 ], [ 117.575785500000052, 35.643491100000062 ], [ 117.575737600000025, 35.642928600000062 ], [ 117.575672900000086, 35.64260610000008 ], [ 117.575458300000037, 35.642331500000068 ], [ 117.575166200000012, 35.642224500000054 ], [ 117.573851700000091, 35.641311100000053 ], [ 117.573033900000041, 35.640775 ], [ 117.572683400000074, 35.640158100000065 ], [ 117.572427200000106, 35.639654800000073 ], [ 117.57250010000007, 35.638636600000041 ], [ 117.572550800000045, 35.637640500000032 ], [ 117.572840900000074, 35.63645960000008 ], [ 117.572812400000089, 35.635743600000069 ], [ 117.572804800000085, 35.635398300000077 ], [ 117.5726638000001, 35.635108900000034 ], [ 117.571757200000093, 35.634374900000068 ], [ 117.569944, 35.633206400000063 ], [ 117.567015, 35.630764800000065 ], [ 117.557492600000046, 35.625345400000072 ], [ 117.545478600000024, 35.628195100000028 ], [ 117.542496, 35.631317 ], [ 117.540178600000104, 35.632520400000033 ], [ 117.538268900000048, 35.63313080000006 ], [ 117.535865600000079, 35.634717800000033 ], [ 117.531466800000089, 35.633828400000027 ], [ 117.527754600000094, 35.634421400000065 ], [ 117.524965100000031, 35.634543400000041 ], [ 117.523248500000022, 35.634962 ], [ 117.518055700000104, 35.634002800000076 ], [ 117.513120500000014, 35.634491100000048 ], [ 117.509322500000053, 35.636444400000073 ], [ 117.505739, 35.635956100000044 ], [ 117.503563400000075, 35.633005 ], [ 117.503426800000057, 35.632790100000079 ], [ 117.503134800000112, 35.632525 ], [ 117.502971700000103, 35.632142700000031 ], [ 117.502782, 35.632022400000039 ], [ 117.502368500000102, 35.632084100000043 ], [ 117.501917100000014, 35.632185800000059 ], [ 117.501497, 35.632361700000047 ], [ 117.501234400000044, 35.632682200000033 ], [ 117.5007935000001, 35.633174600000075 ], [ 117.499669800000106, 35.634292100000039 ], [ 117.499777100000074, 35.634736900000064 ], [ 117.499734200000034, 35.634959200000026 ], [ 117.498643600000037, 35.635873100000026 ], [ 117.497849100000053, 35.636117500000069 ], [ 117.497306800000047, 35.636395800000059 ], [ 117.496179700000084, 35.637455900000077 ], [ 117.496081000000117, 35.638032900000042 ], [ 117.496317, 35.639013800000043 ], [ 117.496651700000029, 35.63946130000005 ], [ 117.497388000000115, 35.639951600000074 ], [ 117.497664900000018, 35.640420200000051 ], [ 117.498055600000043, 35.64055890000003 ], [ 117.498624600000085, 35.640651400000024 ], [ 117.499034300000062, 35.641015100000061 ], [ 117.499330200000031, 35.641169300000058 ], [ 117.499565300000086, 35.641927600000031 ], [ 117.500188300000104, 35.64207330000005 ], [ 117.500705100000118, 35.642335800000069 ], [ 117.500833900000089, 35.642527700000073 ], [ 117.500790900000084, 35.642954900000063 ], [ 117.500954, 35.643315100000052 ], [ 117.501005500000019, 35.643961900000079 ], [ 117.500866100000053, 35.644014200000072 ], [ 117.500581700000112, 35.644097100000067 ], [ 117.499623600000064, 35.644448600000032 ], [ 117.49870420000002, 35.644454500000052 ], [ 117.497670900000116, 35.644165300000054 ], [ 117.495544500000051, 35.643191500000057 ], [ 117.495188, 35.642997300000047 ], [ 117.494759300000055, 35.642920200000049 ], [ 117.49446730000011, 35.642833900000028 ], [ 117.494372400000088, 35.64244860000008 ], [ 117.49386410000011, 35.642205 ], [ 117.493670700000052, 35.642118700000026 ], [ 117.493460400000117, 35.642284500000073 ], [ 117.493295200000034, 35.642208100000062 ], [ 117.4929538, 35.642084800000077 ], [ 117.492392400000085, 35.642047800000057 ], [ 117.491019100000017, 35.642157700000041 ], [ 117.489907800000083, 35.642763 ], [ 117.489350200000104, 35.642926400000079 ], [ 117.489228800000092, 35.643092800000034 ], [ 117.488492900000097, 35.643247 ], [ 117.488254, 35.643499700000064 ], [ 117.487540900000113, 35.643595300000072 ], [ 117.487468800000102, 35.644116300000064 ], [ 117.48756440000011, 35.64477990000006 ], [ 117.487959300000057, 35.645313300000055 ], [ 117.488388400000076, 35.645657700000072 ], [ 117.48919520000004, 35.646349300000054 ], [ 117.489350200000104, 35.647482400000058 ], [ 117.489418500000056, 35.648105 ], [ 117.489456400000108, 35.648397800000055 ], [ 117.489383, 35.648550600000078 ], [ 117.489156800000046, 35.64878310000006 ], [ 117.488800200000014, 35.648881800000026 ], [ 117.488223600000083, 35.648838600000033 ], [ 117.486737700000049, 35.648594400000036 ], [ 117.485932500000104, 35.648499600000036 ], [ 117.485060100000055, 35.648536500000034 ], [ 117.483940600000096, 35.648701700000061 ], [ 117.483125500000028, 35.648814 ], [ 117.482782600000064, 35.648728800000072 ], [ 117.482699500000081, 35.648752800000068 ], [ 117.482670400000075, 35.648826300000053 ], [ 117.4822, 35.649487900000054 ], [ 117.4815992, 35.651772 ], [ 117.48009710000008, 35.652556600000025 ], [ 117.471235100000058, 35.656566800000064 ], [ 117.467372700000055, 35.655817100000036 ], [ 117.465505900000039, 35.653533 ], [ 117.465289900000016, 35.65166830000004 ], [ 117.465785100000062, 35.648569400000042 ], [ 117.465388900000107, 35.647160800000051 ], [ 117.464547, 35.645913200000052 ], [ 117.464695600000027, 35.643256800000074 ], [ 117.461476300000072, 35.639473300000077 ], [ 117.456919800000037, 35.638507300000072 ], [ 117.450728900000058, 35.638547600000038 ], [ 117.447229300000117, 35.637675900000033 ] ] } },
{ "type": "Feature", "properties": { "osm_id": "396349971", "code": 8101, "fclass": "river", "width": 0, "name": "泗河", "Shape_Leng": 0.51973638822400003 }, "geometry": { "type": "LineString", "coordinates": [ [ 117.208669100000066, 35.684469900000067 ], [ 117.20424330000003, 35.682716300000038 ], [ 117.204027400000086, 35.67938440000006 ], [ 117.203487700000096, 35.676578500000062 ], [ 117.201544700000113, 35.675350900000069 ], [ 117.202624100000094, 35.674035500000059 ], [ 117.20424330000003, 35.674035500000059 ], [ 117.203055900000095, 35.672544800000026 ], [ 117.197982400000114, 35.672720200000072 ], [ 117.195391700000073, 35.672807900000066 ], [ 117.18502890000002, 35.670352500000035 ], [ 117.180171300000097, 35.66640620000004 ], [ 117.175853500000017, 35.661933400000066 ], [ 117.173910500000034, 35.661845700000072 ], [ 117.17207540000004, 35.658688400000074 ], [ 117.168405200000052, 35.658512900000062 ], [ 117.162144400000102, 35.658512900000062 ], [ 117.156747000000109, 35.656232500000044 ], [ 117.150378200000091, 35.653601200000026 ], [ 117.14767960000006, 35.650443500000051 ], [ 117.145088900000019, 35.649390900000071 ], [ 117.141418700000031, 35.64877690000003 ], [ 117.1373168, 35.646496200000058 ], [ 117.134510200000022, 35.645882200000074 ], [ 117.13310690000003, 35.644390900000076 ], [ 117.129112900000109, 35.643776800000069 ], [ 117.125766500000054, 35.64193460000007 ], [ 117.123499700000025, 35.640618700000061 ], [ 117.123175800000013, 35.638776500000063 ], [ 117.120909, 35.638162400000056 ], [ 117.118965900000035, 35.628511600000024 ], [ 117.113028900000018, 35.624387700000057 ], [ 117.102989900000011, 35.623159300000054 ], [ 117.0942463, 35.629301200000043 ], [ 117.091709800000103, 35.630260200000066 ], [ 117.08604240000011, 35.629213500000048 ], [ 117.080321300000037, 35.626669 ], [ 117.074923900000044, 35.623861200000078 ], [ 117.06985050000003, 35.623422500000061 ], [ 117.065424700000108, 35.626405800000043 ], [ 117.064021400000115, 35.630968300000063 ], [ 117.061970400000064, 35.63632 ], [ 117.053226800000061, 35.637372800000037 ], [ 117.046858, 35.635530500000073 ], [ 117.0424322, 35.635267300000066 ], [ 117.035134200000016, 35.632984300000032 ], [ 117.030479200000059, 35.630912100000046 ], [ 117.02625850000004, 35.630901100000074 ], [ 117.023433700000055, 35.631319200000064 ], [ 117.018468200000029, 35.631845600000077 ], [ 117.017604600000027, 35.633688100000029 ], [ 117.01490600000011, 35.635267300000066 ], [ 117.004759, 35.63500410000006 ], [ 117.000638900000013, 35.635210700000073 ], [ 116.987487700000088, 35.634653100000037 ], [ 116.983925400000089, 35.635881400000073 ], [ 116.980902900000046, 35.640180100000066 ], [ 116.97712480000007, 35.642636400000072 ], [ 116.96575990000008, 35.645015300000068 ], [ 116.962876, 35.645619 ], [ 116.959205800000063, 35.645531300000073 ], [ 116.956831, 35.643513700000028 ], [ 116.953484700000104, 35.638776500000063 ], [ 116.952513100000033, 35.63500410000006 ], [ 116.951325700000098, 35.632196600000043 ], [ 116.948950900000114, 35.630003100000067 ], [ 116.944741, 35.630090900000027 ], [ 116.941502600000035, 35.631406900000059 ], [ 116.935349700000074, 35.631933400000037 ], [ 116.931463700000108, 35.630178600000079 ], [ 116.924095800000032, 35.62286720000003 ], [ 116.921411900000066, 35.621569 ], [ 116.918866200000025, 35.621943500000043 ], [ 116.917538600000057, 35.623685800000032 ], [ 116.917214800000011, 35.627809700000057 ], [ 116.912896900000078, 35.630968300000063 ], [ 116.909658600000057, 35.63167020000003 ], [ 116.904801, 35.630880500000046 ], [ 116.900914900000089, 35.63158240000007 ], [ 116.895517600000062, 35.629301200000043 ], [ 116.891307700000084, 35.623159300000054 ], [ 116.889364700000101, 35.617982100000063 ], [ 116.885802500000068, 35.616402600000072 ], [ 116.880405200000041, 35.61622710000006 ], [ 116.875633300000118, 35.617359400000055 ], [ 116.874135400000114, 35.618961600000034 ], [ 116.869818800000075, 35.622889400000076 ], [ 116.863019500000064, 35.626523500000076 ], [ 116.858604700000114, 35.62767690000004 ], [ 116.853322700000035, 35.626139 ], [ 116.849223200000097, 35.622614500000054 ], [ 116.850090400000113, 35.617936200000031 ], [ 116.850289500000031, 35.615708500000039 ], [ 116.85064090000003, 35.611776700000064 ], [ 116.849039900000093, 35.609544 ], [ 116.84595, 35.606054900000061 ], [ 116.845478, 35.604031100000043 ], [ 116.84552090000011, 35.602286400000025 ], [ 116.847409200000016, 35.596808 ], [ 116.851185700000087, 35.592620400000044 ], [ 116.851443200000062, 35.588990900000056 ], [ 116.848782400000118, 35.584663300000045 ], [ 116.84770960000003, 35.58229 ], [ 116.846336300000075, 35.575379 ], [ 116.846422100000041, 35.572097900000074 ], [ 116.848782400000118, 35.567525 ], [ 116.850503300000014, 35.562625400000059 ], [ 116.850112800000034, 35.559774900000036 ], [ 116.849082800000019, 35.554677600000048 ], [ 116.849191, 35.552770800000076 ], [ 116.849211600000103, 35.552408100000036 ], [ 116.849292900000023, 35.55111450000004 ] ] } },
{ "type": "Feature", "properties": { "osm_id": "396349972", "code": 8101, "fclass": "river", "width": 0, "name": "泗河", "Shape_Leng": 0.42628260227100001 }, "geometry": { "type": "LineString", "coordinates": [ [ 116.849422900000036, 35.549047200000075 ], [ 116.848093800000015, 35.546965500000056 ], [ 116.846119600000065, 35.545149800000047 ], [ 116.836849900000061, 35.540889600000071 ], [ 116.826206900000102, 35.536629300000072 ], [ 116.821829600000115, 35.532927400000062 ], [ 116.824147, 35.529085700000053 ], [ 116.828352700000096, 35.524265900000046 ], [ 116.828420700000038, 35.52270580000004 ], [ 116.828521300000034, 35.520399200000043 ], [ 116.825551500000074, 35.517182600000069 ], [ 116.824318700000049, 35.514695200000062 ], [ 116.821256800000015, 35.507762700000058 ], [ 116.821062600000118, 35.506737300000054 ], [ 116.82111610000004, 35.505284900000049 ], [ 116.820595200000071, 35.501284 ], [ 116.82037170000001, 35.499751900000035 ], [ 116.819424500000082, 35.495604700000058 ], [ 116.81960980000008, 35.49023 ], [ 116.819213800000057, 35.483420900000056 ], [ 116.8182696, 35.478458500000045 ], [ 116.817325500000038, 35.465561800000046 ], [ 116.816638800000078, 35.450495700000033 ], [ 116.814922200000069, 35.435671500000069 ], [ 116.812776500000041, 35.430846 ], [ 116.810029900000018, 35.42706940000005 ], [ 116.80488, 35.421683800000039 ], [ 116.799858900000118, 35.418116600000076 ], [ 116.795782, 35.41388470000004 ], [ 116.794623300000012, 35.410072300000024 ], [ 116.786598100000106, 35.400383 ], [ 116.784630400000083, 35.39902920000003 ], [ 116.777028, 35.394680900000026 ], [ 116.769560700000056, 35.394086200000061 ], [ 116.76316630000008, 35.394471 ], [ 116.757158200000049, 35.393736300000057 ], [ 116.751879600000052, 35.390622700000051 ], [ 116.7502488, 35.387685600000054 ], [ 116.750205900000083, 35.382122500000037 ], [ 116.754068300000085, 35.369175400000074 ], [ 116.756943600000113, 35.364765900000066 ], [ 116.757673200000113, 35.360706200000038 ], [ 116.755742, 35.355036200000029 ], [ 116.752351700000077, 35.348000700000057 ], [ 116.749304700000039, 35.344780300000025 ], [ 116.745485200000076, 35.342259900000045 ], [ 116.742438200000038, 35.338409100000035 ], [ 116.742009100000018, 35.333927900000049 ], [ 116.739820400000099, 35.331687200000033 ], [ 116.735571800000116, 35.328291100000058 ], [ 116.7357005, 35.325595100000044 ], [ 116.736172600000032, 35.324334500000077 ], [ 116.73861880000004, 35.32163840000004 ], [ 116.73904790000006, 35.319677500000068 ], [ 116.73866170000008, 35.317961700000069 ], [ 116.731838100000118, 35.311413200000061 ], [ 116.730722300000025, 35.309662200000048 ], [ 116.73042190000001, 35.306650400000024 ], [ 116.730851100000109, 35.303253200000029 ], [ 116.730121500000109, 35.301502 ], [ 116.728233200000091, 35.299960900000031 ], [ 116.725615400000038, 35.299996 ], [ 116.72166720000007, 35.299960900000031 ], [ 116.719263900000101, 35.299400500000047 ], [ 116.715787800000044, 35.297018800000046 ], [ 116.711324600000012, 35.293761300000028 ], [ 116.709994200000096, 35.291869800000029 ], [ 116.708792600000038, 35.286019800000076 ], [ 116.705831400000079, 35.279118500000038 ], [ 116.702355300000022, 35.275895300000059 ], [ 116.698192500000118, 35.27347780000008 ], [ 116.690896900000098, 35.267311200000051 ], [ 116.678666, 35.253084100000024 ], [ 116.669568, 35.242359600000043 ], [ 116.663582400000109, 35.235841200000038 ], [ 116.662873200000035, 35.235068900000044 ], [ 116.663130700000011, 35.234262700000045 ], [ 116.665147700000034, 35.232895600000063 ], [ 116.665182700000059, 35.232837200000063 ], [ 116.666134700000043, 35.231248100000073 ], [ 116.666187900000068, 35.230797300000063 ], [ 116.666194300000029, 35.230742700000064 ] ] } },
{ "type": "Feature", "properties": { "osm_id": "396349973", "code": 8101, "fclass": "river", "width": 0, "name": "泗河", "Shape_Leng": 0.28846427853700002 }, "geometry": { "type": "LineString", "coordinates": [ [ 117.447229300000117, 35.637675900000033 ], [ 117.444795000000113, 35.63827370000007 ], [ 117.442973600000073, 35.639440900000068 ], [ 117.441887700000052, 35.640052900000057 ], [ 117.441152200000033, 35.640935300000024 ], [ 117.438630300000113, 35.64274290000003 ], [ 117.43647610000005, 35.645233500000074 ], [ 117.431992700000023, 35.647140600000057 ], [ 117.427386800000022, 35.649147200000073 ], [ 117.421292100000073, 35.651538 ], [ 117.415302600000018, 35.653686900000025 ], [ 117.408052100000077, 35.655565300000035 ], [ 117.403489900000068, 35.657823700000051 ], [ 117.399328500000024, 35.659051400000067 ], [ 117.396801900000014, 35.658447600000045 ], [ 117.392838600000118, 35.658427400000051 ], [ 117.390064300000063, 35.658950700000048 ], [ 117.387360400000034, 35.66056640000005 ], [ 117.383576700000049, 35.662188900000046 ], [ 117.379162400000041, 35.662843600000031 ], [ 117.375150900000108, 35.663242100000048 ], [ 117.371524900000054, 35.664138700000024 ], [ 117.368634500000098, 35.664409100000057 ], [ 117.367618500000049, 35.665134900000055 ], [ 117.36655, 35.665561900000057 ], [ 117.364675700000021, 35.665433800000073 ], [ 117.362486000000104, 35.666074200000025 ], [ 117.360997100000077, 35.667468900000074 ], [ 117.359175300000061, 35.667881600000044 ], [ 117.358614700000089, 35.670471600000042 ], [ 117.358772400000021, 35.672392700000046 ], [ 117.358281900000065, 35.674598400000036 ], [ 117.356915600000093, 35.675267200000064 ], [ 117.353657400000088, 35.674897200000032 ], [ 117.351134900000034, 35.67341730000004 ], [ 117.348577400000067, 35.670827400000064 ], [ 117.347035900000037, 35.668194700000072 ], [ 117.344741100000078, 35.666899600000079 ], [ 117.341395300000045, 35.665319900000043 ], [ 117.340431900000112, 35.664537200000041 ], [ 117.338680200000113, 35.66455140000005 ], [ 117.337734300000079, 35.66517760000005 ], [ 117.337313800000061, 35.665391100000079 ], [ 117.336840900000084, 35.665846500000043 ], [ 117.336805800000093, 35.667084600000067 ], [ 117.335772300000031, 35.667597 ], [ 117.334546100000011, 35.667867300000069 ], [ 117.333425, 35.669077 ], [ 117.330799600000091, 35.671634300000051 ], [ 117.328749900000048, 35.674124800000072 ], [ 117.326174700000024, 35.674665600000026 ], [ 117.321777600000019, 35.674011 ], [ 117.318151300000068, 35.673954 ], [ 117.314857800000027, 35.675249 ], [ 117.313701600000059, 35.677782100000059 ], [ 117.313316200000031, 35.680215400000066 ], [ 117.313964400000032, 35.681709600000033 ], [ 117.3136316, 35.682919100000049 ], [ 117.312562900000103, 35.684726200000057 ], [ 117.307237300000111, 35.685010800000043 ], [ 117.305503, 35.684754700000042 ], [ 117.302139500000067, 35.684157 ], [ 117.30101830000001, 35.683673200000044 ], [ 117.300054800000112, 35.683573600000045 ], [ 117.299651900000072, 35.684527 ], [ 117.298951100000068, 35.684712 ], [ 117.295938, 35.684996600000034 ], [ 117.294413900000109, 35.686775200000056 ], [ 117.2931, 35.687358600000039 ], [ 117.291120400000068, 35.689862800000071 ], [ 117.287686800000074, 35.693320100000051 ], [ 117.285767800000031, 35.694905900000037 ], [ 117.283686700000089, 35.698306100000025 ], [ 117.282547100000102, 35.698990200000026 ], [ 117.279821800000036, 35.698668300000065 ], [ 117.275758800000062, 35.695121300000039 ], [ 117.275128100000074, 35.694125400000075 ], [ 117.27482150000003, 35.692003700000043 ], [ 117.271177700000067, 35.684661800000072 ], [ 117.268081100000018, 35.681970100000058 ], [ 117.262570300000107, 35.681768200000079 ], [ 117.25454620000005, 35.684119200000055 ], [ 117.248933, 35.686135800000045 ], [ 117.242027500000063, 35.688124300000027 ], [ 117.239378400000078, 35.688103 ], [ 117.237058900000079, 35.688766 ], [ 117.229934500000013, 35.686311200000034 ], [ 117.22507690000009, 35.682453300000077 ], [ 117.221190800000045, 35.682365600000026 ], [ 117.217088900000022, 35.681927200000075 ], [ 117.21320280000009, 35.683154700000046 ], [ 117.208669100000066, 35.684469900000067 ] ] } },
{ "type": "Feature", "properties": { "osm_id": "1448509242", "code": 8101, "fclass": "river", "width": 0, "name": "泗河", "Shape_Leng": 0.0019617660461699999 }, "geometry": { "type": "LineString", "coordinates": [ [ 116.84929980000004, 35.551005100000054 ], [ 116.849422900000036, 35.549047200000075 ] ] } },
{ "type": "Feature", "properties": { "osm_id": "1448509243", "code": 8101, "fclass": "river", "width": 0, "name": "泗河", "Shape_Leng": 0.000109617379995 }, "geometry": { "type": "LineString", "coordinates": [ [ 116.849292900000023, 35.55111450000004 ], [ 116.84929980000004, 35.551005100000054 ] ] } }
]
}
