{
"type": "FeatureCollection",
"name": "Zihe_Zishui",
"crs": { "type": "name", "properties": { "name": "urn:ogc:def:crs:OGC:1.3:CRS84" } },
"features": [
{ "type": "Feature", "properties": { "osm_id": "147616392", "code": 8101, "fclass": "river", "width": 0, "name": "淄河", "Shape_Leng": 0.112807245756 }, "geometry": { "type": "LineString", "coordinates": [ [ 118.482145400000036, 37.064348800000062 ], [ 118.481319400000075, 37.065087600000027 ], [ 118.481181300000117, 37.065297 ], [ 118.481106200000113, 37.065562400000033 ], [ 118.481015, 37.065951900000073 ], [ 118.481036100000097, 37.066419800000062 ], [ 118.481217500000071, 37.067529200000024 ], [ 118.481677700000091, 37.068663 ], [ 118.482136100000048, 37.069145100000071 ], [ 118.482463400000029, 37.069440400000076 ], [ 118.482815, 37.069622300000049 ], [ 118.483314600000085, 37.06983450000007 ], [ 118.483745500000055, 37.069932600000072 ], [ 118.484055700000113, 37.07000110000007 ], [ 118.484542300000044, 37.07000620000008 ], [ 118.484997400000111, 37.069957800000054 ], [ 118.48533580000003, 37.069903700000054 ], [ 118.48597170000005, 37.069752900000026 ], [ 118.486309600000027, 37.069663 ], [ 118.486511900000096, 37.069556400000067 ], [ 118.487677900000108, 37.068418100000031 ], [ 118.488592700000027, 37.067208100000073 ], [ 118.489619500000117, 37.066053600000032 ], [ 118.490368500000045, 37.065313100000026 ], [ 118.49154980000003, 37.06515 ], [ 118.492747200000053, 37.065454900000077 ], [ 118.494019800000046, 37.066098100000033 ], [ 118.49513520000005, 37.067105800000036 ], [ 118.495741700000053, 37.068642300000079 ], [ 118.496418600000084, 37.070145800000034 ], [ 118.497012900000072, 37.071520900000053 ], [ 118.496644300000071, 37.072742500000061 ], [ 118.495952400000078, 37.073386 ], [ 118.4959182, 37.074467300000038 ], [ 118.496492800000055, 37.07598930000006 ], [ 118.497766800000022, 37.077445700000055 ], [ 118.498539200000096, 37.078897900000072 ], [ 118.499161300000083, 37.080852800000059 ], [ 118.499408, 37.081967 ], [ 118.499674800000093, 37.083733400000028 ], [ 118.500534500000072, 37.08537380000007 ], [ 118.501080700000102, 37.086372400000073 ], [ 118.501462300000071, 37.087686100000042 ], [ 118.500758900000051, 37.08957920000006 ], [ 118.499262900000076, 37.092661900000053 ], [ 118.500260200000071, 37.094352400000048 ], [ 118.50263910000001, 37.095372500000053 ], [ 118.503685, 37.095965100000058 ], [ 118.503687600000035, 37.097300500000074 ], [ 118.503199700000096, 37.098541900000043 ], [ 118.502822, 37.099134 ], [ 118.503223600000069, 37.100628800000038 ], [ 118.503364200000078, 37.101186 ], [ 118.503424900000027, 37.101633700000036 ], [ 118.5033247, 37.10192580000006 ], [ 118.502129300000092, 37.103461200000027 ], [ 118.502122, 37.103761200000065 ], [ 118.5019469, 37.104881600000056 ], [ 118.502186400000028, 37.105810900000051 ], [ 118.502923200000055, 37.106772500000034 ], [ 118.503572600000098, 37.107413400000041 ], [ 118.505047500000046, 37.107765100000051 ], [ 118.50624920000007, 37.107902 ], [ 118.507386400000087, 37.108167200000025 ], [ 118.508522900000116, 37.108499100000074 ], [ 118.511978900000031, 37.11046 ], [ 118.512686500000086, 37.111204600000065 ], [ 118.514338700000053, 37.111940400000037 ], [ 118.516841000000113, 37.112846800000057 ], [ 118.518296600000099, 37.114152300000057 ], [ 118.518651700000078, 37.114498600000047 ], [ 118.518801900000085, 37.114909200000056 ], [ 118.518834100000049, 37.115345600000069 ], [ 118.518683900000042, 37.116021400000079 ], [ 118.518340600000101, 37.117304700000034 ], [ 118.518337, 37.11811490000008 ], [ 118.518874500000038, 37.119629300000042 ], [ 118.519198900000106, 37.120256200000028 ], [ 118.519156, 37.120658300000059 ], [ 118.518962800000054, 37.12124 ], [ 118.518630300000041, 37.121881600000052 ], [ 118.518087600000058, 37.122886400000027 ], [ 118.518197700000087, 37.124616900000035 ], [ 118.514080300000046, 37.123907900000063 ], [ 118.511704800000075, 37.123889400000053 ], [ 118.509350700000027, 37.125039800000025 ], [ 118.507656600000018, 37.125484700000072 ], [ 118.502379500000075, 37.127707300000054 ], [ 118.501708600000029, 37.127834700000051 ] ] } },
{ "type": "Feature", "properties": { "osm_id": "395105822", "code": 8101, "fclass": "river", "width": 0, "name": "淄河", "Shape_Leng": 0.14203014436399999 }, "geometry": { "type": "LineString", "coordinates": [ [ 118.135329200000115, 36.537883500000078 ], [ 118.13479980000011, 36.541239400000052 ], [ 118.134623300000044, 36.544965700000034 ], [ 118.135996100000057, 36.546809300000064 ], [ 118.139742100000035, 36.54981 ], [ 118.144115600000077, 36.551692700000046 ], [ 118.149783600000092, 36.553712800000028 ], [ 118.153961, 36.55692920000007 ], [ 118.15778540000008, 36.562361800000076 ], [ 118.160095500000011, 36.56502770000003 ], [ 118.161034300000097, 36.566194200000041 ], [ 118.162504400000103, 36.568562800000052 ], [ 118.163620300000048, 36.570902800000056 ], [ 118.166649, 36.57563250000004 ], [ 118.167942, 36.57885420000008 ], [ 118.168331700000067, 36.583355800000049 ], [ 118.168920400000047, 36.584762 ], [ 118.168986100000097, 36.586569500000053 ], [ 118.171751100000051, 36.592148100000031 ], [ 118.172389200000111, 36.59460990000008 ], [ 118.174569200000064, 36.596616400000073 ], [ 118.176979700000061, 36.598281200000031 ], [ 118.178716700000109, 36.59892160000004 ], [ 118.181144900000049, 36.599576100000036 ], [ 118.18274, 36.600330300000053 ], [ 118.183407300000113, 36.600853500000028 ], [ 118.183808400000089, 36.60119560000004 ], [ 118.184660600000029, 36.601497400000028 ], [ 118.185111800000072, 36.601497400000028 ], [ 118.185901300000069, 36.601336400000037 ], [ 118.186152000000106, 36.601386700000035 ], [ 118.186327500000061, 36.601527600000054 ], [ 118.187487500000088, 36.601876900000036 ], [ 118.188144700000066, 36.602151400000025 ], [ 118.188683600000104, 36.602674600000057 ], [ 118.188984400000095, 36.603761200000065 ], [ 118.188959400000044, 36.60453590000003 ], [ 118.189711300000113, 36.605401100000051 ], [ 118.191102500000056, 36.607051100000035 ], [ 118.192167800000107, 36.608469600000035 ], [ 118.193596500000012, 36.60994850000003 ], [ 118.196316100000104, 36.611628500000052 ], [ 118.198412800000028, 36.612460200000044 ], [ 118.199361100000033, 36.612602500000037 ], [ 118.200497800000107, 36.613302 ], [ 118.201717300000041, 36.614225300000044 ], [ 118.202420300000085, 36.614795 ], [ 118.202713200000062, 36.616232400000058 ], [ 118.202615400000013, 36.616903800000046 ], [ 118.2023967, 36.618392800000038 ], [ 118.202125300000034, 36.61965930000008 ], [ 118.201800500000104, 36.620914200000072 ], [ 118.207575100000099, 36.626995100000045 ], [ 118.208788600000048, 36.629215300000055 ], [ 118.209580500000015, 36.631910300000072 ], [ 118.209254700000088, 36.632574100000056 ], [ 118.209229600000072, 36.634102800000051 ], [ 118.208882500000072, 36.634875700000066 ], [ 118.208953400000041, 36.635266900000033 ], [ 118.209520500000053, 36.635430400000075 ], [ 118.209697800000072, 36.635643800000025 ], [ 118.209573700000078, 36.636106 ], [ 118.209653500000059, 36.637258 ], [ 118.209751, 36.637997600000062 ], [ 118.210194100000081, 36.63902870000004 ], [ 118.210477700000069, 36.640315700000031 ], [ 118.210584, 36.641510400000072 ], [ 118.210486500000115, 36.642200100000025 ] ] } },
{ "type": "Feature", "properties": { "osm_id": "395105823", "code": 8101, "fclass": "river", "width": 0, "name": "淄河", "Shape_Leng": 0.00071654406707099996 }, "geometry": { "type": "LineString", "coordinates": [ [ 118.135440800000083, 36.537175700000034 ], [ 118.135329200000115, 36.537883500000078 ] ] } },
{ "type": "Feature", "properties": { "osm_id": "395136516", "code": 8101, "fclass": "river", "width": 0, "name": "淄河", "Shape_Leng": 0.63364012043399998 }, "geometry": { "type": "LineString", "coordinates": [ [ 118.210486500000115, 36.642200100000025 ], [ 118.210256100000038, 36.64318140000006 ], [ 118.210353600000076, 36.643657800000028 ], [ 118.210397900000089, 36.644191100000057 ], [ 118.211381600000095, 36.646174900000062 ], [ 118.212515900000085, 36.647561400000029 ], [ 118.213083100000063, 36.648336400000062 ], [ 118.213606, 36.649075900000071 ], [ 118.21507710000003, 36.650057 ], [ 118.21513020000009, 36.650448100000062 ], [ 118.214820100000111, 36.651500400000032 ], [ 118.215015000000108, 36.65191980000003 ], [ 118.215201100000058, 36.652488600000027 ], [ 118.215112500000032, 36.652922300000057 ], [ 118.214580800000022, 36.653220900000065 ], [ 118.214394700000071, 36.654529100000047 ], [ 118.214456700000028, 36.655183200000067 ], [ 118.214270600000077, 36.655481800000075 ], [ 118.214545300000054, 36.656327800000042 ], [ 118.214873200000056, 36.657301800000027 ], [ 118.214820100000111, 36.658673900000053 ], [ 118.214199700000108, 36.659633600000063 ], [ 118.214323800000102, 36.659925100000066 ], [ 118.214616200000023, 36.660173900000075 ], [ 118.214598500000079, 36.660778100000073 ], [ 118.214775700000018, 36.661958200000072 ], [ 118.214846600000101, 36.66335870000006 ], [ 118.214660500000036, 36.66456 ], [ 118.213818600000081, 36.665071900000044 ], [ 118.213942700000075, 36.665512600000056 ], [ 118.213871800000106, 36.665946200000064 ], [ 118.21175380000011, 36.667794400000048 ], [ 118.211789200000112, 36.668988600000034 ], [ 118.211186600000019, 36.66988420000007 ], [ 118.210610600000109, 36.670182800000077 ], [ 118.210672600000066, 36.671092600000065 ], [ 118.209972500000049, 36.67286960000007 ], [ 118.209945900000093, 36.673651500000062 ], [ 118.210646000000111, 36.674625200000037 ], [ 118.21069030000001, 36.675606100000039 ], [ 118.210477700000069, 36.676267100000075 ], [ 118.210052300000029, 36.676686400000051 ], [ 118.210158600000113, 36.677013400000078 ], [ 118.210725800000091, 36.678406400000028 ], [ 118.210743500000035, 36.679088700000079 ], [ 118.210876400000075, 36.679351700000041 ], [ 118.211656300000072, 36.679330400000026 ], [ 118.211984200000074, 36.6797 ], [ 118.212409200000025, 36.680143800000053 ], [ 118.212514, 36.68097 ], [ 118.21226820000004, 36.681410700000072 ], [ 118.212363500000038, 36.681887500000073 ], [ 118.212967900000081, 36.682535700000074 ], [ 118.213473, 36.683203800000058 ], [ 118.214563100000078, 36.684134800000038 ], [ 118.215555600000016, 36.685108400000047 ], [ 118.217079900000044, 36.686565300000041 ], [ 118.217540700000086, 36.68779470000004 ], [ 118.217035600000031, 36.688590600000055 ], [ 118.216672200000062, 36.688825100000031 ], [ 118.216796300000055, 36.689244400000064 ], [ 118.217367, 36.689961400000072 ], [ 118.217593900000111, 36.690246400000035 ], [ 118.218630700000062, 36.69148290000004 ], [ 118.220385400000055, 36.694474500000069 ], [ 118.221590700000093, 36.695099800000037 ], [ 118.2223351, 36.695583 ], [ 118.222592100000043, 36.695782 ], [ 118.2223351, 36.697018400000047 ], [ 118.222423400000025, 36.697575100000051 ], [ 118.222468, 36.697856800000068 ], [ 118.2228579, 36.698205 ], [ 118.223030000000108, 36.699050900000032 ], [ 118.223061800000096, 36.699206900000036 ], [ 118.2234251000001, 36.699924500000066 ], [ 118.223549200000093, 36.700727400000062 ], [ 118.223035200000027, 36.701438 ], [ 118.222352800000067, 36.702034800000035 ], [ 118.222361700000079, 36.702468200000055 ], [ 118.223044, 36.703555300000062 ], [ 118.226119200000085, 36.704805800000031 ], [ 118.227315500000032, 36.705999400000053 ], [ 118.229681700000015, 36.707001200000036 ], [ 118.230647700000077, 36.708145 ], [ 118.231064200000105, 36.709715100000039 ], [ 118.231498400000078, 36.710176900000079 ], [ 118.232030100000088, 36.711221200000068 ], [ 118.231932700000016, 36.712421900000038 ], [ 118.231533900000045, 36.714361300000064 ], [ 118.231879500000105, 36.717004 ], [ 118.231454100000064, 36.720115400000054 ], [ 118.231666800000085, 36.720910900000035 ], [ 118.232411200000115, 36.721592900000076 ], [ 118.232508700000039, 36.722019100000068 ], [ 118.232012400000031, 36.723475200000053 ], [ 118.232109900000069, 36.724064800000065 ], [ 118.233217700000068, 36.724689900000044 ], [ 118.235743300000081, 36.72579090000005 ], [ 118.236904300000106, 36.726373300000034 ], [ 118.239332500000046, 36.727026800000033 ], [ 118.240856700000109, 36.728021200000057 ], [ 118.241087100000072, 36.729100800000026 ], [ 118.241450500000042, 36.729228600000056 ], [ 118.242886100000078, 36.72939910000008 ], [ 118.244569900000101, 36.729882100000054 ], [ 118.246129700000097, 36.731054 ], [ 118.249435200000107, 36.732886400000041 ], [ 118.263174500000105, 36.74202020000007 ], [ 118.264979, 36.743486300000029 ], [ 118.267326600000047, 36.744046600000047 ], [ 118.268563, 36.745976600000063 ], [ 118.272773500000085, 36.75113760000005 ], [ 118.275530400000093, 36.752161700000045 ], [ 118.277836200000024, 36.75266380000005 ], [ 118.278755700000033, 36.753080200000056 ], [ 118.280380800000103, 36.753537400000027 ], [ 118.281595500000094, 36.754250100000036 ], [ 118.283074200000101, 36.754370600000072 ], [ 118.284151900000097, 36.755234100000052 ], [ 118.285179500000027, 36.75533450000006 ], [ 118.286532900000111, 36.75603730000006 ], [ 118.287685800000077, 36.758286200000043 ], [ 118.28773590000003, 36.759711800000048 ], [ 118.289014100000031, 36.761940500000037 ], [ 118.290016600000058, 36.762502700000027 ], [ 118.293776, 36.764892 ], [ 118.295555400000012, 36.767241 ], [ 118.302297200000112, 36.773384400000054 ], [ 118.306182, 36.777981500000067 ], [ 118.309991500000024, 36.782196900000031 ], [ 118.311495200000081, 36.786291700000049 ], [ 118.311971400000061, 36.792774700000052 ], [ 118.314001500000018, 36.795022600000038 ], [ 118.316232100000093, 36.795945800000027 ], [ 118.322973900000079, 36.797129900000073 ], [ 118.329189400000018, 36.797471 ], [ 118.335680600000046, 36.797591400000044 ], [ 118.340367300000025, 36.799036400000034 ], [ 118.349891100000036, 36.802387800000076 ], [ 118.362691300000051, 36.807470200000068 ], [ 118.370784300000082, 36.813345900000058 ], [ 118.37386390000006, 36.818069300000047 ], [ 118.374401300000045, 36.819706500000052 ], [ 118.374842700000045, 36.822840300000053 ], [ 118.375025900000082, 36.824487100000056 ], [ 118.3751009, 36.827027300000054 ], [ 118.375359100000082, 36.82835410000007 ], [ 118.376167100000089, 36.831320800000071 ], [ 118.376391900000044, 36.832854200000043 ], [ 118.376367, 36.835460800000078 ], [ 118.3766501, 36.838074 ], [ 118.377774600000066, 36.840093800000034 ], [ 118.377924500000063, 36.841533600000048 ], [ 118.378266, 36.84393330000006 ], [ 118.378840700000069, 36.845066400000064 ], [ 118.379948500000069, 36.847219400000029 ], [ 118.380223400000091, 36.848192500000039 ], [ 118.38063150000005, 36.850298700000053 ], [ 118.380798100000106, 36.85152510000006 ], [ 118.380461600000103, 36.85359950000003 ], [ 118.380358000000115, 36.854883800000039 ], [ 118.380293300000062, 36.859005800000034 ], [ 118.379943800000092, 36.860631700000056 ], [ 118.378455300000041, 36.863987100000031 ], [ 118.377769300000068, 36.865882200000044 ], [ 118.378351700000053, 36.86788080000008 ], [ 118.3795943, 36.869651500000032 ], [ 118.381445300000109, 36.872654400000044 ], [ 118.382209000000103, 36.873896900000034 ], [ 118.381859500000019, 36.875170500000024 ], [ 118.382882000000109, 36.877293100000031 ], [ 118.383839900000112, 36.87861840000005 ], [ 118.384072900000092, 36.88013 ], [ 118.384021100000041, 36.881745200000069 ], [ 118.383762200000092, 36.88303940000003 ], [ 118.382752600000117, 36.884271400000046 ], [ 118.381587700000068, 36.885016800000074 ], [ 118.380396800000085, 36.885638 ], [ 118.378830700000094, 36.886362700000063 ], [ 118.378028100000051, 36.886756100000071 ], [ 118.37615130000006, 36.887905200000034 ], [ 118.374287400000071, 36.889044 ], [ 118.373562600000014, 36.890099900000052 ], [ 118.373834400000078, 36.892097900000067 ], [ 118.374986400000012, 36.893868 ], [ 118.374248600000101, 36.895607100000063 ], [ 118.373316600000067, 36.897335800000064 ], [ 118.373122500000022, 36.90044110000008 ], [ 118.372617700000092, 36.902490500000056 ], [ 118.372358800000029, 36.904633100000069 ], [ 118.372655500000064, 36.906284400000061 ], [ 118.373225, 36.906893800000034 ], [ 118.373879100000067, 36.907245400000079 ], [ 118.375346500000092, 36.907673200000033 ], [ 118.377694600000041, 36.908164300000067 ], [ 118.3795814, 36.908504 ], [ 118.380539200000044, 36.908504 ], [ 118.382144200000084, 36.908369400000026 ], [ 118.383199700000091, 36.908388800000068 ], [ 118.384161900000095, 36.908456400000034 ], [ 118.384642400000075, 36.908669600000053 ], [ 118.385419, 36.909166400000061 ], [ 118.386891900000023, 36.910131600000057 ], [ 118.38754090000009, 36.910602600000061 ], [ 118.388203200000021, 36.911552 ], [ 118.38868930000001, 36.912156500000037 ], [ 118.38913510000009, 36.913108200000067 ], [ 118.389919700000064, 36.914593900000057 ], [ 118.390490100000079, 36.916027 ], [ 118.390707600000042, 36.919509600000026 ], [ 118.390634200000022, 36.920707 ], [ 118.3905314000001, 36.921774800000037 ], [ 118.390157800000111, 36.923253200000033 ], [ 118.389074400000027, 36.924881 ], [ 118.387552, 36.925784400000055 ], [ 118.384722, 36.925941200000068 ], [ 118.382153500000072, 36.92612790000004 ], [ 118.378697700000089, 36.92744950000008 ], [ 118.377464100000111, 36.928123200000073 ], [ 118.376623900000027, 36.929478200000062 ], [ 118.375671300000022, 36.931033900000045 ], [ 118.37628170000005, 36.932738800000038 ], [ 118.37755750000008, 36.935254500000042 ], [ 118.37921950000009, 36.937562300000025 ], [ 118.382046, 36.940873600000032 ], [ 118.383291800000052, 36.943227 ], [ 118.384452700000111, 36.944924200000059 ], [ 118.385472, 36.94604430000004 ], [ 118.386774400000036, 36.946677900000054 ], [ 118.389081900000065, 36.947605600000031 ], [ 118.390582600000016, 36.948341 ], [ 118.393088300000045, 36.949053800000058 ], [ 118.394942900000046, 36.949698700000056 ], [ 118.395820600000093, 36.950875300000064 ], [ 118.39539590000004, 36.95181430000008 ], [ 118.395056100000033, 36.952572300000043 ], [ 118.39498530000003, 36.952911700000072 ], [ 118.394673900000043, 36.954506800000047 ], [ 118.395260500000063, 36.97029 ], [ 118.394797200000085, 36.976818300000048 ], [ 118.394717400000104, 36.980569200000048 ], [ 118.3993, 36.997526200000038 ], [ 118.402103800000077, 37.000816500000042 ], [ 118.405250900000055, 37.000968800000066 ], [ 118.408455300000014, 37.002964300000031 ], [ 118.410171900000023, 37.005249100000071 ], [ 118.421883, 37.005066300000067 ], [ 118.431667700000048, 37.006696100000056 ], [ 118.436512400000083, 37.011691800000051 ], [ 118.441719400000011, 37.018788800000038 ], [ 118.44234890000007, 37.023159400000054 ], [ 118.436493300000052, 37.030620900000031 ], [ 118.437809400000106, 37.035006 ], [ 118.441700400000059, 37.037122300000078 ], [ 118.443321600000104, 37.037959700000044 ], [ 118.452419700000064, 37.040152100000057 ], [ 118.465446900000074, 37.045754600000066 ], [ 118.473171600000114, 37.048296900000025 ], [ 118.474697500000048, 37.051813400000071 ], [ 118.4759563, 37.056973600000049 ], [ 118.480839200000105, 37.058602200000053 ], [ 118.4832996, 37.060215600000049 ], [ 118.483738300000027, 37.06325970000006 ], [ 118.482145400000036, 37.064348800000062 ] ] } },
{ "type": "Feature", "properties": { "osm_id": "1305326018", "code": 8101, "fclass": "river", "width": 0, "name": "淄河", "Shape_Leng": 0.0382236754296 }, "geometry": { "type": "LineString", "coordinates": [ [ 118.501576600000021, 37.127859700000045 ], [ 118.499761500000091, 37.12820430000005 ], [ 118.497766800000022, 37.127508500000033 ], [ 118.495959200000016, 37.127458800000056 ], [ 118.494338500000026, 37.127906100000075 ], [ 118.492963300000042, 37.126688 ], [ 118.49102280000011, 37.126511100000073 ], [ 118.490408700000103, 37.126822900000036 ], [ 118.489964200000031, 37.127220900000054 ], [ 118.48988810000003, 37.128105100000028 ], [ 118.489683900000045, 37.128998800000033 ], [ 118.489571200000114, 37.129302400000029 ], [ 118.489111900000012, 37.12971310000006 ], [ 118.487944600000105, 37.131489500000043 ], [ 118.486604500000112, 37.13521460000004 ], [ 118.486154100000022, 37.135781700000052 ], [ 118.485424500000022, 37.136149500000045 ], [ 118.483986800000025, 37.136867900000027 ], [ 118.483711, 37.137114700000041 ], [ 118.482806700000083, 37.138590400000055 ], [ 118.483492400000046, 37.139733300000046 ], [ 118.483492400000046, 37.141025200000058 ], [ 118.4841781, 37.143012800000065 ], [ 118.484365100000105, 37.148329200000035 ], [ 118.4841, 37.149884900000075 ] ] } },
{ "type": "Feature", "properties": { "osm_id": "1305326019", "code": 8101, "fclass": "river", "width": 0, "name": "淄河", "Shape_Leng": 0.00013434656676599999 }, "geometry": { "type": "LineString", "coordinates": [ [ 118.501708600000029, 37.127834700000051 ], [ 118.501576600000021, 37.127859700000045 ] ] } }
]
}
