{
  "type" : "FeatureCollection",
  "features" : [{"type":"Feature","id":0,"geometry":{"type":"LineString","coordinates":[[118.48214540038998,37.064348799957202],[118.48131940007033,37.065087600212621],[118.4811813001769,37.065297000156477],[118.48110619959152,37.065562399984799],[118.48101500024211,37.065951899960282],[118.48103610013595,37.066419800133701],[118.48121749968789,37.067529200212448],[118.48167769986605,37.068662999797652],[118.48213609960135,37.069145100266212],[118.48246339976617,37.069440399854614],[118.48281499961263,37.069622300328945],[118.48331459998883,37.069834499862338],[118.48374550025471,37.069932599709773],[118.48405569981071,37.070001100170714],[118.48454229958747,37.070006200226032],[118.48499739971032,37.069957799612837],[118.48533580020705,37.069903699995791],[118.48597170003404,37.069752899876505],[118.48630959960838,37.069663000047456],[118.48651190030398,37.06955639980805],[118.48767790011505,37.068418100015379],[118.48859270039281,37.067208099973868],[118.48961950043963,37.066053599793861],[118.49036849990637,37.065313099819775],[118.49154979988339,37.065149999672826],[118.49274720042297,37.06545490042339],[118.49401979957418,37.066098100047327],[118.49513519992956,37.067105800292495],[118.49574170001949,37.068642300102113],[118.49641859993847,37.070145800188584],[118.49701289982556,37.071520899569919],[118.49664430009443,37.072742499966466],[118.49595240038309,37.073385999963989],[118.49591820006492,37.074467299826097],[118.49649280030258,37.075989299866364],[118.49776679969807,37.077445699759267],[118.49853920042381,37.078897899818287],[118.4991613001539,37.080852800216633],[118.49940800037893,37.081966999977112],[118.49967479955239,37.083733399776634],[118.50053450016708,37.085373800060893],[118.50108069981445,37.086372400066239],[118.50146230014514,37.087686100033523],[118.50075889990342,37.089579199920195],[118.49926290016276,37.092661899627046],[118.50026019974848,37.09435240024311],[118.50263909991463,37.095372500340659],[118.50368499976298,37.095965099609714],[118.50368759970297,37.097300500217955],[118.50319970040596,37.098541900088662],[118.502822000435,37.09913400023396],[118.50322359988934,37.100628800278969],[118.50336419989799,37.101186000433643],[118.50342489963941,37.101633700035279],[118.50332469987507,37.10192579983584],[118.50212930032706,37.103461199774586],[118.50212199963062,37.103761200119322],[118.50194689982959,37.104881599806049],[118.50218640008234,37.105810899853225],[118.5029232002455,37.106772499950978],[118.50357259979569,37.107413400008454],[118.5050474996425,37.107765099679682],[118.50624919984079,37.10790199987747],[118.50738639976259,37.1081672000563],[118.50852290001194,37.108499100253312],[118.51197890020615,37.110460000029036],[118.5126865002818,37.111204600012343],[118.51433869967127,37.111940400129413],[118.51684100031196,37.112846799839986],[118.51829659980831,37.114152299788884],[118.51865169981613,37.114498599930471],[118.51880190008774,37.114909199799797],[118.51883410031348,37.115345600319245],[118.51868390004199,37.116021400367401],[118.51834060003875,37.117304699652209],[118.51833700005261,37.118114899782825],[118.51887449965852,37.119629299652502],[118.51919890040904,37.120256199963706],[118.51915600004941,37.120658300340324],[118.51896279959362,37.121239999826173],[118.51863030044808,37.121881599556218],[118.5180876000627,37.122886400387131],[118.51819769956421,37.124616900149874],[118.5140803001658,37.12390789982976],[118.51170480033636,37.123889399875964],[118.50935069987497,37.125039800046807],[118.50765660017203,37.125484700058905],[118.50237949981408,37.127707299852034],[118.50170860017181,37.127834699611753]]},"properties":{"FID":0,"osm_id":"147616392","code":8101,"fclass":"river","width":0,"name":"淄河","Shape_Leng":0.112807245756,"Shape_Le_1":0.112807244716}},{"type":"Feature","id":1,"geometry":{"type":"LineString","coordinates":[[118.13532919988268,36.537883499623888],[118.13479979957117,36.541239399878464],[118.13462330042501,36.544965700306875],[118.13599610023994,36.54680929970948],[118.13974210031779,36.549810000131458],[118.14411559965527,36.551692700257945],[118.14978360023304,36.553712799705977],[118.15396099970042,36.556929199822775],[118.15778539997632,36.562361800157021],[118.16009550020726,36.565027700068356],[118.16103429979319,36.566194199902441],[118.16250439995815,36.568562800133179],[118.16362030033667,36.570902800124202],[118.16664900025125,36.575632500239749],[118.16794199962362,36.578854200061357],[118.16833170014786,36.583355799730441],[118.16892039995651,36.584762000366084],[118.16898609992859,36.586569500082419],[118.17175109973357,36.592148099954898],[118.17238920020145,36.594609899627244],[118.17456920000859,36.596616400426569],[118.17697969965343,36.598281200217286],[118.17871669971601,36.598921600251686],[118.18114489981735,36.599576099857188],[118.1827400003508,36.600330300103337],[118.18340730000693,36.600853499589391],[118.18380840033751,36.601195599897096],[118.18466059970694,36.601497399785217],[118.18511180036933,36.601497399785217],[118.18590129990514,36.601336399555237],[118.18615200031468,36.60138670043591],[118.18632750031395,36.601527599918882],[118.18748749984832,36.601876900198818],[118.18814470011785,36.602151400266962],[118.18868359996827,36.602674599753016],[118.18898439981024,36.603761200219253],[118.18895939955667,36.604535899612131],[118.18971130023635,36.605401099581115],[118.19110250018025,36.607051100128217],[118.19216780020383,36.608469599892146],[118.19359650007846,36.609948499923405],[118.19631610030785,36.611628500055303],[118.19841280041044,36.612460200278065],[118.19936110043454,36.612602500005437],[118.20049780033332,36.613301999887426],[118.20171729991353,36.614225299657903],[118.20242029995688,36.614795000388995],[118.20271320015411,36.61623240030508],[118.20261539978094,36.61690379997043],[118.20239669994783,36.618392800287552],[118.20212529984281,36.619659300236549],[118.20180049979331,36.620914199830509],[118.20757509971111,36.626995099844009],[118.20878859991399,36.62921530024596],[118.20958049974035,36.631910300420088],[118.2092546996447,36.632574099914848],[118.20922959956647,36.634102799904326],[118.20888249992754,36.63487569975382],[118.2089533997796,36.635266900347233],[118.20952049967138,36.635430399793165],[118.20969780011342,36.635643799921468],[118.20957369996631,36.63610600019183],[118.20965350040876,36.637258000256566],[118.20975100040846,36.637997600009271],[118.2101940999778,36.6390286997148],[118.21047770028565,36.640315699709845],[118.21058400015158,36.641510399585343],[118.21048650015189,36.642200099554998]]},"properties":{"FID":1,"osm_id":"395105822","code":8101,"fclass":"river","width":0,"name":"淄河","Shape_Leng":0.14203014436399999,"Shape_Le_1":0.14203014415199999}},{"type":"Feature","id":2,"geometry":{"type":"LineString","coordinates":[[118.13544080035274,36.537175699898683],[118.13532919988268,36.537883499623888]]},"properties":{"FID":2,"osm_id":"395105823","code":8101,"fclass":"river","width":0,"name":"淄河","Shape_Leng":0.00071654406707099996,"Shape_Le_1":0.00071654386880299996}},{"type":"Feature","id":3,"geometry":{"type":"LineString","coordinates":[[118.21048650015189,36.642200099554998],[118.21025610013896,36.643181400201513],[118.21035360013855,36.64365779986764],[118.21039789984331,36.644191099639613],[118.21138159988095,36.646174899751884],[118.21251590038855,36.647561399838764],[118.213083100105,36.648336399605228],[118.2136060001169,36.649075900432535],[118.21507710032802,36.650056999630863],[118.21513019989891,36.650448100399558],[118.21482010016757,36.651500399823647],[118.21501500034208,36.651919799559153],[118.21520109975097,36.652488600068864],[118.21511250034166,36.652922299924228],[118.21458079956426,36.653220900024564],[118.21439470015537,36.654529099738227],[118.21445670031653,36.655183200044689],[118.21427060000826,36.655481800145026],[118.21454529972584,36.656327799588325],[118.21487319973846,36.657301800437779],[118.21482010016757,36.658673899680764],[118.21419970015609,36.659633600410359],[118.21432380030319,36.659925100363125],[118.21461619957802,36.660173899605809],[118.21459850002077,36.660778100129278],[118.21477569973877,36.661958200410652],[118.21484659959094,36.663358700243862],[118.21466050018205,36.664560000243853],[118.21381859984854,36.665071899748455],[118.21394269999564,36.665512599926615],[118.21387180014358,36.665946199957204],[118.21175379959823,36.66779440029137],[118.21178919961199,36.668988600143848],[118.21118659988178,36.669884199895932],[118.21061060029899,36.670182799996269],[118.21067259956089,36.671092600043494],[118.20997249983111,36.672869600151955],[118.20994589968359,36.67365150041644],[118.21064600031275,36.674625199993045],[118.2106903000174,36.675606100441257],[118.21047770028565,36.676267100346479],[118.21005230027345,36.676686400257211],[118.21015860013938,36.677013400048452],[118.21072579985582,36.678406400435108],[118.21074350031233,36.679088699883664],[118.21087640032567,36.679351700320751],[118.21165629959864,36.679330399878097],[118.21198419961115,36.679699999655327],[118.21240920032437,36.680143799796554],[118.21251400012102,36.68096999976575],[118.21226820011736,36.68141069994391],[118.21236350037532,36.68188749980834],[118.2129678996489,36.682535699662878],[118.21347300027878,36.683203799715614],[118.21456310000713,36.684134800380775],[118.21555559991111,36.685108400132606],[118.21707990041716,36.686565300048585],[118.21754070044301,36.687794700265272],[118.21703559981313,36.688590600276029],[118.21667219996209,36.688825100298175],[118.21679630010919,36.689244400208963],[118.21736699998712,36.689961399998651],[118.21759389983868,36.690246399651699],[118.21863070034658,36.691482900015899],[118.22038539996629,36.694474500198055],[118.22159070015073,36.695099799716047],[118.22233509958528,36.695583000055478],[118.22259209974573,36.695782000239149],[118.22233509958528,36.697018399879312],[118.22242340041964,36.697575100010908],[118.22246799959862,36.697856800051341],[118.22285789977229,36.698204999561142],[118.22303000033435,36.699050900079044],[118.22306180036185,36.699206900078423],[118.22342510038811,36.699924499715962],[118.22354919963595,36.700727400049516],[118.22303520021433,36.701438000263579],[118.22235280004179,36.702034800265892],[118.22236169973269,36.70246819974767],[118.22304400008056,36.703555300236985],[118.22611920034092,36.704805800347458],[118.22731550011031,36.705999400352084],[118.22968170005049,36.707001200145328],[118.23064769963173,36.708145000191678],[118.23106419995293,36.709715099572236],[118.23149839983137,36.710176899644239],[118.23203009970939,36.711221199598754],[118.23193270043384,36.71242189975095],[118.23153389966978,36.714361300333792],[118.23187950013892,36.717004000434315],[118.23145410012671,36.7201154002056],[118.23166679968313,36.720910900018055],[118.23241120001694,36.721592899992402],[118.23250870001652,36.722019100401212],[118.23201240015226,36.723475199920586],[118.23210990015184,36.724064799950611],[118.2332177003367,36.724689899819055],[118.23574329971359,36.725790900229924],[118.23690430019337,36.726373300287605],[118.23933250029472,36.72702679984701],[118.24085670007673,36.728021200018418],[118.24108710008966,36.729100800161859],[118.2414504999407,36.729228600119825],[118.24288610031329,36.72939909988861],[118.24456990008093,36.72988209967923],[118.2461297004254,36.731053999942219],[118.24943519997453,36.732886400087352],[118.26317449990336,36.7420201998724],[118.26497900038066,36.743486299852918],[118.26732659964296,36.744046599970659],[118.26856300018233,36.745976599940207],[118.27277350009706,36.751137599620563],[118.27553039970826,36.752161699902558],[118.27783620028049,36.752663800394146],[118.27875570041533,36.753080199991302],[118.28038079963426,36.753537400031064],[118.2815955004321,36.754250100162039],[118.28307419991449,36.754370600323],[118.28415189979046,36.755234099673999],[118.28517950023377,36.755334499987214],[118.28653289987346,36.756037300381138],[118.28768580015958,36.758286199948202],[118.28773589959212,36.759711799859701],[118.28901409972104,36.761940499754303],[118.29001660008612,36.762502700139578],[118.29377600006239,36.764892000065799],[118.29555539956209,36.76724099957255],[118.3022971996561,36.773384399770293],[118.30618200019921,36.777981500246085],[118.30999149960803,36.782196899667213],[118.31149520024337,36.786291700001982],[118.31197140025995,36.792774700392158],[118.31400150016918,36.795022599913125],[118.31623210033126,36.795945799858828],[118.32297390042527,36.797129900324705],[118.32918940017078,36.797470999686936],[118.33568059968002,36.797591400023123],[118.34036729961122,36.799036400109856],[118.34989110029414,36.802387800156907],[118.36269130026335,36.80747019998978],[118.37078430025531,36.81334589989342],[118.37386389999904,36.81806930025806],[118.37440129978017,36.819706499855158],[118.3748426996309,36.822840299939969],[118.3750258996256,36.824487099799853],[118.37510090038631,36.827027299670192],[118.37535910024235,36.828354100061745],[118.3761670997319,36.831320799815103],[118.37639189966649,36.832854199661654],[118.37636700013695,36.835460800075907],[118.3766501004219,36.838073999715391],[118.37777460011773,36.840093799689157],[118.37792450001575,36.841533599895797],[118.37826599957623,36.843933299582147],[118.37884069963866,36.845066400394103],[118.37994849982351,36.847219399855476],[118.3802234000899,36.848192499584229],[118.38063149984396,36.850298700124938],[118.38079810015222,36.851525100203276],[118.38046159992291,36.853599499817108],[118.38035799982185,36.854883800047389],[118.38029329989592,36.859005800377417],[118.37994379996644,36.860631699993007],[118.3784552996724,36.863987100224563],[118.37776930041298,36.86588220020343],[118.37835169957134,36.867880799559316],[118.37959430003696,36.869651499916813],[118.38144529996066,36.872654400080535],[118.38220899974556,36.873896899822114],[118.38185949981607,36.875170499918681],[118.38288200020418,36.877293099596898],[118.38383989959175,36.878618399919276],[118.38407290044404,36.880130000199415],[118.38402110039351,36.881745199681291],[118.38376219996564,36.883039399648624],[118.38275260035232,36.8842713998053],[118.38158770041207,36.885016800185213],[118.38039680017221,36.885637999693984],[118.37883070007683,36.886362700378356],[118.37802810011681,36.886756099814193],[118.37615130044219,36.887905199565353],[118.37428739974382,36.889044000280421],[118.37356260013394,36.890099899690654],[118.37383440043732,36.892097900098065],[118.37498639960268,36.893867999708448],[118.37424860029273,36.895607099687936],[118.37331659958147,36.897335799907296],[118.37312249980357,36.900441099577108],[118.37261770044654,36.902490499836745],[118.37235880001867,36.904633100437309],[118.37265549985148,36.906284399605397],[118.37322500003381,36.906893800008902],[118.37387910034022,36.907245399855356],[118.37534649984116,36.907673200158115],[118.37769460002585,36.908164300142403],[118.37958140016156,36.908504000159553],[118.38053919972435,36.908504000159553],[118.38214419999485,36.908369400427546],[118.38319970010616,36.908388799703403],[118.38416190005171,36.908456399942963],[118.384642399727,36.908669600421774],[118.38541900028667,36.909166400309175],[118.38689190004118,36.910131600393072],[118.38754090029238,36.910602599630295],[118.38820319971796,36.911552000424535],[118.38868930037097,36.912156500422213],[118.38913509970519,36.913108199883595],[118.38991969973438,36.914593899688782],[118.39049010013809,36.916026999946155],[118.39070760027562,36.919509600287881],[118.39063420030811,36.920706999928143],[118.3905313997044,36.921774800066999],[118.39015779974272,36.92325320007518],[118.38907439996365,36.924880999958248],[118.38755199972502,36.925784400429791],[118.38472199962064,36.925941199926513],[118.38215349988423,36.926127900082577],[118.37869770023872,36.927449499694717],[118.37746410018815,36.928123199825848],[118.37662389957336,36.929478200258814],[118.37567129989066,36.931033899694739],[118.37628170034031,36.932738800255493],[118.37755750017857,36.935254499895279],[118.37921950037969,36.937562299660442],[118.3820460003227,36.940873599836834],[118.38329179967684,36.943226999726335],[118.38445270033196,36.944924200291666],[118.38547200003279,36.946044299604807],[118.38677440001857,36.946677899865222],[118.38908190030952,36.947605600018505],[118.39058259990713,36.948340999937272],[118.39308829998515,36.949053799893022],[118.394942899895,36.949698700134945],[118.3958206004404,36.95087530025495],[118.39539590010077,36.951814300389685],[118.3950561002589,36.95257230027147],[118.3949853002315,36.952911699915092],[118.39467390008053,36.954506800448542],[118.39526049997221,36.970290000383272],[118.39479719983092,36.976818299624881],[118.39471740028785,36.980569200108562],[118.39930000009497,36.997526199674439],[118.40210380025019,37.000816499781706],[118.40525090040876,37.000968799970167],[118.40845529997216,37.002964300262306],[118.41017189981335,37.005249099866091],[118.42188300010048,37.005066300069757],[118.43166770040409,37.006696100045019],[118.43651240042698,37.01169179983674],[118.44171940043009,37.018788799763342],[118.4423488997819,37.02315939968662],[118.43649329972607,37.030620900234396],[118.43780939998385,37.035005999927023],[118.44170039955384,37.037122299854332],[118.44332160021179,37.037959699980206],[118.45241969960955,37.040152099639727],[118.46544690015435,37.045754599894906],[118.4731715998895,37.048296899682214],[118.47469750028949,37.051813399968466],[118.47595630024307,37.056973600151593],[118.48083919986925,37.058602200431267],[118.48329960019646,37.060215600369702],[118.48373830028243,37.063259700275012],[118.48214540038998,37.064348799957202]]},"properties":{"FID":3,"osm_id":"395136516","code":8101,"fclass":"river","width":0,"name":"淄河","Shape_Leng":0.63364012043399998,"Shape_Le_1":0.63364012033899997}},{"type":"Feature","id":4,"geometry":{"type":"LineString","coordinates":[[118.50157660037985,37.127859699865326],[118.49976149959355,37.128204300288303],[118.49776679969807,37.127508500217175],[118.49595920015702,37.127458800083616],[118.49433850042146,37.127906100386269],[118.49296330031609,37.126688000151148],[118.49102279986244,37.126511099907361],[118.49040869960186,37.126822900256684],[118.48996419978801,37.127220899724819],[118.48988810005585,37.128105099670677],[118.48968389999209,37.128998800054603],[118.48957119965121,37.129302400385541],[118.48911189969442,37.129713100079584],[118.48794460036311,37.131489500340194],[118.48660449989779,37.135214600173697],[118.48615409963202,37.135781700065479],[118.48542450034051,37.136149500299268],[118.48398680005084,37.136867900333414],[118.48371099956307,37.137114700383165],[118.48280669976941,37.138590399727207],[118.48349239955462,37.139733299552177],[118.48349239955462,37.141025199953049],[118.48417810023921,37.143012799701012],[118.48436509986948,37.148329200432329],[118.48410000041474,37.149884899868312]]},"properties":{"FID":4,"osm_id":"1305326018","code":8101,"fclass":"river","width":0,"name":"淄河","Shape_Leng":0.0382236754296,"Shape_Le_1":0.038223676290299997}},{"type":"Feature","id":5,"geometry":{"type":"LineString","coordinates":[[118.50170860017181,37.127834699611753],[118.50157660037985,37.127859699865326]]},"properties":{"FID":5,"osm_id":"1305326019","code":8101,"fclass":"river","width":0,"name":"淄河","Shape_Leng":0.00013434656676599999,"Shape_Le_1":0.00013434640954000001}}]
}